{
"type": "FeatureCollection",
"name": "bd_dhaka_hull.geojson",
"crs": { "type": "name", "properties": { "name": "urn:ogc:def:crs:OGC:1.3:CRS84" } },
"features": [
{ "type": "Feature", "properties": { "cluster_id": 1, "point_count": 8, "count_female_sum": 0.0, "count_female_count": 8, "count_female_mean": 0.0, "count_male_sum": 15.0, "count_male_count": 8, "count_male_mean": 4.0, "pq_c_daily_cus_sum": 1430.0, "pq_c_daily_cus_count": 8, "pq_c_daily_cus_mean": 350.0, "nearest_group": 11, "nearest_distance": 2814.8511365163413 }, "geometry": { "type": "Polygon", "coordinates": [ [ [ 90.4433718, 23.7312151 ], [ 90.4391507, 23.7299777 ], [ 90.4363861, 23.7290125 ], [ 90.4361775, 23.7258263 ], [ 90.4390733, 23.7246567 ], [ 90.4419583, 23.728785 ], [ 90.4433718, 23.7312151 ] ] ] } },
{ "type": "Feature", "properties": { "cluster_id": 2, "point_count": 16, "count_female_sum": 2.0, "count_female_count": 16, "count_female_mean": 2.0, "count_male_sum": 30.0, "count_male_count": 16, "count_male_mean": 3.0, "pq_c_daily_cus_sum": 2710.0, "pq_c_daily_cus_count": 16, "pq_c_daily_cus_mean": 560.0, "nearest_group": 8, "nearest_distance": 909.29447376708902 }, "geometry": { "type": "Polygon", "coordinates": [ [ [ 90.391270500000019, 23.8038666 ], [ 90.3907148, 23.8041666 ], [ 90.3794458, 23.8007425 ], [ 90.3806422, 23.7945035 ], [ 90.3842494, 23.7907013 ], [ 90.384296, 23.7907189 ], [ 90.3863371, 23.7921222 ], [ 90.391270500000019, 23.8038666 ] ] ] } },
{ "type": "Feature", "properties": { "cluster_id": 3, "point_count": 9, "count_female_sum": 0.0, "count_female_count": 9, "count_female_mean": 0.0, "count_male_sum": 16.0, "count_male_count": 9, "count_male_mean": 4.0, "pq_c_daily_cus_sum": 1215.0, "pq_c_daily_cus_count": 9, "pq_c_daily_cus_mean": 300.0, "nearest_group": 5, "nearest_distance": 463.16545244982944 }, "geometry": { "type": "Polygon", "coordinates": [ [ [ 90.3680353, 23.7315622 ], [ 90.365387699999985, 23.749397 ], [ 90.3619058, 23.750756 ], [ 90.3667421, 23.7324762 ], [ 90.3680353, 23.7315622 ] ] ] } },
{ "type": "Feature", "properties": { "cluster_id": 4, "point_count": 8, "count_female_sum": 2.0, "count_female_count": 8, "count_female_mean": 1.0, "count_male_sum": 13.0, "count_male_count": 8, "count_male_mean": 3.0, "pq_c_daily_cus_sum": 1130.0, "pq_c_daily_cus_count": 8, "pq_c_daily_cus_mean": 300.0, "nearest_group": 5, "nearest_distance": 2066.1539248303329 }, "geometry": { "type": "Polygon", "coordinates": [ [ [ 90.4059709, 23.7205202 ], [ 90.405765, 23.7219276 ], [ 90.40298660000002, 23.7224509 ], [ 90.400154599999979, 23.7212051 ], [ 90.400844300000017, 23.7177039 ], [ 90.4057558, 23.7203098 ], [ 90.4059709, 23.7205202 ] ] ] } },
{ "type": "Feature", "properties": { "cluster_id": 5, "point_count": 24, "count_female_sum": 0.0, "count_female_count": 24, "count_female_mean": 0.0, "count_male_sum": 43.0, "count_male_count": 24, "count_male_mean": 4.0, "pq_c_daily_cus_sum": 3070.0, "pq_c_daily_cus_count": 24, "pq_c_daily_cus_mean": 320.0, "nearest_group": 3, "nearest_distance": 463.16545244982944 }, "geometry": { "type": "Polygon", "coordinates": [ [ [ 90.3826615, 23.7123212 ], [ 90.3759649, 23.7287123 ], [ 90.36976, 23.7279534 ], [ 90.3621242, 23.7154272 ], [ 90.3672262, 23.709659 ], [ 90.372682499999968, 23.7091596 ], [ 90.3781099, 23.7102833 ], [ 90.3813757, 23.7117451 ], [ 90.3826615, 23.7123212 ] ] ] } },
{ "type": "Feature", "properties": { "cluster_id": 6, "point_count": 13, "count_female_sum": 0.0, "count_female_count": 13, "count_female_mean": 0.0, "count_male_sum": 25.0, "count_male_count": 13, "count_male_mean": 4.0, "pq_c_daily_cus_sum": 1740.0, "pq_c_daily_cus_count": 13, "pq_c_daily_cus_mean": 300.0, "nearest_group": 1, "nearest_distance": 2888.4655862097361 }, "geometry": { "type": "Polygon", "coordinates": [ [ [ 90.4574691, 23.6981001 ], [ 90.457403400000018, 23.6983314 ], [ 90.457073300000019, 23.698915 ], [ 90.4497462, 23.7021298 ], [ 90.4471145, 23.6950086 ], [ 90.4508713, 23.6941378 ], [ 90.4574691, 23.6981001 ] ] ] } },
{ "type": "Feature", "properties": { "cluster_id": 7, "point_count": 11, "count_female_sum": 1.0, "count_female_count": 11, "count_female_mean": 1.0, "count_male_sum": 20.0, "count_male_count": 11, "count_male_mean": 3.0, "pq_c_daily_cus_sum": 980.0, "pq_c_daily_cus_count": 11, "pq_c_daily_cus_mean": 150.0, "nearest_group": 11, "nearest_distance": 677.76176956847985 }, "geometry": { "type": "Polygon", "coordinates": [ [ [ 90.426545, 23.754575 ], [ 90.4253333, 23.7560967 ], [ 90.4237168, 23.7571767 ], [ 90.420195, 23.7587633 ], [ 90.417995, 23.7578433 ], [ 90.4152533, 23.753845 ], [ 90.4189383, 23.7537717 ], [ 90.4256584, 23.754415 ], [ 90.426545, 23.754575 ] ] ] } },
{ "type": "Feature", "properties": { "cluster_id": 8, "point_count": 47, "count_female_sum": 4.0, "count_female_count": 47, "count_female_mean": 1.0, "count_male_sum": 82.0, "count_male_count": 47, "count_male_mean": 5.0, "pq_c_daily_cus_sum": 5680.0, "pq_c_daily_cus_count": 47, "pq_c_daily_cus_mean": 300.0, "nearest_group": 2, "nearest_distance": 909.29447376708902 }, "geometry": { "type": "Polygon", "coordinates": [ [ [ 90.3776281, 23.7833115 ], [ 90.3651633, 23.8046583 ], [ 90.3620217, 23.80288 ], [ 90.3581085, 23.798213 ], [ 90.356338300000019, 23.7912967 ], [ 90.3560217, 23.7890533 ], [ 90.3612783, 23.7782367 ], [ 90.361365, 23.7781917 ], [ 90.3776281, 23.7833115 ] ] ] } },
{ "type": "Feature", "properties": { "cluster_id": 9, "point_count": 41, "count_female_sum": 4.0, "count_female_count": 41, "count_female_mean": 1.0, "count_male_sum": 79.0, "count_male_count": 41, "count_male_mean": 5.0, "pq_c_daily_cus_sum": 4245.0, "pq_c_daily_cus_count": 41, "pq_c_daily_cus_mean": 300.0, "nearest_group": 2, "nearest_distance": 922.82430679755566 }, "geometry": { "type": "Polygon", "coordinates": [ [ [ 90.3977466, 23.8174447 ], [ 90.3937333, 23.8267167 ], [ 90.3831433, 23.84248 ], [ 90.366615, 23.820023299999988 ], [ 90.3660904, 23.817557 ], [ 90.366305, 23.8159983 ], [ 90.36971, 23.814835 ], [ 90.3961289, 23.8113945 ], [ 90.3977466, 23.8174447 ] ] ] } },
{ "type": "Feature", "properties": { "cluster_id": 10, "point_count": 25, "count_female_sum": 1.0, "count_female_count": 25, "count_female_mean": 1.0, "count_male_sum": 115.0, "count_male_count": 25, "count_male_mean": 10.0, "pq_c_daily_cus_sum": 5015.0, "pq_c_daily_cus_count": 25, "pq_c_daily_cus_mean": 400.0, "nearest_group": 2, "nearest_distance": 1762.6165440709563 }, "geometry": { "type": "Polygon", "coordinates": [ [ [ 90.4170539, 23.7806561 ], [ 90.41479, 23.79446 ], [ 90.414503, 23.7950982 ], [ 90.4067574, 23.7933955 ], [ 90.4033343, 23.7909737 ], [ 90.400881699999985, 23.7805733 ], [ 90.405222900000012, 23.7729434 ], [ 90.4118833, 23.7731258 ], [ 90.4170539, 23.7806561 ] ] ] } },
{ "type": "Feature", "properties": { "cluster_id": 11, "point_count": 4, "count_female_sum": 0.0, "count_female_count": 4, "count_female_mean": 0.0, "count_male_sum": 10.0, "count_male_count": 4, "count_male_mean": 4.0, "pq_c_daily_cus_sum": 1050.0, "pq_c_daily_cus_count": 4, "pq_c_daily_cus_mean": 300.0, "nearest_group": 7, "nearest_distance": 677.76176956847985 }, "geometry": { "type": "Polygon", "coordinates": [ [ [ 90.4183134, 23.7480149 ], [ 90.4140784, 23.7464569 ], [ 90.4150431, 23.7449873 ], [ 90.4162351, 23.7441668 ], [ 90.4183134, 23.7480149 ] ] ] } }
]
}
