{
"type": "FeatureCollection",
"name": "bd_dhaka_clustered.geojson",
"crs": { "type": "name", "properties": { "name": "urn:ogc:def:crs:OGC:1.3:CRS84" } },
"features": [
{ "type": "Feature", "properties": { "_id": "666318499", "pq_city": 1.0, "pq_ward": 17.0, "count_female": 0.0, "count_male": 3.0, "pq_c_daily_cus": 120.0, "cluster_id": 10 }, "geometry": { "type": "Point", "coordinates": [ 90.4055067, 23.7800683 ] } },
{ "type": "Feature", "properties": { "_id": "666328509", "pq_city": 1.0, "pq_ward": 17.0, "count_female": 0.0, "count_male": 6.0, "pq_c_daily_cus": 100.0, "cluster_id": 10 }, "geometry": { "type": "Point", "coordinates": [ 90.405381700000021, 23.7806867 ] } },
{ "type": "Feature", "properties": { "_id": "666333716", "pq_city": 1.0, "pq_ward": 17.0, "count_female": 0.0, "count_male": 2.0, "pq_c_daily_cus": 150.0, "cluster_id": 10 }, "geometry": { "type": "Point", "coordinates": [ 90.400881699999985, 23.7805733 ] } },
{ "type": "Feature", "properties": { "_id": "667131560", "pq_city": 1.0, "pq_ward": 17.0, "count_female": 0.0, "count_male": 2.0, "pq_c_daily_cus": 200.0, "cluster_id": 10 }, "geometry": { "type": "Point", "coordinates": [ 90.40581, 23.7770767 ] } },
{ "type": "Feature", "properties": { "_id": "667131564", "pq_city": 1.0, "pq_ward": 17.0, "count_female": 1.0, "count_male": 1.0, "pq_c_daily_cus": 200.0, "cluster_id": 10 }, "geometry": { "type": "Point", "coordinates": [ 90.4061767, 23.776375 ] } },
{ "type": "Feature", "properties": { "_id": "667141944", "pq_city": 1.0, "pq_ward": 17.0, "count_female": 0.0, "count_male": 1.0, "pq_c_daily_cus": 100.0, "cluster_id": 10 }, "geometry": { "type": "Point", "coordinates": [ 90.406171700000016, 23.7750517 ] } },
{ "type": "Feature", "properties": { "_id": "667144749", "pq_city": 1.0, "pq_ward": 17.0, "count_female": 0.0, "count_male": 1.0, "pq_c_daily_cus": 50.0, "cluster_id": 10 }, "geometry": { "type": "Point", "coordinates": [ 90.4051973, 23.7838852 ] } },
{ "type": "Feature", "properties": { "_id": "667144757", "pq_city": 1.0, "pq_ward": 17.0, "count_female": 0.0, "count_male": 1.0, "pq_c_daily_cus": 100.0, "cluster_id": 10 }, "geometry": { "type": "Point", "coordinates": [ 90.4060744, 23.783624 ] } },
{ "type": "Feature", "properties": { "_id": "667144759", "pq_city": 1.0, "pq_ward": 17.0, "count_female": 0.0, "count_male": 1.0, "pq_c_daily_cus": 100.0, "cluster_id": 10 }, "geometry": { "type": "Point", "coordinates": [ 90.406639499999983, 23.7833768 ] } },
{ "type": "Feature", "properties": { "_id": "667157819", "pq_city": 1.0, "pq_ward": 17.0, "count_female": 0.0, "count_male": 5.0, "pq_c_daily_cus": 200.0, "cluster_id": 10 }, "geometry": { "type": "Point", "coordinates": [ 90.408787, 23.7793341 ] } },
{ "type": "Feature", "properties": { "_id": "667329867", "pq_city": 1.0, "pq_ward": 17.0, "count_female": 0.0, "count_male": 2.0, "pq_c_daily_cus": 110.0, "cluster_id": 10 }, "geometry": { "type": "Point", "coordinates": [ 90.402745, 23.7777033 ] } },
{ "type": "Feature", "properties": { "_id": "667334423", "pq_city": 1.0, "pq_ward": 17.0, "count_female": 0.0, "count_male": 1.0, "pq_c_daily_cus": 120.0, "cluster_id": 10 }, "geometry": { "type": "Point", "coordinates": [ 90.4039633, 23.7760217 ] } },
{ "type": "Feature", "properties": { "_id": "667346565", "pq_city": 1.0, "pq_ward": 17.0, "count_female": 0.0, "count_male": 10.0, "pq_c_daily_cus": 350.0, "cluster_id": 10 }, "geometry": { "type": "Point", "coordinates": [ 90.4170539, 23.7806561 ] } },
{ "type": "Feature", "properties": { "_id": "667383631", "pq_city": 1.0, "pq_ward": 16.0, "count_female": 0.0, "count_male": 1.0, "pq_c_daily_cus": 200.0, "cluster_id": 10 }, "geometry": { "type": "Point", "coordinates": [ 90.412305, 23.7866333 ] } },
{ "type": "Feature", "properties": { "_id": "667663994", "pq_city": 1.0, "pq_ward": 17.0, "count_female": 0.0, "count_male": 7.0, "pq_c_daily_cus": 220.0, "cluster_id": 10 }, "geometry": { "type": "Point", "coordinates": [ 90.4125816, 23.7745755 ] } },
{ "type": "Feature", "properties": { "_id": "667664989", "pq_city": 1.0, "pq_ward": 17.0, "count_female": 0.0, "count_male": 6.0, "pq_c_daily_cus": 175.0, "cluster_id": 10 }, "geometry": { "type": "Point", "coordinates": [ 90.4118833, 23.7731258 ] } },
{ "type": "Feature", "properties": { "_id": "667671770", "pq_city": 1.0, "pq_ward": 16.0, "count_female": 0.0, "count_male": 10.0, "pq_c_daily_cus": 200.0, "cluster_id": 10 }, "geometry": { "type": "Point", "coordinates": [ 90.41479, 23.79446 ] } },
{ "type": "Feature", "properties": { "_id": "667671771", "pq_city": 1.0, "pq_ward": 16.0, "count_female": 0.0, "count_male": 4.0, "pq_c_daily_cus": 200.0, "cluster_id": 10 }, "geometry": { "type": "Point", "coordinates": [ 90.4146683, 23.7943033 ] } },
{ "type": "Feature", "properties": { "_id": "667677964", "pq_city": 1.0, "pq_ward": 16.0, "count_female": 0.0, "count_male": 9.0, "pq_c_daily_cus": 400.0, "cluster_id": 10 }, "geometry": { "type": "Point", "coordinates": [ 90.4033343, 23.7909737 ] } },
{ "type": "Feature", "properties": { "_id": "667677965", "pq_city": 1.0, "pq_ward": 16.0, "count_female": 0.0, "count_male": 10.0, "pq_c_daily_cus": 400.0, "cluster_id": 10 }, "geometry": { "type": "Point", "coordinates": [ 90.4037333, 23.7910033 ] } },
{ "type": "Feature", "properties": { "_id": "667677968", "pq_city": 1.0, "pq_ward": 16.0, "count_female": 0.0, "count_male": 9.0, "pq_c_daily_cus": 300.0, "cluster_id": 10 }, "geometry": { "type": "Point", "coordinates": [ 90.4067574, 23.7933955 ] } },
{ "type": "Feature", "properties": { "_id": "667688614", "pq_city": 1.0, "pq_ward": 16.0, "count_female": 0.0, "count_male": 8.0, "pq_c_daily_cus": 400.0, "cluster_id": 10 }, "geometry": { "type": "Point", "coordinates": [ 90.4158669, 23.7803891 ] } },
{ "type": "Feature", "properties": { "_id": "667688620", "pq_city": 1.0, "pq_ward": 16.0, "count_female": 0.0, "count_male": 5.0, "pq_c_daily_cus": 300.0, "cluster_id": 10 }, "geometry": { "type": "Point", "coordinates": [ 90.4156917, 23.7804167 ] } },
{ "type": "Feature", "properties": { "_id": "668044990", "pq_city": 1.0, "pq_ward": 17.0, "count_female": 0.0, "count_male": 2.0, "pq_c_daily_cus": 120.0, "cluster_id": 10 }, "geometry": { "type": "Point", "coordinates": [ 90.4052229, 23.7729434 ] } },
{ "type": "Feature", "properties": { "_id": "668346272", "pq_city": 1.0, "pq_ward": 18.0, "count_female": 1.0, "count_male": 1.0, "pq_c_daily_cus": 120.0, "cluster_id": 7 }, "geometry": { "type": "Point", "coordinates": [ 90.420195, 23.7587633 ] } },
{ "type": "Feature", "properties": { "_id": "668354111", "pq_city": 1.0, "pq_ward": 18.0, "count_female": 0.0, "count_male": 3.0, "pq_c_daily_cus": 90.0, "cluster_id": 7 }, "geometry": { "type": "Point", "coordinates": [ 90.4237168, 23.7571767 ] } },
{ "type": "Feature", "properties": { "_id": "668369788", "pq_city": 1.0, "pq_ward": 18.0, "count_female": 0.0, "count_male": 1.0, "pq_c_daily_cus": 50.0, "cluster_id": 7 }, "geometry": { "type": "Point", "coordinates": [ 90.4253333, 23.7560967 ] } },
{ "type": "Feature", "properties": { "_id": "668379969", "pq_city": 1.0, "pq_ward": 16.0, "count_female": 0.0, "count_male": 8.0, "pq_c_daily_cus": 200.0, "cluster_id": 10 }, "geometry": { "type": "Point", "coordinates": [ 90.414503, 23.7950982 ] } },
{ "type": "Feature", "properties": { "_id": "668400797", "pq_city": 1.0, "pq_ward": 18.0, "count_female": 0.0, "count_male": 1.0, "pq_c_daily_cus": 100.0, "cluster_id": 7 }, "geometry": { "type": "Point", "coordinates": [ 90.426545, 23.754575 ] } },
{ "type": "Feature", "properties": { "_id": "668400798", "pq_city": 1.0, "pq_ward": 18.0, "count_female": 0.0, "count_male": 2.0, "pq_c_daily_cus": 120.0, "cluster_id": 7 }, "geometry": { "type": "Point", "coordinates": [ 90.4259495, 23.7545726 ] } },
{ "type": "Feature", "properties": { "_id": "668400802", "pq_city": 1.0, "pq_ward": 18.0, "count_female": 0.0, "count_male": 3.0, "pq_c_daily_cus": 80.0, "cluster_id": 7 }, "geometry": { "type": "Point", "coordinates": [ 90.4256584, 23.754415 ] } },
{ "type": "Feature", "properties": { "_id": "669176954", "pq_city": 1.0, "pq_ward": 18.0, "count_female": 0.0, "count_male": 1.0, "pq_c_daily_cus": 50.0, "cluster_id": 7 }, "geometry": { "type": "Point", "coordinates": [ 90.422445, 23.7549367 ] } },
{ "type": "Feature", "properties": { "_id": "669190184", "pq_city": 1.0, "pq_ward": 15.0, "count_female": 0.0, "count_male": 2.0, "pq_c_daily_cus": 60.0, "cluster_id": 2 }, "geometry": { "type": "Point", "coordinates": [ 90.3863371, 23.7921222 ] } },
{ "type": "Feature", "properties": { "_id": "669194786", "pq_city": 1.0, "pq_ward": 15.0, "count_female": 0.0, "count_male": 1.0, "pq_c_daily_cus": 80.0, "cluster_id": 2 }, "geometry": { "type": "Point", "coordinates": [ 90.384296, 23.7907189 ] } },
{ "type": "Feature", "properties": { "_id": "669194788", "pq_city": 1.0, "pq_ward": 15.0, "count_female": 0.0, "count_male": 2.0, "pq_c_daily_cus": 560.0, "cluster_id": 2 }, "geometry": { "type": "Point", "coordinates": [ 90.3842494, 23.7907013 ] } },
{ "type": "Feature", "properties": { "_id": "669199038", "pq_city": 1.0, "pq_ward": 18.0, "count_female": 0.0, "count_male": 3.0, "pq_c_daily_cus": 80.0, "cluster_id": 7 }, "geometry": { "type": "Point", "coordinates": [ 90.4152533, 23.753845 ] } },
{ "type": "Feature", "properties": { "_id": "669219158", "pq_city": 2.0, "pq_ward": 21.0, "count_female": 0.0, "count_male": 2.0, "pq_c_daily_cus": 150.0, "cluster_id": 11 }, "geometry": { "type": "Point", "coordinates": [ 90.4183134, 23.7480149 ] } },
{ "type": "Feature", "properties": { "_id": "669219159", "pq_city": 2.0, "pq_ward": 21.0, "count_female": 0.0, "count_male": 3.0, "pq_c_daily_cus": 300.0, "cluster_id": 11 }, "geometry": { "type": "Point", "coordinates": [ 90.4150431, 23.7449873 ] } },
{ "type": "Feature", "properties": { "_id": "669245540", "pq_city": 2.0, "pq_ward": 21.0, "count_female": 0.0, "count_male": 4.0, "pq_c_daily_cus": 300.0, "cluster_id": 11 }, "geometry": { "type": "Point", "coordinates": [ 90.4140784, 23.7464569 ] } },
{ "type": "Feature", "properties": { "_id": "669245560", "pq_city": 2.0, "pq_ward": 21.0, "count_female": 0.0, "count_male": 1.0, "pq_c_daily_cus": 300.0, "cluster_id": 11 }, "geometry": { "type": "Point", "coordinates": [ 90.4162351, 23.7441668 ] } },
{ "type": "Feature", "properties": { "_id": "669245839", "pq_city": 1.0, "pq_ward": 15.0, "count_female": 2.0, "count_male": 3.0, "pq_c_daily_cus": 320.0, "cluster_id": 2 }, "geometry": { "type": "Point", "coordinates": [ 90.3876026, 23.7959672 ] } },
{ "type": "Feature", "properties": { "_id": "669410859", "pq_city": 1.0, "pq_ward": 15.0, "count_female": 0.0, "count_male": 2.0, "pq_c_daily_cus": 60.0, "cluster_id": 2 }, "geometry": { "type": "Point", "coordinates": [ 90.384665, 23.7968863 ] } },
{ "type": "Feature", "properties": { "_id": "669417925", "pq_city": 1.0, "pq_ward": 15.0, "count_female": 0.0, "count_male": 3.0, "pq_c_daily_cus": 60.0, "cluster_id": 2 }, "geometry": { "type": "Point", "coordinates": [ 90.384857499999981, 23.7952632 ] } },
{ "type": "Feature", "properties": { "_id": "669417937", "pq_city": 1.0, "pq_ward": 15.0, "count_female": 0.0, "count_male": 2.0, "pq_c_daily_cus": 200.0, "cluster_id": 2 }, "geometry": { "type": "Point", "coordinates": [ 90.3847908, 23.7947161 ] } },
{ "type": "Feature", "properties": { "_id": "669698513", "pq_city": 1.0, "pq_ward": 15.0, "count_female": 0.0, "count_male": 2.0, "pq_c_daily_cus": 50.0, "cluster_id": 2 }, "geometry": { "type": "Point", "coordinates": [ 90.3821486, 23.7932749 ] } },
{ "type": "Feature", "properties": { "_id": "669704071", "pq_city": 1.0, "pq_ward": 15.0, "count_female": 0.0, "count_male": 3.0, "pq_c_daily_cus": 250.0, "cluster_id": 2 }, "geometry": { "type": "Point", "coordinates": [ 90.3823804, 23.795071 ] } },
{ "type": "Feature", "properties": { "_id": "669708456", "pq_city": 1.0, "pq_ward": 18.0, "count_female": 0.0, "count_male": 1.0, "pq_c_daily_cus": 75.0, "cluster_id": 7 }, "geometry": { "type": "Point", "coordinates": [ 90.418125, 23.7543933 ] } },
{ "type": "Feature", "properties": { "_id": "669710516", "pq_city": 1.0, "pq_ward": 15.0, "count_female": 0.0, "count_male": 1.0, "pq_c_daily_cus": 500.0, "cluster_id": 2 }, "geometry": { "type": "Point", "coordinates": [ 90.3824034, 23.7961644 ] } },
{ "type": "Feature", "properties": { "_id": "669714972", "pq_city": 1.0, "pq_ward": 18.0, "count_female": 0.0, "count_male": 3.0, "pq_c_daily_cus": 65.0, "cluster_id": 7 }, "geometry": { "type": "Point", "coordinates": [ 90.4189383, 23.7537717 ] } },
{ "type": "Feature", "properties": { "_id": "669721970", "pq_city": 1.0, "pq_ward": 15.0, "count_female": 0.0, "count_male": 1.0, "pq_c_daily_cus": 70.0, "cluster_id": 2 }, "geometry": { "type": "Point", "coordinates": [ 90.3822181, 23.7996372 ] } },
{ "type": "Feature", "properties": { "_id": "669740256", "pq_city": 1.0, "pq_ward": 18.0, "count_female": 0.0, "count_male": 1.0, "pq_c_daily_cus": 150.0, "cluster_id": 7 }, "geometry": { "type": "Point", "coordinates": [ 90.417995, 23.7578433 ] } },
{ "type": "Feature", "properties": { "_id": "669787221", "pq_city": 2.0, "pq_ward": 24.0, "count_female": 0.0, "count_male": 2.0, "pq_c_daily_cus": 150.0, "cluster_id": 5 }, "geometry": { "type": "Point", "coordinates": [ 90.3621242, 23.7154272 ] } },
{ "type": "Feature", "properties": { "_id": "669787223", "pq_city": 2.0, "pq_ward": 24.0, "count_female": 0.0, "count_male": 1.0, "pq_c_daily_cus": 30.0, "cluster_id": 5 }, "geometry": { "type": "Point", "coordinates": [ 90.362906199999983, 23.7159819 ] } },
{ "type": "Feature", "properties": { "_id": "669787226", "pq_city": 2.0, "pq_ward": 24.0, "count_female": 0.0, "count_male": 1.0, "pq_c_daily_cus": 60.0, "cluster_id": 5 }, "geometry": { "type": "Point", "coordinates": [ 90.3636665, 23.7150852 ] } },
{ "type": "Feature", "properties": { "_id": "670012120", "pq_city": 1.0, "pq_ward": 11.0, "count_female": 0.0, "count_male": 2.0, "pq_c_daily_cus": 150.0, "cluster_id": 9 }, "geometry": { "type": "Point", "coordinates": [ 90.3668533, 23.82002 ] } },
{ "type": "Feature", "properties": { "_id": "670012123", "pq_city": 1.0, "pq_ward": 11.0, "count_female": 0.0, "count_male": 1.0, "pq_c_daily_cus": 120.0, "cluster_id": 9 }, "geometry": { "type": "Point", "coordinates": [ 90.366615, 23.8200233 ] } },
{ "type": "Feature", "properties": { "_id": "670028868", "pq_city": 1.0, "pq_ward": 11.0, "count_female": 0.0, "count_male": 3.0, "pq_c_daily_cus": 220.0, "cluster_id": 9 }, "geometry": { "type": "Point", "coordinates": [ 90.3687016, 23.8182549 ] } },
{ "type": "Feature", "properties": { "_id": "670028874", "pq_city": 1.0, "pq_ward": 11.0, "count_female": 0.0, "count_male": 3.0, "pq_c_daily_cus": 100.0, "cluster_id": 9 }, "geometry": { "type": "Point", "coordinates": [ 90.3686267, 23.818395 ] } },
{ "type": "Feature", "properties": { "_id": "670028888", "pq_city": 1.0, "pq_ward": 11.0, "count_female": 0.0, "count_male": 4.0, "pq_c_daily_cus": 300.0, "cluster_id": 9 }, "geometry": { "type": "Point", "coordinates": [ 90.3660904, 23.817557 ] } },
{ "type": "Feature", "properties": { "_id": "670034259", "pq_city": 1.0, "pq_ward": 11.0, "count_female": 0.0, "count_male": 4.0, "pq_c_daily_cus": 300.0, "cluster_id": 9 }, "geometry": { "type": "Point", "coordinates": [ 90.366305, 23.8159983 ] } },
{ "type": "Feature", "properties": { "_id": "670040308", "pq_city": 1.0, "pq_ward": 11.0, "count_female": 0.0, "count_male": 2.0, "pq_c_daily_cus": 200.0, "cluster_id": 9 }, "geometry": { "type": "Point", "coordinates": [ 90.367685, 23.8159667 ] } },
{ "type": "Feature", "properties": { "_id": "670051793", "pq_city": 1.0, "pq_ward": 11.0, "count_female": 0.0, "count_male": 1.0, "pq_c_daily_cus": 200.0, "cluster_id": 9 }, "geometry": { "type": "Point", "coordinates": [ 90.369395, 23.8155667 ] } },
{ "type": "Feature", "properties": { "_id": "670051829", "pq_city": 1.0, "pq_ward": 11.0, "count_female": 1.0, "count_male": 1.0, "pq_c_daily_cus": 100.0, "cluster_id": 9 }, "geometry": { "type": "Point", "coordinates": [ 90.36971, 23.814835 ] } },
{ "type": "Feature", "properties": { "_id": "670097205", "pq_city": 2.0, "pq_ward": 24.0, "count_female": 0.0, "count_male": 1.0, "pq_c_daily_cus": 50.0, "cluster_id": 5 }, "geometry": { "type": "Point", "coordinates": [ 90.3683062, 23.7157289 ] } },
{ "type": "Feature", "properties": { "_id": "670097271", "pq_city": 2.0, "pq_ward": 24.0, "count_female": 0.0, "count_male": 2.0, "pq_c_daily_cus": 120.0, "cluster_id": 5 }, "geometry": { "type": "Point", "coordinates": [ 90.3672262, 23.709659 ] } },
{ "type": "Feature", "properties": { "_id": "670109128", "pq_city": 2.0, "pq_ward": 24.0, "count_female": 0.0, "count_male": 3.0, "pq_c_daily_cus": 180.0, "cluster_id": 5 }, "geometry": { "type": "Point", "coordinates": [ 90.369760400000018, 23.7148047 ] } },
{ "type": "Feature", "properties": { "_id": "672270105", "pq_city": 1.0, "pq_ward": 15.0, "count_female": 0.0, "count_male": 1.0, "pq_c_daily_cus": 200.0, "cluster_id": 2 }, "geometry": { "type": "Point", "coordinates": [ 90.3794458, 23.8007425 ] } },
{ "type": "Feature", "properties": { "_id": "672270129", "pq_city": 1.0, "pq_ward": 15.0, "count_female": 0.0, "count_male": 2.0, "pq_c_daily_cus": 40.0, "cluster_id": 2 }, "geometry": { "type": "Point", "coordinates": [ 90.3815264, 23.7992977 ] } },
{ "type": "Feature", "properties": { "_id": "672370456", "pq_city": 1.0, "pq_ward": 15.0, "count_female": 0.0, "count_male": 1.0, "pq_c_daily_cus": 80.0, "cluster_id": 2 }, "geometry": { "type": "Point", "coordinates": [ 90.3806422, 23.7945035 ] } },
{ "type": "Feature", "properties": { "_id": "672438345", "pq_city": 1.0, "pq_ward": 11.0, "count_female": 0.0, "count_male": 3.0, "pq_c_daily_cus": 100.0, "cluster_id": 9 }, "geometry": { "type": "Point", "coordinates": [ 90.37587, 23.8197683 ] } },
{ "type": "Feature", "properties": { "_id": "672452507", "pq_city": 1.0, "pq_ward": 12.0, "count_female": 0.0, "count_male": 1.0, "pq_c_daily_cus": 100.0, "cluster_id": 8 }, "geometry": { "type": "Point", "coordinates": [ 90.3560217, 23.7890533 ] } },
{ "type": "Feature", "properties": { "_id": "672452528", "pq_city": 1.0, "pq_ward": 12.0, "count_female": 0.0, "count_male": 2.0, "pq_c_daily_cus": 150.0, "cluster_id": 8 }, "geometry": { "type": "Point", "coordinates": [ 90.356338300000019, 23.7912967 ] } },
{ "type": "Feature", "properties": { "_id": "672456090", "pq_city": 1.0, "pq_ward": 15.0, "count_female": 0.0, "count_male": 1.0, "pq_c_daily_cus": 100.0, "cluster_id": 8 }, "geometry": { "type": "Point", "coordinates": [ 90.3776281, 23.7833115 ] } },
{ "type": "Feature", "properties": { "_id": "672457350", "pq_city": 1.0, "pq_ward": 11.0, "count_female": 0.0, "count_male": 1.0, "pq_c_daily_cus": 90.0, "cluster_id": 9 }, "geometry": { "type": "Point", "coordinates": [ 90.3755133, 23.8177317 ] } },
{ "type": "Feature", "properties": { "_id": "672467964", "pq_city": 1.0, "pq_ward": 12.0, "count_female": 0.0, "count_male": 1.0, "pq_c_daily_cus": 35.0, "cluster_id": 8 }, "geometry": { "type": "Point", "coordinates": [ 90.3621429, 23.7903547 ] } },
{ "type": "Feature", "properties": { "_id": "672467986", "pq_city": 1.0, "pq_ward": 12.0, "count_female": 0.0, "count_male": 2.0, "pq_c_daily_cus": 60.0, "cluster_id": 8 }, "geometry": { "type": "Point", "coordinates": [ 90.357266700000011, 23.791335 ] } },
{ "type": "Feature", "properties": { "_id": "672470409", "pq_city": 1.0, "pq_ward": 15.0, "count_female": 0.0, "count_male": 3.0, "pq_c_daily_cus": 100.0, "cluster_id": 8 }, "geometry": { "type": "Point", "coordinates": [ 90.3750044, 23.78345 ] } },
{ "type": "Feature", "properties": { "_id": "672470416", "pq_city": 1.0, "pq_ward": 15.0, "count_female": 0.0, "count_male": 3.0, "pq_c_daily_cus": 200.0, "cluster_id": 8 }, "geometry": { "type": "Point", "coordinates": [ 90.3747937, 23.7834005 ] } },
{ "type": "Feature", "properties": { "_id": "672477327", "pq_city": 1.0, "pq_ward": 11.0, "count_female": 0.0, "count_male": 1.0, "pq_c_daily_cus": 60.0, "cluster_id": 9 }, "geometry": { "type": "Point", "coordinates": [ 90.3715083, 23.8195117 ] } },
{ "type": "Feature", "properties": { "_id": "672477484", "pq_city": 1.0, "pq_ward": 15.0, "count_female": 0.0, "count_male": 5.0, "pq_c_daily_cus": 100.0, "cluster_id": 8 }, "geometry": { "type": "Point", "coordinates": [ 90.3747726, 23.7833757 ] } },
{ "type": "Feature", "properties": { "_id": "672482362", "pq_city": 1.0, "pq_ward": 12.0, "count_female": 0.0, "count_male": 1.0, "pq_c_daily_cus": 60.0, "cluster_id": 8 }, "geometry": { "type": "Point", "coordinates": [ 90.359425, 23.790455 ] } },
{ "type": "Feature", "properties": { "_id": "672482378", "pq_city": 1.0, "pq_ward": 12.0, "count_female": 0.0, "count_male": 1.0, "pq_c_daily_cus": 90.0, "cluster_id": 8 }, "geometry": { "type": "Point", "coordinates": [ 90.36066, 23.789455 ] } },
{ "type": "Feature", "properties": { "_id": "672489016", "pq_city": 1.0, "pq_ward": 15.0, "count_female": 0.0, "count_male": 1.0, "pq_c_daily_cus": 150.0, "cluster_id": 8 }, "geometry": { "type": "Point", "coordinates": [ 90.369284600000015, 23.7822914 ] } },
{ "type": "Feature", "properties": { "_id": "672504705", "pq_city": 1.0, "pq_ward": 12.0, "count_female": 1.0, "count_male": 1.0, "pq_c_daily_cus": 100.0, "cluster_id": 8 }, "geometry": { "type": "Point", "coordinates": [ 90.3625801, 23.7859565 ] } },
{ "type": "Feature", "properties": { "_id": "672527223", "pq_city": 1.0, "pq_ward": 15.0, "count_female": 0.0, "count_male": 1.0, "pq_c_daily_cus": 150.0, "cluster_id": 8 }, "geometry": { "type": "Point", "coordinates": [ 90.3744744, 23.7840642 ] } },
{ "type": "Feature", "properties": { "_id": "672537932", "pq_city": 1.0, "pq_ward": 12.0, "count_female": 0.0, "count_male": 2.0, "pq_c_daily_cus": 60.0, "cluster_id": 8 }, "geometry": { "type": "Point", "coordinates": [ 90.3619118, 23.7823464 ] } },
{ "type": "Feature", "properties": { "_id": "672537948", "pq_city": 1.0, "pq_ward": 12.0, "count_female": 0.0, "count_male": 2.0, "pq_c_daily_cus": 100.0, "cluster_id": 8 }, "geometry": { "type": "Point", "coordinates": [ 90.36128, 23.7805 ] } },
{ "type": "Feature", "properties": { "_id": "672537974", "pq_city": 1.0, "pq_ward": 12.0, "count_female": 0.0, "count_male": 5.0, "pq_c_daily_cus": 200.0, "cluster_id": 8 }, "geometry": { "type": "Point", "coordinates": [ 90.3613509, 23.7784469 ] } },
{ "type": "Feature", "properties": { "_id": "672537980", "pq_city": 1.0, "pq_ward": 12.0, "count_female": 0.0, "count_male": 2.0, "pq_c_daily_cus": 200.0, "cluster_id": 8 }, "geometry": { "type": "Point", "coordinates": [ 90.3612783, 23.7782367 ] } },
{ "type": "Feature", "properties": { "_id": "672537983", "pq_city": 1.0, "pq_ward": 12.0, "count_female": 0.0, "count_male": 4.0, "pq_c_daily_cus": 120.0, "cluster_id": 8 }, "geometry": { "type": "Point", "coordinates": [ 90.361365, 23.7781917 ] } },
{ "type": "Feature", "properties": { "_id": "672560244", "pq_city": 2.0, "pq_ward": 24.0, "count_female": 0.0, "count_male": 3.0, "pq_c_daily_cus": 150.0, "cluster_id": 5 }, "geometry": { "type": "Point", "coordinates": [ 90.372682499999982, 23.7091596 ] } },
{ "type": "Feature", "properties": { "_id": "672560309", "pq_city": 2.0, "pq_ward": 24.0, "count_female": 0.0, "count_male": 4.0, "pq_c_daily_cus": 320.0, "cluster_id": 5 }, "geometry": { "type": "Point", "coordinates": [ 90.3725195, 23.710915 ] } },
{ "type": "Feature", "properties": { "_id": "672751157", "pq_city": 1.0, "pq_ward": 12.0, "count_female": 0.0, "count_male": 4.0, "pq_c_daily_cus": 150.0, "cluster_id": 8 }, "geometry": { "type": "Point", "coordinates": [ 90.3603417, 23.7816082 ] } },
{ "type": "Feature", "properties": { "_id": "672760037", "pq_city": 1.0, "pq_ward": 11.0, "count_female": 0.0, "count_male": 2.0, "pq_c_daily_cus": 100.0, "cluster_id": 9 }, "geometry": { "type": "Point", "coordinates": [ 90.3794167, 23.8220483 ] } },
{ "type": "Feature", "properties": { "_id": "672760041", "pq_city": 1.0, "pq_ward": 11.0, "count_female": 1.0, "count_male": 1.0, "pq_c_daily_cus": 60.0, "cluster_id": 9 }, "geometry": { "type": "Point", "coordinates": [ 90.379555, 23.8220217 ] } },
{ "type": "Feature", "properties": { "_id": "672760049", "pq_city": 1.0, "pq_ward": 11.0, "count_female": 0.0, "count_male": 1.0, "pq_c_daily_cus": 80.0, "cluster_id": 9 }, "geometry": { "type": "Point", "coordinates": [ 90.3796317, 23.8224883 ] } },
{ "type": "Feature", "properties": { "_id": "672764522", "pq_city": 1.0, "pq_ward": 11.0, "count_female": 1.0, "count_male": 1.0, "pq_c_daily_cus": 100.0, "cluster_id": 9 }, "geometry": { "type": "Point", "coordinates": [ 90.3805983, 23.819975 ] } },
{ "type": "Feature", "properties": { "_id": "672772202", "pq_city": 1.0, "pq_ward": 13.0, "count_female": 0.0, "count_male": 2.0, "pq_c_daily_cus": 150.0, "cluster_id": 8 }, "geometry": { "type": "Point", "coordinates": [ 90.3581085, 23.798213 ] } },
{ "type": "Feature", "properties": { "_id": "672775451", "pq_city": 1.0, "pq_ward": 11.0, "count_female": 0.0, "count_male": 2.0, "pq_c_daily_cus": 200.0, "cluster_id": 9 }, "geometry": { "type": "Point", "coordinates": [ 90.3798433, 23.8206432 ] } },
{ "type": "Feature", "properties": { "_id": "672783034", "pq_city": 1.0, "pq_ward": 11.0, "count_female": 0.0, "count_male": 1.0, "pq_c_daily_cus": 100.0, "cluster_id": 9 }, "geometry": { "type": "Point", "coordinates": [ 90.379446300000012, 23.8177932 ] } },
{ "type": "Feature", "properties": { "_id": "672788490", "pq_city": 1.0, "pq_ward": 11.0, "count_female": 1.0, "count_male": 0.0, "pq_c_daily_cus": 45.0, "cluster_id": 9 }, "geometry": { "type": "Point", "coordinates": [ 90.3787, 23.819085 ] } },
{ "type": "Feature", "properties": { "_id": "672796165", "pq_city": 1.0, "pq_ward": 13.0, "count_female": 0.0, "count_male": 1.0, "pq_c_daily_cus": 70.0, "cluster_id": 8 }, "geometry": { "type": "Point", "coordinates": [ 90.36137, 23.7992867 ] } },
{ "type": "Feature", "properties": { "_id": "672803111", "pq_city": 1.0, "pq_ward": 13.0, "count_female": 0.0, "count_male": 3.0, "pq_c_daily_cus": 200.0, "cluster_id": 8 }, "geometry": { "type": "Point", "coordinates": [ 90.3625317, 23.7966867 ] } },
{ "type": "Feature", "properties": { "_id": "672811658", "pq_city": 1.0, "pq_ward": 13.0, "count_female": 0.0, "count_male": 1.0, "pq_c_daily_cus": 110.0, "cluster_id": 8 }, "geometry": { "type": "Point", "coordinates": [ 90.3641417, 23.7961417 ] } },
{ "type": "Feature", "properties": { "_id": "672817969", "pq_city": 1.0, "pq_ward": 11.0, "count_female": 0.0, "count_male": 1.0, "pq_c_daily_cus": 150.0, "cluster_id": 9 }, "geometry": { "type": "Point", "coordinates": [ 90.3781167, 23.8185 ] } },
{ "type": "Feature", "properties": { "_id": "672860986", "pq_city": 1.0, "pq_ward": 13.0, "count_female": 0.0, "count_male": 3.0, "pq_c_daily_cus": 300.0, "cluster_id": 8 }, "geometry": { "type": "Point", "coordinates": [ 90.3620217, 23.80288 ] } },
{ "type": "Feature", "properties": { "_id": "672861011", "pq_city": 1.0, "pq_ward": 13.0, "count_female": 0.0, "count_male": 1.0, "pq_c_daily_cus": 250.0, "cluster_id": 8 }, "geometry": { "type": "Point", "coordinates": [ 90.361235, 23.7965083 ] } },
{ "type": "Feature", "properties": { "_id": "672861020", "pq_city": 1.0, "pq_ward": 13.0, "count_female": 1.0, "count_male": 1.0, "pq_c_daily_cus": 60.0, "cluster_id": 8 }, "geometry": { "type": "Point", "coordinates": [ 90.3620283, 23.7995983 ] } },
{ "type": "Feature", "properties": { "_id": "672895661", "pq_city": 2.0, "pq_ward": 24.0, "count_female": 0.0, "count_male": 2.0, "pq_c_daily_cus": 120.0, "cluster_id": 5 }, "geometry": { "type": "Point", "coordinates": [ 90.3781099, 23.7102833 ] } },
{ "type": "Feature", "properties": { "_id": "672895707", "pq_city": 2.0, "pq_ward": 24.0, "count_female": 0.0, "count_male": 3.0, "pq_c_daily_cus": 50.0, "cluster_id": 5 }, "geometry": { "type": "Point", "coordinates": [ 90.3808425, 23.7125845 ] } },
{ "type": "Feature", "properties": { "_id": "672895711", "pq_city": 2.0, "pq_ward": 24.0, "count_female": 0.0, "count_male": 1.0, "pq_c_daily_cus": 180.0, "cluster_id": 5 }, "geometry": { "type": "Point", "coordinates": [ 90.380914300000015, 23.7121627 ] } },
{ "type": "Feature", "properties": { "_id": "672895712", "pq_city": 2.0, "pq_ward": 24.0, "count_female": 0.0, "count_male": 3.0, "pq_c_daily_cus": 150.0, "cluster_id": 5 }, "geometry": { "type": "Point", "coordinates": [ 90.3826615, 23.7123212 ] } },
{ "type": "Feature", "properties": { "_id": "672895772", "pq_city": 2.0, "pq_ward": 24.0, "count_female": 0.0, "count_male": 1.0, "pq_c_daily_cus": 150.0, "cluster_id": 5 }, "geometry": { "type": "Point", "coordinates": [ 90.3813757, 23.7117451 ] } },
{ "type": "Feature", "properties": { "_id": "672895779", "pq_city": 2.0, "pq_ward": 24.0, "count_female": 0.0, "count_male": 1.0, "pq_c_daily_cus": 160.0, "cluster_id": 5 }, "geometry": { "type": "Point", "coordinates": [ 90.3811123, 23.7119281 ] } },
{ "type": "Feature", "properties": { "_id": "672895789", "pq_city": 2.0, "pq_ward": 24.0, "count_female": 0.0, "count_male": 2.0, "pq_c_daily_cus": 200.0, "cluster_id": 5 }, "geometry": { "type": "Point", "coordinates": [ 90.3798095, 23.7119085 ] } },
{ "type": "Feature", "properties": { "_id": "672895805", "pq_city": 2.0, "pq_ward": 24.0, "count_female": 0.0, "count_male": 1.0, "pq_c_daily_cus": 80.0, "cluster_id": 5 }, "geometry": { "type": "Point", "coordinates": [ 90.3787708, 23.7112445 ] } },
{ "type": "Feature", "properties": { "_id": "673041264", "pq_city": 1.0, "pq_ward": 13.0, "count_female": 0.0, "count_male": 2.0, "pq_c_daily_cus": 90.0, "cluster_id": 8 }, "geometry": { "type": "Point", "coordinates": [ 90.362375, 23.8028883 ] } },
{ "type": "Feature", "properties": { "_id": "673050262", "pq_city": 1.0, "pq_ward": 13.0, "count_female": 0.0, "count_male": 2.0, "pq_c_daily_cus": 150.0, "cluster_id": 8 }, "geometry": { "type": "Point", "coordinates": [ 90.3651633, 23.8046583 ] } },
{ "type": "Feature", "properties": { "_id": "673051770", "pq_city": 1.0, "pq_ward": 14.0, "count_female": 0.0, "count_male": 1.0, "pq_c_daily_cus": 30.0, "cluster_id": 9 }, "geometry": { "type": "Point", "coordinates": [ 90.38603, 23.8249717 ] } },
{ "type": "Feature", "properties": { "_id": "673067349", "pq_city": 1.0, "pq_ward": 13.0, "count_female": 1.0, "count_male": 1.0, "pq_c_daily_cus": 50.0, "cluster_id": 8 }, "geometry": { "type": "Point", "coordinates": [ 90.364336699999981, 23.8014333 ] } },
{ "type": "Feature", "properties": { "_id": "673074370", "pq_city": 1.0, "pq_ward": 14.0, "count_female": 0.0, "count_male": 3.0, "pq_c_daily_cus": 60.0, "cluster_id": 9 }, "geometry": { "type": "Point", "coordinates": [ 90.392495, 23.82674 ] } },
{ "type": "Feature", "properties": { "_id": "673081061", "pq_city": 1.0, "pq_ward": 14.0, "count_female": 0.0, "count_male": 2.0, "pq_c_daily_cus": 60.0, "cluster_id": 9 }, "geometry": { "type": "Point", "coordinates": [ 90.3913467, 23.8264067 ] } },
{ "type": "Feature", "properties": { "_id": "673107220", "pq_city": 1.0, "pq_ward": 14.0, "count_female": 0.0, "count_male": 2.0, "pq_c_daily_cus": 50.0, "cluster_id": 9 }, "geometry": { "type": "Point", "coordinates": [ 90.3940364, 23.8236775 ] } },
{ "type": "Feature", "properties": { "_id": "673140777", "pq_city": 1.0, "pq_ward": 13.0, "count_female": 0.0, "count_male": 1.0, "pq_c_daily_cus": 140.0, "cluster_id": 8 }, "geometry": { "type": "Point", "coordinates": [ 90.365905, 23.796805 ] } },
{ "type": "Feature", "properties": { "_id": "673140778", "pq_city": 1.0, "pq_ward": 13.0, "count_female": 0.0, "count_male": 2.0, "pq_c_daily_cus": 150.0, "cluster_id": 8 }, "geometry": { "type": "Point", "coordinates": [ 90.3663083, 23.796845 ] } },
{ "type": "Feature", "properties": { "_id": "673140794", "pq_city": 1.0, "pq_ward": 13.0, "count_female": 0.0, "count_male": 1.0, "pq_c_daily_cus": 120.0, "cluster_id": 8 }, "geometry": { "type": "Point", "coordinates": [ 90.3650317, 23.7970367 ] } },
{ "type": "Feature", "properties": { "_id": "673201511", "pq_city": 1.0, "pq_ward": 14.0, "count_female": 0.0, "count_male": 5.0, "pq_c_daily_cus": 90.0, "cluster_id": 9 }, "geometry": { "type": "Point", "coordinates": [ 90.3969868, 23.818371 ] } },
{ "type": "Feature", "properties": { "_id": "673201520", "pq_city": 1.0, "pq_ward": 14.0, "count_female": 0.0, "count_male": 3.0, "pq_c_daily_cus": 100.0, "cluster_id": 9 }, "geometry": { "type": "Point", "coordinates": [ 90.3970045, 23.8183621 ] } },
{ "type": "Feature", "properties": { "_id": "673393452", "pq_city": 1.0, "pq_ward": 13.0, "count_female": 0.0, "count_male": 2.0, "pq_c_daily_cus": 200.0, "cluster_id": 8 }, "geometry": { "type": "Point", "coordinates": [ 90.3727617, 23.7901883 ] } },
{ "type": "Feature", "properties": { "_id": "673393464", "pq_city": 1.0, "pq_ward": 13.0, "count_female": 0.0, "count_male": 1.0, "pq_c_daily_cus": 130.0, "cluster_id": 8 }, "geometry": { "type": "Point", "coordinates": [ 90.37137, 23.7897533 ] } },
{ "type": "Feature", "properties": { "_id": "673397381", "pq_city": 1.0, "pq_ward": 14.0, "count_female": 0.0, "count_male": 1.0, "pq_c_daily_cus": 70.0, "cluster_id": 9 }, "geometry": { "type": "Point", "coordinates": [ 90.39149110000001, 23.8179702 ] } },
{ "type": "Feature", "properties": { "_id": "673399590", "pq_city": 1.0, "pq_ward": 14.0, "count_female": 0.0, "count_male": 1.0, "pq_c_daily_cus": 70.0, "cluster_id": 9 }, "geometry": { "type": "Point", "coordinates": [ 90.3918259, 23.8169385 ] } },
{ "type": "Feature", "properties": { "_id": "673415238", "pq_city": 1.0, "pq_ward": 13.0, "count_female": 0.0, "count_male": 1.0, "pq_c_daily_cus": 50.0, "cluster_id": 8 }, "geometry": { "type": "Point", "coordinates": [ 90.36972, 23.7865717 ] } },
{ "type": "Feature", "properties": { "_id": "673516854", "pq_city": 1.0, "pq_ward": 13.0, "count_female": 0.0, "count_male": 1.0, "pq_c_daily_cus": 120.0, "cluster_id": 8 }, "geometry": { "type": "Point", "coordinates": [ 90.367666, 23.7915831 ] } },
{ "type": "Feature", "properties": { "_id": "673516866", "pq_city": 1.0, "pq_ward": 13.0, "count_female": 0.0, "count_male": 3.0, "pq_c_daily_cus": 120.0, "cluster_id": 8 }, "geometry": { "type": "Point", "coordinates": [ 90.3708038, 23.7917846 ] } },
{ "type": "Feature", "properties": { "_id": "673516876", "pq_city": 1.0, "pq_ward": 13.0, "count_female": 0.0, "count_male": 1.0, "pq_c_daily_cus": 60.0, "cluster_id": 8 }, "geometry": { "type": "Point", "coordinates": [ 90.3688492, 23.7853573 ] } },
{ "type": "Feature", "properties": { "_id": "673516891", "pq_city": 1.0, "pq_ward": 13.0, "count_female": 0.0, "count_male": 1.0, "pq_c_daily_cus": 60.0, "cluster_id": 8 }, "geometry": { "type": "Point", "coordinates": [ 90.3676067, 23.7876617 ] } },
{ "type": "Feature", "properties": { "_id": "673516902", "pq_city": 1.0, "pq_ward": 13.0, "count_female": 0.0, "count_male": 1.0, "pq_c_daily_cus": 60.0, "cluster_id": 8 }, "geometry": { "type": "Point", "coordinates": [ 90.3668507, 23.78883 ] } },
{ "type": "Feature", "properties": { "_id": "673516928", "pq_city": 1.0, "pq_ward": 13.0, "count_female": 0.0, "count_male": 1.0, "pq_c_daily_cus": 100.0, "cluster_id": 8 }, "geometry": { "type": "Point", "coordinates": [ 90.3682683, 23.78919 ] } },
{ "type": "Feature", "properties": { "_id": "673547940", "pq_city": 2.0, "pq_ward": 22.0, "count_female": 0.0, "count_male": 1.0, "pq_c_daily_cus": 70.0, "cluster_id": 5 }, "geometry": { "type": "Point", "coordinates": [ 90.3714666, 23.727745 ] } },
{ "type": "Feature", "properties": { "_id": "673547945", "pq_city": 2.0, "pq_ward": 22.0, "count_female": 0.0, "count_male": 1.0, "pq_c_daily_cus": 40.0, "cluster_id": 5 }, "geometry": { "type": "Point", "coordinates": [ 90.3719961, 23.7275747 ] } },
{ "type": "Feature", "properties": { "_id": "673547965", "pq_city": 2.0, "pq_ward": 22.0, "count_female": 0.0, "count_male": 1.0, "pq_c_daily_cus": 80.0, "cluster_id": 5 }, "geometry": { "type": "Point", "coordinates": [ 90.36976, 23.7279534 ] } },
{ "type": "Feature", "properties": { "_id": "673548010", "pq_city": 2.0, "pq_ward": 22.0, "count_female": 0.0, "count_male": 1.0, "pq_c_daily_cus": 60.0, "cluster_id": 5 }, "geometry": { "type": "Point", "coordinates": [ 90.3759649, 23.7287123 ] } },
{ "type": "Feature", "properties": { "_id": "673548058", "pq_city": 2.0, "pq_ward": 22.0, "count_female": 0.0, "count_male": 4.0, "pq_c_daily_cus": 300.0, "cluster_id": 3 }, "geometry": { "type": "Point", "coordinates": [ 90.3673717, 23.732463 ] } },
{ "type": "Feature", "properties": { "_id": "673548091", "pq_city": 2.0, "pq_ward": 22.0, "count_female": 0.0, "count_male": 2.0, "pq_c_daily_cus": 150.0, "cluster_id": 3 }, "geometry": { "type": "Point", "coordinates": [ 90.3667421, 23.7324762 ] } },
{ "type": "Feature", "properties": { "_id": "673548107", "pq_city": 2.0, "pq_ward": 22.0, "count_female": 0.0, "count_male": 1.0, "pq_c_daily_cus": 200.0, "cluster_id": 3 }, "geometry": { "type": "Point", "coordinates": [ 90.3680353, 23.7315622 ] } },
{ "type": "Feature", "properties": { "_id": "673602244", "pq_city": 1.0, "pq_ward": 14.0, "count_female": 0.0, "count_male": 1.0, "pq_c_daily_cus": 45.0, "cluster_id": 9 }, "geometry": { "type": "Point", "coordinates": [ 90.3898034, 23.8175286 ] } },
{ "type": "Feature", "properties": { "_id": "673602250", "pq_city": 1.0, "pq_ward": 14.0, "count_female": 0.0, "count_male": 1.0, "pq_c_daily_cus": 40.0, "cluster_id": 9 }, "geometry": { "type": "Point", "coordinates": [ 90.3891122, 23.8148049 ] } },
{ "type": "Feature", "properties": { "_id": "673757488", "pq_city": 2.0, "pq_ward": 22.0, "count_female": 0.0, "count_male": 2.0, "pq_c_daily_cus": 200.0, "cluster_id": 5 }, "geometry": { "type": "Point", "coordinates": [ 90.3763455, 23.7256776 ] } },
{ "type": "Feature", "properties": { "_id": "673757534", "pq_city": 2.0, "pq_ward": 22.0, "count_female": 0.0, "count_male": 3.0, "pq_c_daily_cus": 200.0, "cluster_id": 5 }, "geometry": { "type": "Point", "coordinates": [ 90.3733321, 23.7261115 ] } },
{ "type": "Feature", "properties": { "_id": "673757561", "pq_city": 2.0, "pq_ward": 22.0, "count_female": 0.0, "count_male": 1.0, "pq_c_daily_cus": 120.0, "cluster_id": 5 }, "geometry": { "type": "Point", "coordinates": [ 90.3729527, 23.7264865 ] } },
{ "type": "Feature", "properties": { "_id": "673757692", "pq_city": 2.0, "pq_ward": 22.0, "count_female": 0.0, "count_male": 2.0, "pq_c_daily_cus": 150.0, "cluster_id": 5 }, "geometry": { "type": "Point", "coordinates": [ 90.3741365, 23.7248975 ] } },
{ "type": "Feature", "properties": { "_id": "674031541", "pq_city": 1.0, "pq_ward": 13.0, "count_female": 0.0, "count_male": 1.0, "pq_c_daily_cus": 70.0, "cluster_id": 8 }, "geometry": { "type": "Point", "coordinates": [ 90.366581700000012, 23.79684 ] } },
{ "type": "Feature", "properties": { "_id": "674032290", "pq_city": 1.0, "pq_ward": 14.0, "count_female": 0.0, "count_male": 2.0, "pq_c_daily_cus": 65.0, "cluster_id": 9 }, "geometry": { "type": "Point", "coordinates": [ 90.3937333, 23.8267167 ] } },
{ "type": "Feature", "properties": { "_id": "674034566", "pq_city": 1.0, "pq_ward": 14.0, "count_female": 0.0, "count_male": 3.0, "pq_c_daily_cus": 110.0, "cluster_id": 9 }, "geometry": { "type": "Point", "coordinates": [ 90.3952912, 23.8162282 ] } },
{ "type": "Feature", "properties": { "_id": "674034583", "pq_city": 1.0, "pq_ward": 14.0, "count_female": 0.0, "count_male": 1.0, "pq_c_daily_cus": 60.0, "cluster_id": 9 }, "geometry": { "type": "Point", "coordinates": [ 90.3941953, 23.8120791 ] } },
{ "type": "Feature", "properties": { "_id": "674034611", "pq_city": 1.0, "pq_ward": 14.0, "count_female": 0.0, "count_male": 2.0, "pq_c_daily_cus": 60.0, "cluster_id": 9 }, "geometry": { "type": "Point", "coordinates": [ 90.3961289, 23.8113945 ] } },
{ "type": "Feature", "properties": { "_id": "674034628", "pq_city": 1.0, "pq_ward": 14.0, "count_female": 0.0, "count_male": 1.0, "pq_c_daily_cus": 50.0, "cluster_id": 9 }, "geometry": { "type": "Point", "coordinates": [ 90.3925696, 23.8120699 ] } },
{ "type": "Feature", "properties": { "_id": "674034638", "pq_city": 1.0, "pq_ward": 14.0, "count_female": 0.0, "count_male": 1.0, "pq_c_daily_cus": 60.0, "cluster_id": 9 }, "geometry": { "type": "Point", "coordinates": [ 90.3923291, 23.8122101 ] } },
{ "type": "Feature", "properties": { "_id": "674053391", "pq_city": 1.0, "pq_ward": 13.0, "count_female": 1.0, "count_male": 1.0, "pq_c_daily_cus": 200.0, "cluster_id": 8 }, "geometry": { "type": "Point", "coordinates": [ 90.3650983, 23.795865 ] } },
{ "type": "Feature", "properties": { "_id": "674053409", "pq_city": 1.0, "pq_ward": 13.0, "count_female": 0.0, "count_male": 2.0, "pq_c_daily_cus": 200.0, "cluster_id": 8 }, "geometry": { "type": "Point", "coordinates": [ 90.3653717, 23.7924883 ] } },
{ "type": "Feature", "properties": { "_id": "674053426", "pq_city": 1.0, "pq_ward": 13.0, "count_female": 0.0, "count_male": 1.0, "pq_c_daily_cus": 120.0, "cluster_id": 8 }, "geometry": { "type": "Point", "coordinates": [ 90.365885, 23.7922817 ] } },
{ "type": "Feature", "properties": { "_id": "674061578", "pq_city": 1.0, "pq_ward": 13.0, "count_female": 0.0, "count_male": 1.0, "pq_c_daily_cus": 70.0, "cluster_id": 8 }, "geometry": { "type": "Point", "coordinates": [ 90.3626633, 23.78686 ] } },
{ "type": "Feature", "properties": { "_id": "674069882", "pq_city": 1.0, "pq_ward": 14.0, "count_female": 0.0, "count_male": 2.0, "pq_c_daily_cus": 80.0, "cluster_id": 9 }, "geometry": { "type": "Point", "coordinates": [ 90.3831433, 23.84248 ] } },
{ "type": "Feature", "properties": { "_id": "674083243", "pq_city": 2.0, "pq_ward": 23.0, "count_female": 0.0, "count_male": 2.0, "pq_c_daily_cus": 150.0, "cluster_id": 4 }, "geometry": { "type": "Point", "coordinates": [ 90.4009463, 23.7192615 ] } },
{ "type": "Feature", "properties": { "_id": "674083274", "pq_city": 2.0, "pq_ward": 22.0, "count_female": 1.0, "count_male": 1.0, "pq_c_daily_cus": 150.0, "cluster_id": 4 }, "geometry": { "type": "Point", "coordinates": [ 90.40298660000002, 23.7224509 ] } },
{ "type": "Feature", "properties": { "_id": "674083276", "pq_city": 2.0, "pq_ward": 23.0, "count_female": 0.0, "count_male": 3.0, "pq_c_daily_cus": 300.0, "cluster_id": 4 }, "geometry": { "type": "Point", "coordinates": [ 90.4038258, 23.7215563 ] } },
{ "type": "Feature", "properties": { "_id": "674083337", "pq_city": 2.0, "pq_ward": 23.0, "count_female": 1.0, "count_male": 0.0, "pq_c_daily_cus": 150.0, "cluster_id": 4 }, "geometry": { "type": "Point", "coordinates": [ 90.405765, 23.7219276 ] } },
{ "type": "Feature", "properties": { "_id": "674083355", "pq_city": 2.0, "pq_ward": 23.0, "count_female": 0.0, "count_male": 3.0, "pq_c_daily_cus": 120.0, "cluster_id": 4 }, "geometry": { "type": "Point", "coordinates": [ 90.4059709, 23.7205202 ] } },
{ "type": "Feature", "properties": { "_id": "674083360", "pq_city": 2.0, "pq_ward": 23.0, "count_female": 0.0, "count_male": 1.0, "pq_c_daily_cus": 160.0, "cluster_id": 4 }, "geometry": { "type": "Point", "coordinates": [ 90.4057558, 23.7203098 ] } },
{ "type": "Feature", "properties": { "_id": "674089961", "pq_city": 1.0, "pq_ward": 14.0, "count_female": 0.0, "count_male": 3.0, "pq_c_daily_cus": 50.0, "cluster_id": 9 }, "geometry": { "type": "Point", "coordinates": [ 90.3906478, 23.8135893 ] } },
{ "type": "Feature", "properties": { "_id": "674089993", "pq_city": 1.0, "pq_ward": 14.0, "count_female": 0.0, "count_male": 1.0, "pq_c_daily_cus": 200.0, "cluster_id": 9 }, "geometry": { "type": "Point", "coordinates": [ 90.3923943, 23.8142752 ] } },
{ "type": "Feature", "properties": { "_id": "674132365", "pq_city": 2.0, "pq_ward": 26.0, "count_female": 0.0, "count_male": 1.0, "pq_c_daily_cus": 60.0, "cluster_id": 1 }, "geometry": { "type": "Point", "coordinates": [ 90.4361775, 23.7258263 ] } },
{ "type": "Feature", "properties": { "_id": "674132390", "pq_city": 2.0, "pq_ward": 26.0, "count_female": 0.0, "count_male": 1.0, "pq_c_daily_cus": 120.0, "cluster_id": 1 }, "geometry": { "type": "Point", "coordinates": [ 90.4390733, 23.7246567 ] } },
{ "type": "Feature", "properties": { "_id": "674132430", "pq_city": 2.0, "pq_ward": 26.0, "count_female": 0.0, "count_male": 4.0, "pq_c_daily_cus": 280.0, "cluster_id": 1 }, "geometry": { "type": "Point", "coordinates": [ 90.4419583, 23.728785 ] } },
{ "type": "Feature", "properties": { "_id": "674132432", "pq_city": 2.0, "pq_ward": 26.0, "count_female": 0.0, "count_male": 2.0, "pq_c_daily_cus": 350.0, "cluster_id": 1 }, "geometry": { "type": "Point", "coordinates": [ 90.4419983, 23.72889 ] } },
{ "type": "Feature", "properties": { "_id": "674132436", "pq_city": 2.0, "pq_ward": 26.0, "count_female": 0.0, "count_male": 1.0, "pq_c_daily_cus": 110.0, "cluster_id": 1 }, "geometry": { "type": "Point", "coordinates": [ 90.44189, 23.7291267 ] } },
{ "type": "Feature", "properties": { "_id": "674169336", "pq_city": 2.0, "pq_ward": 26.0, "count_female": 0.0, "count_male": 3.0, "pq_c_daily_cus": 110.0, "cluster_id": 1 }, "geometry": { "type": "Point", "coordinates": [ 90.4363861, 23.7290125 ] } },
{ "type": "Feature", "properties": { "_id": "674169406", "pq_city": 2.0, "pq_ward": 26.0, "count_female": 0.0, "count_male": 2.0, "pq_c_daily_cus": 200.0, "cluster_id": 1 }, "geometry": { "type": "Point", "coordinates": [ 90.4391507, 23.7299777 ] } },
{ "type": "Feature", "properties": { "_id": "674169448", "pq_city": 2.0, "pq_ward": 26.0, "count_female": 0.0, "count_male": 1.0, "pq_c_daily_cus": 200.0, "cluster_id": 1 }, "geometry": { "type": "Point", "coordinates": [ 90.4433718, 23.7312151 ] } },
{ "type": "Feature", "properties": { "_id": "674300526", "pq_city": 1.0, "pq_ward": 13.0, "count_female": 0.0, "count_male": 1.0, "pq_c_daily_cus": 55.0, "cluster_id": 8 }, "geometry": { "type": "Point", "coordinates": [ 90.3652246, 23.7941245 ] } },
{ "type": "Feature", "properties": { "_id": "674306649", "pq_city": 1.0, "pq_ward": 14.0, "count_female": 0.0, "count_male": 3.0, "pq_c_daily_cus": 40.0, "cluster_id": 9 }, "geometry": { "type": "Point", "coordinates": [ 90.3973906, 23.8178865 ] } },
{ "type": "Feature", "properties": { "_id": "674306650", "pq_city": 1.0, "pq_ward": 14.0, "count_female": 0.0, "count_male": 5.0, "pq_c_daily_cus": 80.0, "cluster_id": 9 }, "geometry": { "type": "Point", "coordinates": [ 90.3977466, 23.8174447 ] } },
{ "type": "Feature", "properties": { "_id": "674313067", "pq_city": 1.0, "pq_ward": 19.0, "count_female": 0.0, "count_male": 2.0, "pq_c_daily_cus": 60.0, "cluster_id": 3 }, "geometry": { "type": "Point", "coordinates": [ 90.365313, 23.7460817 ] } },
{ "type": "Feature", "properties": { "_id": "674319023", "pq_city": 1.0, "pq_ward": 19.0, "count_female": 0.0, "count_male": 1.0, "pq_c_daily_cus": 70.0, "cluster_id": 3 }, "geometry": { "type": "Point", "coordinates": [ 90.364395, 23.7479967 ] } },
{ "type": "Feature", "properties": { "_id": "674338441", "pq_city": 2.0, "pq_ward": 23.0, "count_female": 0.0, "count_male": 1.0, "pq_c_daily_cus": 20.0, "cluster_id": 4 }, "geometry": { "type": "Point", "coordinates": [ 90.400154599999979, 23.7212051 ] } },
{ "type": "Feature", "properties": { "_id": "674338459", "pq_city": 2.0, "pq_ward": 22.0, "count_female": 0.0, "count_male": 2.0, "pq_c_daily_cus": 80.0, "cluster_id": 4 }, "geometry": { "type": "Point", "coordinates": [ 90.400844300000017, 23.7177039 ] } },
{ "type": "Feature", "properties": { "_id": "674345322", "pq_city": 1.0, "pq_ward": 14.0, "count_female": 0.0, "count_male": 2.0, "pq_c_daily_cus": 120.0, "cluster_id": 2 }, "geometry": { "type": "Point", "coordinates": [ 90.3907148, 23.8041666 ] } },
{ "type": "Feature", "properties": { "_id": "674345349", "pq_city": 1.0, "pq_ward": 14.0, "count_female": 0.0, "count_male": 2.0, "pq_c_daily_cus": 60.0, "cluster_id": 2 }, "geometry": { "type": "Point", "coordinates": [ 90.391270500000019, 23.8038666 ] } },
{ "type": "Feature", "properties": { "_id": "674424726", "pq_city": 1.0, "pq_ward": 19.0, "count_female": 0.0, "count_male": 3.0, "pq_c_daily_cus": 250.0, "cluster_id": 3 }, "geometry": { "type": "Point", "coordinates": [ 90.3636039, 23.7495139 ] } },
{ "type": "Feature", "properties": { "_id": "674424731", "pq_city": 1.0, "pq_ward": 19.0, "count_female": 0.0, "count_male": 1.0, "pq_c_daily_cus": 45.0, "cluster_id": 3 }, "geometry": { "type": "Point", "coordinates": [ 90.364019900000017, 23.7485684 ] } },
{ "type": "Feature", "properties": { "_id": "674424753", "pq_city": 1.0, "pq_ward": 19.0, "count_female": 0.0, "count_male": 1.0, "pq_c_daily_cus": 100.0, "cluster_id": 3 }, "geometry": { "type": "Point", "coordinates": [ 90.365387699999985, 23.749397 ] } },
{ "type": "Feature", "properties": { "_id": "674424802", "pq_city": 1.0, "pq_ward": 19.0, "count_female": 0.0, "count_male": 1.0, "pq_c_daily_cus": 40.0, "cluster_id": 3 }, "geometry": { "type": "Point", "coordinates": [ 90.3619058, 23.750756 ] } },
{ "type": "Feature", "properties": { "_id": "674440053", "pq_city": 2.0, "pq_ward": 25.0, "count_female": 0.0, "count_male": 2.0, "pq_c_daily_cus": 200.0, "cluster_id": 6 }, "geometry": { "type": "Point", "coordinates": [ 90.457403400000018, 23.6983314 ] } },
{ "type": "Feature", "properties": { "_id": "674440058", "pq_city": 2.0, "pq_ward": 25.0, "count_female": 0.0, "count_male": 2.0, "pq_c_daily_cus": 100.0, "cluster_id": 6 }, "geometry": { "type": "Point", "coordinates": [ 90.4574691, 23.6981001 ] } },
{ "type": "Feature", "properties": { "_id": "674440129", "pq_city": 2.0, "pq_ward": 25.0, "count_female": 0.0, "count_male": 2.0, "pq_c_daily_cus": 150.0, "cluster_id": 6 }, "geometry": { "type": "Point", "coordinates": [ 90.4507173, 23.6999075 ] } },
{ "type": "Feature", "properties": { "_id": "674440131", "pq_city": 2.0, "pq_ward": 25.0, "count_female": 0.0, "count_male": 1.0, "pq_c_daily_cus": 50.0, "cluster_id": 6 }, "geometry": { "type": "Point", "coordinates": [ 90.451686, 23.6991955 ] } },
{ "type": "Feature", "properties": { "_id": "674440140", "pq_city": 2.0, "pq_ward": 25.0, "count_female": 0.0, "count_male": 1.0, "pq_c_daily_cus": 150.0, "cluster_id": 6 }, "geometry": { "type": "Point", "coordinates": [ 90.452441, 23.6988367 ] } },
{ "type": "Feature", "properties": { "_id": "674440175", "pq_city": 2.0, "pq_ward": 24.0, "count_female": 0.0, "count_male": 3.0, "pq_c_daily_cus": 200.0, "cluster_id": 6 }, "geometry": { "type": "Point", "coordinates": [ 90.4535404, 23.6995806 ] } },
{ "type": "Feature", "properties": { "_id": "674440230", "pq_city": 2.0, "pq_ward": 25.0, "count_female": 0.0, "count_male": 1.0, "pq_c_daily_cus": 100.0, "cluster_id": 6 }, "geometry": { "type": "Point", "coordinates": [ 90.456485, 23.6991683 ] } },
{ "type": "Feature", "properties": { "_id": "674440244", "pq_city": 2.0, "pq_ward": 25.0, "count_female": 0.0, "count_male": 4.0, "pq_c_daily_cus": 300.0, "cluster_id": 6 }, "geometry": { "type": "Point", "coordinates": [ 90.457073300000019, 23.698915 ] } },
{ "type": "Feature", "properties": { "_id": "674482115", "pq_city": 2.0, "pq_ward": 25.0, "count_female": 0.0, "count_male": 4.0, "pq_c_daily_cus": 200.0, "cluster_id": 6 }, "geometry": { "type": "Point", "coordinates": [ 90.4497462, 23.7021298 ] } },
{ "type": "Feature", "properties": { "_id": "674482208", "pq_city": 2.0, "pq_ward": 25.0, "count_female": 0.0, "count_male": 1.0, "pq_c_daily_cus": 50.0, "cluster_id": 6 }, "geometry": { "type": "Point", "coordinates": [ 90.4471145, 23.6950086 ] } },
{ "type": "Feature", "properties": { "_id": "674482304", "pq_city": 2.0, "pq_ward": 25.0, "count_female": 0.0, "count_male": 2.0, "pq_c_daily_cus": 100.0, "cluster_id": 6 }, "geometry": { "type": "Point", "coordinates": [ 90.4508713, 23.6941378 ] } },
{ "type": "Feature", "properties": { "_id": "674876864", "pq_city": 2.0, "pq_ward": 25.0, "count_female": 0.0, "count_male": 1.0, "pq_c_daily_cus": 100.0, "cluster_id": 6 }, "geometry": { "type": "Point", "coordinates": [ 90.4503245, 23.7006025 ] } },
{ "type": "Feature", "properties": { "_id": "674876920", "pq_city": 2.0, "pq_ward": 25.0, "count_female": 0.0, "count_male": 1.0, "pq_c_daily_cus": 40.0, "cluster_id": 6 }, "geometry": { "type": "Point", "coordinates": [ 90.4496477, 23.6961241 ] } }
]
}
