{
"type": "FeatureCollection",
"name": "bd_narsi_clustered.geojson",
"crs": { "type": "name", "properties": { "name": "urn:ogc:def:crs:OGC:1.3:CRS84" } },
"features": [
{ "type": "Feature", "properties": { "_id": "674109976", "pq_city": 4.0, "pq_ward": 41.0, "count_female": 0.0, "count_male": 1.0, "pq_c_daily_cus": 30.0, "cluster_id": 10 }, "geometry": { "type": "Point", "coordinates": [ 90.619713799999985, 23.9547855 ] } },
{ "type": "Feature", "properties": { "_id": "674109979", "pq_city": 4.0, "pq_ward": 41.0, "count_female": 0.0, "count_male": 2.0, "pq_c_daily_cus": 50.0, "cluster_id": 10 }, "geometry": { "type": "Point", "coordinates": [ 90.6198589, 23.9557824 ] } },
{ "type": "Feature", "properties": { "_id": "674109986", "pq_city": 4.0, "pq_ward": 41.0, "count_female": 0.0, "count_male": 1.0, "pq_c_daily_cus": 70.0, "cluster_id": 10 }, "geometry": { "type": "Point", "coordinates": [ 90.6210264, 23.9603319 ] } },
{ "type": "Feature", "properties": { "_id": "674110341", "pq_city": 4.0, "pq_ward": 43.0, "count_female": 0.0, "count_male": 1.0, "pq_c_daily_cus": 60.0, "cluster_id": 8 }, "geometry": { "type": "Point", "coordinates": [ 90.6197867, 23.9415567 ] } },
{ "type": "Feature", "properties": { "_id": "674110354", "pq_city": 4.0, "pq_ward": 43.0, "count_female": 0.0, "count_male": 1.0, "pq_c_daily_cus": 40.0, "cluster_id": 8 }, "geometry": { "type": "Point", "coordinates": [ 90.619325099999983, 23.9421781 ] } },
{ "type": "Feature", "properties": { "_id": "674112234", "pq_city": 3.0, "pq_ward": 32.0, "count_female": 0.0, "count_male": 1.0, "pq_c_daily_cus": 40.0, "cluster_id": 3 }, "geometry": { "type": "Point", "coordinates": [ 90.7080066, 23.9051716 ] } },
{ "type": "Feature", "properties": { "_id": "674112237", "pq_city": 3.0, "pq_ward": 32.0, "count_female": 0.0, "count_male": 2.0, "pq_c_daily_cus": 40.0, "cluster_id": 3 }, "geometry": { "type": "Point", "coordinates": [ 90.7072686, 23.903572 ] } },
{ "type": "Feature", "properties": { "_id": "674112239", "pq_city": 3.0, "pq_ward": 32.0, "count_female": 0.0, "count_male": 2.0, "pq_c_daily_cus": 100.0, "cluster_id": 3 }, "geometry": { "type": "Point", "coordinates": [ 90.710044300000021, 23.9091661 ] } },
{ "type": "Feature", "properties": { "_id": "674112242", "pq_city": 3.0, "pq_ward": 32.0, "count_female": 0.0, "count_male": 2.0, "pq_c_daily_cus": 50.0, "cluster_id": 3 }, "geometry": { "type": "Point", "coordinates": [ 90.7104066, 23.9107587 ] } },
{ "type": "Feature", "properties": { "_id": "674116358", "pq_city": 4.0, "pq_ward": 44.0, "count_female": 0.0, "count_male": 1.0, "pq_c_daily_cus": 50.0, "cluster_id": 8 }, "geometry": { "type": "Point", "coordinates": [ 90.618869, 23.9403766 ] } },
{ "type": "Feature", "properties": { "_id": "674116361", "pq_city": 4.0, "pq_ward": 44.0, "count_female": 0.0, "count_male": 1.0, "pq_c_daily_cus": 70.0, "cluster_id": 8 }, "geometry": { "type": "Point", "coordinates": [ 90.6188103, 23.9402578 ] } },
{ "type": "Feature", "properties": { "_id": "674118342", "pq_city": 3.0, "pq_ward": 31.0, "count_female": 0.0, "count_male": 1.0, "pq_c_daily_cus": 100.0, "cluster_id": 5 }, "geometry": { "type": "Point", "coordinates": [ 90.717145, 23.9334017 ] } },
{ "type": "Feature", "properties": { "_id": "674118360", "pq_city": 3.0, "pq_ward": 31.0, "count_female": 0.0, "count_male": 3.0, "pq_c_daily_cus": 150.0, "cluster_id": 5 }, "geometry": { "type": "Point", "coordinates": [ 90.717718300000016, 23.9348217 ] } },
{ "type": "Feature", "properties": { "_id": "674121742", "pq_city": 4.0, "pq_ward": 42.0, "count_female": 0.0, "count_male": 1.0, "pq_c_daily_cus": 50.0, "cluster_id": 4 }, "geometry": { "type": "Point", "coordinates": [ 90.646411599999979, 23.9830982 ] } },
{ "type": "Feature", "properties": { "_id": "674121795", "pq_city": 4.0, "pq_ward": 42.0, "count_female": 0.0, "count_male": 1.0, "pq_c_daily_cus": 30.0, "cluster_id": 4 }, "geometry": { "type": "Point", "coordinates": [ 90.6472154, 23.9805216 ] } },
{ "type": "Feature", "properties": { "_id": "674121811", "pq_city": 4.0, "pq_ward": 42.0, "count_female": 0.0, "count_male": 1.0, "pq_c_daily_cus": 50.0, "cluster_id": 4 }, "geometry": { "type": "Point", "coordinates": [ 90.6498354, 23.9798513 ] } },
{ "type": "Feature", "properties": { "_id": "674121814", "pq_city": 4.0, "pq_ward": 42.0, "count_female": 0.0, "count_male": 3.0, "pq_c_daily_cus": 100.0, "cluster_id": 4 }, "geometry": { "type": "Point", "coordinates": [ 90.6502603, 23.9796006 ] } },
{ "type": "Feature", "properties": { "_id": "674122862", "pq_city": 3.0, "pq_ward": 31.0, "count_female": 0.0, "count_male": 1.0, "pq_c_daily_cus": 60.0, "cluster_id": 5 }, "geometry": { "type": "Point", "coordinates": [ 90.7065054, 23.9332322 ] } },
{ "type": "Feature", "properties": { "_id": "674273027", "pq_city": 3.0, "pq_ward": 31.0, "count_female": 0.0, "count_male": 1.0, "pq_c_daily_cus": 25.0, "cluster_id": 11 }, "geometry": { "type": "Point", "coordinates": [ 90.712005, 23.92941 ] } },
{ "type": "Feature", "properties": { "_id": "674273030", "pq_city": 3.0, "pq_ward": 31.0, "count_female": 0.0, "count_male": 1.0, "pq_c_daily_cus": 50.0, "cluster_id": 11 }, "geometry": { "type": "Point", "coordinates": [ 90.7097183, 23.926065 ] } },
{ "type": "Feature", "properties": { "_id": "674273033", "pq_city": 3.0, "pq_ward": 31.0, "count_female": 0.0, "count_male": 2.0, "pq_c_daily_cus": 100.0, "cluster_id": 11 }, "geometry": { "type": "Point", "coordinates": [ 90.7088917, 23.9258233 ] } },
{ "type": "Feature", "properties": { "_id": "674273034", "pq_city": 3.0, "pq_ward": 31.0, "count_female": 0.0, "count_male": 1.0, "pq_c_daily_cus": 40.0, "cluster_id": 11 }, "geometry": { "type": "Point", "coordinates": [ 90.7073833, 23.923565 ] } },
{ "type": "Feature", "properties": { "_id": "674273040", "pq_city": 3.0, "pq_ward": 31.0, "count_female": 0.0, "count_male": 1.0, "pq_c_daily_cus": 40.0, "cluster_id": 9 }, "geometry": { "type": "Point", "coordinates": [ 90.7085733, 23.9203567 ] } },
{ "type": "Feature", "properties": { "_id": "674273046", "pq_city": 3.0, "pq_ward": 31.0, "count_female": 0.0, "count_male": 1.0, "pq_c_daily_cus": 25.0, "cluster_id": 9 }, "geometry": { "type": "Point", "coordinates": [ 90.7117333, 23.9199467 ] } },
{ "type": "Feature", "properties": { "_id": "674344715", "pq_city": 4.0, "pq_ward": 42.0, "count_female": 0.0, "count_male": 1.0, "pq_c_daily_cus": 50.0, "cluster_id": 7 }, "geometry": { "type": "Point", "coordinates": [ 90.6313281, 23.9762087 ] } },
{ "type": "Feature", "properties": { "_id": "674344736", "pq_city": 4.0, "pq_ward": 42.0, "count_female": 0.0, "count_male": 1.0, "pq_c_daily_cus": 60.0, "cluster_id": 7 }, "geometry": { "type": "Point", "coordinates": [ 90.6321765, 23.9776115 ] } },
{ "type": "Feature", "properties": { "_id": "674344768", "pq_city": 4.0, "pq_ward": 42.0, "count_female": 0.0, "count_male": 1.0, "pq_c_daily_cus": 30.0, "cluster_id": 7 }, "geometry": { "type": "Point", "coordinates": [ 90.6357987, 23.9736101 ] } },
{ "type": "Feature", "properties": { "_id": "674344786", "pq_city": 4.0, "pq_ward": 42.0, "count_female": 0.0, "count_male": 1.0, "pq_c_daily_cus": 100.0, "cluster_id": 7 }, "geometry": { "type": "Point", "coordinates": [ 90.635291800000019, 23.9736503 ] } },
{ "type": "Feature", "properties": { "_id": "674344794", "pq_city": 4.0, "pq_ward": 42.0, "count_female": 0.0, "count_male": 1.0, "pq_c_daily_cus": 50.0, "cluster_id": 7 }, "geometry": { "type": "Point", "coordinates": [ 90.6353765, 23.9735842 ] } },
{ "type": "Feature", "properties": { "_id": "674344808", "pq_city": 4.0, "pq_ward": 42.0, "count_female": 0.0, "count_male": 1.0, "pq_c_daily_cus": 50.0, "cluster_id": 7 }, "geometry": { "type": "Point", "coordinates": [ 90.635249799999983, 23.9733849 ] } },
{ "type": "Feature", "properties": { "_id": "674344819", "pq_city": 4.0, "pq_ward": 42.0, "count_female": 1.0, "count_male": 0.0, "pq_c_daily_cus": 50.0, "cluster_id": 7 }, "geometry": { "type": "Point", "coordinates": [ 90.6348687, 23.9738994 ] } },
{ "type": "Feature", "properties": { "_id": "674344825", "pq_city": 4.0, "pq_ward": 42.0, "count_female": 0.0, "count_male": 1.0, "pq_c_daily_cus": 80.0, "cluster_id": 7 }, "geometry": { "type": "Point", "coordinates": [ 90.6346439, 23.9740015 ] } },
{ "type": "Feature", "properties": { "_id": "674377138", "pq_city": 4.0, "pq_ward": 44.0, "count_female": 0.0, "count_male": 1.0, "pq_c_daily_cus": 150.0, "cluster_id": 8 }, "geometry": { "type": "Point", "coordinates": [ 90.618198099999987, 23.9354983 ] } },
{ "type": "Feature", "properties": { "_id": "674377163", "pq_city": 4.0, "pq_ward": 44.0, "count_female": 0.0, "count_male": 4.0, "pq_c_daily_cus": 300.0, "cluster_id": 8 }, "geometry": { "type": "Point", "coordinates": [ 90.6181434, 23.9354279 ] } },
{ "type": "Feature", "properties": { "_id": "674377196", "pq_city": 4.0, "pq_ward": 44.0, "count_female": 0.0, "count_male": 5.0, "pq_c_daily_cus": 300.0, "cluster_id": 8 }, "geometry": { "type": "Point", "coordinates": [ 90.6182789, 23.9351827 ] } },
{ "type": "Feature", "properties": { "_id": "674377270", "pq_city": 4.0, "pq_ward": 44.0, "count_female": 0.0, "count_male": 1.0, "pq_c_daily_cus": 50.0, "cluster_id": 8 }, "geometry": { "type": "Point", "coordinates": [ 90.6181982, 23.9350906 ] } },
{ "type": "Feature", "properties": { "_id": "674385869", "pq_city": 4.0, "pq_ward": 41.0, "count_female": 0.0, "count_male": 1.0, "pq_c_daily_cus": 50.0, "cluster_id": 6 }, "geometry": { "type": "Point", "coordinates": [ 90.6213029, 23.9662841 ] } },
{ "type": "Feature", "properties": { "_id": "674385877", "pq_city": 4.0, "pq_ward": 41.0, "count_female": 0.0, "count_male": 1.0, "pq_c_daily_cus": 40.0, "cluster_id": 6 }, "geometry": { "type": "Point", "coordinates": [ 90.6211199, 23.9647869 ] } },
{ "type": "Feature", "properties": { "_id": "674397137", "pq_city": 3.0, "pq_ward": 32.0, "count_female": 0.0, "count_male": 1.0, "pq_c_daily_cus": 40.0, "cluster_id": 9 }, "geometry": { "type": "Point", "coordinates": [ 90.7121887, 23.9151369 ] } },
{ "type": "Feature", "properties": { "_id": "674397155", "pq_city": 3.0, "pq_ward": 32.0, "count_female": 0.0, "count_male": 1.0, "pq_c_daily_cus": 50.0, "cluster_id": 9 }, "geometry": { "type": "Point", "coordinates": [ 90.7115181, 23.9134322 ] } },
{ "type": "Feature", "properties": { "_id": "674414717", "pq_city": 3.0, "pq_ward": 31.0, "count_female": 0.0, "count_male": 1.0, "pq_c_daily_cus": 25.0, "cluster_id": 11 }, "geometry": { "type": "Point", "coordinates": [ 90.7027482, 23.9283009 ] } },
{ "type": "Feature", "properties": { "_id": "674650415", "pq_city": 4.0, "pq_ward": 42.0, "count_female": 0.0, "count_male": 1.0, "pq_c_daily_cus": 20.0, "cluster_id": 4 }, "geometry": { "type": "Point", "coordinates": [ 90.6448276, 23.9767378 ] } },
{ "type": "Feature", "properties": { "_id": "674650430", "pq_city": 4.0, "pq_ward": 42.0, "count_female": 0.0, "count_male": 1.0, "pq_c_daily_cus": 50.0, "cluster_id": 2 }, "geometry": { "type": "Point", "coordinates": [ 90.6432922, 23.9723082 ] } },
{ "type": "Feature", "properties": { "_id": "674650442", "pq_city": 4.0, "pq_ward": 42.0, "count_female": 0.0, "count_male": 1.0, "pq_c_daily_cus": 70.0, "cluster_id": 7 }, "geometry": { "type": "Point", "coordinates": [ 90.634772600000019, 23.9702296 ] } },
{ "type": "Feature", "properties": { "_id": "674710262", "pq_city": 4.0, "pq_ward": 43.0, "count_female": 0.0, "count_male": 1.0, "pq_c_daily_cus": 20.0, "cluster_id": 10 }, "geometry": { "type": "Point", "coordinates": [ 90.6248383, 23.9463517 ] } },
{ "type": "Feature", "properties": { "_id": "674729509", "pq_city": 3.0, "pq_ward": 31.0, "count_female": 0.0, "count_male": 1.0, "pq_c_daily_cus": 100.0, "cluster_id": 5 }, "geometry": { "type": "Point", "coordinates": [ 90.7093973, 23.932942 ] } },
{ "type": "Feature", "properties": { "_id": "674729519", "pq_city": 3.0, "pq_ward": 31.0, "count_female": 0.0, "count_male": 1.0, "pq_c_daily_cus": 200.0, "cluster_id": 5 }, "geometry": { "type": "Point", "coordinates": [ 90.712299, 23.9315142 ] } },
{ "type": "Feature", "properties": { "_id": "674748691", "pq_city": 3.0, "pq_ward": 31.0, "count_female": 0.0, "count_male": 1.0, "pq_c_daily_cus": 30.0, "cluster_id": 11 }, "geometry": { "type": "Point", "coordinates": [ 90.7062869, 23.9279215 ] } },
{ "type": "Feature", "properties": { "_id": "674748700", "pq_city": 3.0, "pq_ward": 31.0, "count_female": 0.0, "count_male": 1.0, "pq_c_daily_cus": 30.0, "cluster_id": 11 }, "geometry": { "type": "Point", "coordinates": [ 90.7070425, 23.9250412 ] } },
{ "type": "Feature", "properties": { "_id": "674767509", "pq_city": 4.0, "pq_ward": 44.0, "count_female": 0.0, "count_male": 1.0, "pq_c_daily_cus": 30.0, "cluster_id": 8 }, "geometry": { "type": "Point", "coordinates": [ 90.615387500000011, 23.9242658 ] } },
{ "type": "Feature", "properties": { "_id": "674778888", "pq_city": 4.0, "pq_ward": 41.0, "count_female": 0.0, "count_male": 1.0, "pq_c_daily_cus": 40.0, "cluster_id": 6 }, "geometry": { "type": "Point", "coordinates": [ 90.6292179, 23.9672257 ] } },
{ "type": "Feature", "properties": { "_id": "674778894", "pq_city": 4.0, "pq_ward": 41.0, "count_female": 0.0, "count_male": 1.0, "pq_c_daily_cus": 60.0, "cluster_id": 6 }, "geometry": { "type": "Point", "coordinates": [ 90.6293419, 23.9671382 ] } },
{ "type": "Feature", "properties": { "_id": "674778909", "pq_city": 4.0, "pq_ward": 41.0, "count_female": 0.0, "count_male": 1.0, "pq_c_daily_cus": 40.0, "cluster_id": 6 }, "geometry": { "type": "Point", "coordinates": [ 90.6238361, 23.9677813 ] } },
{ "type": "Feature", "properties": { "_id": "674979301", "pq_city": 3.0, "pq_ward": 32.0, "count_female": 0.0, "count_male": 1.0, "pq_c_daily_cus": 50.0, "cluster_id": 3 }, "geometry": { "type": "Point", "coordinates": [ 90.7095426, 23.9077231 ] } },
{ "type": "Feature", "properties": { "_id": "675142178", "pq_city": 4.0, "pq_ward": 42.0, "count_female": 0.0, "count_male": 1.0, "pq_c_daily_cus": 40.0, "cluster_id": 6 }, "geometry": { "type": "Point", "coordinates": [ 90.6332962, 23.9633189 ] } },
{ "type": "Feature", "properties": { "_id": "675162789", "pq_city": 3.0, "pq_ward": 31.0, "count_female": 0.0, "count_male": 1.0, "pq_c_daily_cus": 40.0, "cluster_id": 9 }, "geometry": { "type": "Point", "coordinates": [ 90.709810200000021, 23.9202629 ] } },
{ "type": "Feature", "properties": { "_id": "675162795", "pq_city": 3.0, "pq_ward": 31.0, "count_female": 0.0, "count_male": 1.0, "pq_c_daily_cus": 25.0, "cluster_id": 9 }, "geometry": { "type": "Point", "coordinates": [ 90.7099709, 23.920218 ] } },
{ "type": "Feature", "properties": { "_id": "675162810", "pq_city": 3.0, "pq_ward": 31.0, "count_female": 0.0, "count_male": 1.0, "pq_c_daily_cus": 30.0, "cluster_id": 9 }, "geometry": { "type": "Point", "coordinates": [ 90.711736599999981, 23.9199421 ] } },
{ "type": "Feature", "properties": { "_id": "675162839", "pq_city": 3.0, "pq_ward": 31.0, "count_female": 0.0, "count_male": 2.0, "pq_c_daily_cus": 120.0, "cluster_id": 9 }, "geometry": { "type": "Point", "coordinates": [ 90.7149771, 23.9184957 ] } },
{ "type": "Feature", "properties": { "_id": "675162864", "pq_city": 3.0, "pq_ward": 31.0, "count_female": 0.0, "count_male": 2.0, "pq_c_daily_cus": 40.0, "cluster_id": 1 }, "geometry": { "type": "Point", "coordinates": [ 90.7181441, 23.9205636 ] } },
{ "type": "Feature", "properties": { "_id": "675162870", "pq_city": 3.0, "pq_ward": 31.0, "count_female": 0.0, "count_male": 1.0, "pq_c_daily_cus": 50.0, "cluster_id": 1 }, "geometry": { "type": "Point", "coordinates": [ 90.718128899999982, 23.9205363 ] } },
{ "type": "Feature", "properties": { "_id": "675162875", "pq_city": 3.0, "pq_ward": 31.0, "count_female": 0.0, "count_male": 2.0, "pq_c_daily_cus": 110.0, "cluster_id": 1 }, "geometry": { "type": "Point", "coordinates": [ 90.7180454, 23.9204091 ] } },
{ "type": "Feature", "properties": { "_id": "675162911", "pq_city": 3.0, "pq_ward": 31.0, "count_female": 0.0, "count_male": 1.0, "pq_c_daily_cus": 30.0, "cluster_id": 1 }, "geometry": { "type": "Point", "coordinates": [ 90.7177788, 23.9202178 ] } },
{ "type": "Feature", "properties": { "_id": "675271299", "pq_city": 3.0, "pq_ward": 31.0, "count_female": 0.0, "count_male": 1.0, "pq_c_daily_cus": 50.0, "cluster_id": 11 }, "geometry": { "type": "Point", "coordinates": [ 90.7065426, 23.9249618 ] } },
{ "type": "Feature", "properties": { "_id": "675614583", "pq_city": 3.0, "pq_ward": 31.0, "count_female": 0.0, "count_male": 1.0, "pq_c_daily_cus": 30.0, "cluster_id": 11 }, "geometry": { "type": "Point", "coordinates": [ 90.7131554, 23.9248511 ] } },
{ "type": "Feature", "properties": { "_id": "675614587", "pq_city": 3.0, "pq_ward": 31.0, "count_female": 0.0, "count_male": 1.0, "pq_c_daily_cus": 40.0, "cluster_id": 11 }, "geometry": { "type": "Point", "coordinates": [ 90.713431, 23.9249117 ] } },
{ "type": "Feature", "properties": { "_id": "675614590", "pq_city": 3.0, "pq_ward": 31.0, "count_female": 0.0, "count_male": 1.0, "pq_c_daily_cus": 30.0, "cluster_id": 11 }, "geometry": { "type": "Point", "coordinates": [ 90.7097171, 23.9260755 ] } },
{ "type": "Feature", "properties": { "_id": "675614597", "pq_city": 3.0, "pq_ward": 31.0, "count_female": 0.0, "count_male": 1.0, "pq_c_daily_cus": 30.0, "cluster_id": 1 }, "geometry": { "type": "Point", "coordinates": [ 90.7144556, 23.9228824 ] } },
{ "type": "Feature", "properties": { "_id": "675614608", "pq_city": 3.0, "pq_ward": 31.0, "count_female": 0.0, "count_male": 1.0, "pq_c_daily_cus": 50.0, "cluster_id": 1 }, "geometry": { "type": "Point", "coordinates": [ 90.7163862, 23.9244969 ] } },
{ "type": "Feature", "properties": { "_id": "675614624", "pq_city": 3.0, "pq_ward": 31.0, "count_female": 0.0, "count_male": 1.0, "pq_c_daily_cus": 50.0, "cluster_id": 1 }, "geometry": { "type": "Point", "coordinates": [ 90.7147412, 23.9241408 ] } },
{ "type": "Feature", "properties": { "_id": "675639533", "pq_city": 4.0, "pq_ward": 42.0, "count_female": 0.0, "count_male": 1.0, "pq_c_daily_cus": 20.0, "cluster_id": 2 }, "geometry": { "type": "Point", "coordinates": [ 90.6490075, 23.9653802 ] } },
{ "type": "Feature", "properties": { "_id": "675639546", "pq_city": 4.0, "pq_ward": 42.0, "count_female": 0.0, "count_male": 1.0, "pq_c_daily_cus": 20.0, "cluster_id": 2 }, "geometry": { "type": "Point", "coordinates": [ 90.649145399999981, 23.9652531 ] } },
{ "type": "Feature", "properties": { "_id": "675639853", "pq_city": 3.0, "pq_ward": 31.0, "count_female": 0.0, "count_male": 1.0, "pq_c_daily_cus": 50.0, "cluster_id": 11 }, "geometry": { "type": "Point", "coordinates": [ 90.7088702, 23.9263989 ] } },
{ "type": "Feature", "properties": { "_id": "681120726", "pq_city": 3.0, "pq_ward": 31.0, "count_female": 0.0, "count_male": 9.0, "pq_c_daily_cus": 250.0, "cluster_id": 5 }, "geometry": { "type": "Point", "coordinates": [ 90.7073115, 23.9331716 ] } },
{ "type": "Feature", "properties": { "_id": "681129418", "pq_city": 3.0, "pq_ward": 31.0, "count_female": 0.0, "count_male": 3.0, "pq_c_daily_cus": 120.0, "cluster_id": 5 }, "geometry": { "type": "Point", "coordinates": [ 90.7074033, 23.933165 ] } },
{ "type": "Feature", "properties": { "_id": "681263606", "pq_city": 3.0, "pq_ward": 31.0, "count_female": 0.0, "count_male": 2.0, "pq_c_daily_cus": 80.0, "cluster_id": 5 }, "geometry": { "type": "Point", "coordinates": [ 90.7167503, 23.9336299 ] } },
{ "type": "Feature", "properties": { "_id": "681366886", "pq_city": 3.0, "pq_ward": 31.0, "count_female": 0.0, "count_male": 1.0, "pq_c_daily_cus": 40.0, "cluster_id": 5 }, "geometry": { "type": "Point", "coordinates": [ 90.7130743, 23.9362685 ] } },
{ "type": "Feature", "properties": { "_id": "681366901", "pq_city": 3.0, "pq_ward": 31.0, "count_female": 1.0, "count_male": 1.0, "pq_c_daily_cus": 40.0, "cluster_id": 5 }, "geometry": { "type": "Point", "coordinates": [ 90.7103464, 23.937445 ] } },
{ "type": "Feature", "properties": { "_id": "681366905", "pq_city": 3.0, "pq_ward": 31.0, "count_female": 0.0, "count_male": 1.0, "pq_c_daily_cus": 80.0, "cluster_id": 5 }, "geometry": { "type": "Point", "coordinates": [ 90.7094788, 23.9359141 ] } },
{ "type": "Feature", "properties": { "_id": "681366912", "pq_city": 3.0, "pq_ward": 31.0, "count_female": 0.0, "count_male": 3.0, "pq_c_daily_cus": 50.0, "cluster_id": 5 }, "geometry": { "type": "Point", "coordinates": [ 90.7098683, 23.936188 ] } },
{ "type": "Feature", "properties": { "_id": "681366923", "pq_city": 3.0, "pq_ward": 31.0, "count_female": 0.0, "count_male": 2.0, "pq_c_daily_cus": 50.0, "cluster_id": 5 }, "geometry": { "type": "Point", "coordinates": [ 90.7098736, 23.9362313 ] } },
{ "type": "Feature", "properties": { "_id": "681366938", "pq_city": 3.0, "pq_ward": 31.0, "count_female": 0.0, "count_male": 1.0, "pq_c_daily_cus": 30.0, "cluster_id": 5 }, "geometry": { "type": "Point", "coordinates": [ 90.7104069, 23.9362152 ] } },
{ "type": "Feature", "properties": { "_id": "681366953", "pq_city": 3.0, "pq_ward": 31.0, "count_female": 0.0, "count_male": 1.0, "pq_c_daily_cus": 40.0, "cluster_id": 5 }, "geometry": { "type": "Point", "coordinates": [ 90.7109633, 23.9361955 ] } },
{ "type": "Feature", "properties": { "_id": "681366963", "pq_city": 3.0, "pq_ward": 31.0, "count_female": 0.0, "count_male": 1.0, "pq_c_daily_cus": 30.0, "cluster_id": 5 }, "geometry": { "type": "Point", "coordinates": [ 90.7124758, 23.9360614 ] } },
{ "type": "Feature", "properties": { "_id": "681366978", "pq_city": 3.0, "pq_ward": 31.0, "count_female": 0.0, "count_male": 1.0, "pq_c_daily_cus": 50.0, "cluster_id": 5 }, "geometry": { "type": "Point", "coordinates": [ 90.7132096, 23.9371442 ] } },
{ "type": "Feature", "properties": { "_id": "681366999", "pq_city": 3.0, "pq_ward": 31.0, "count_female": 0.0, "count_male": 2.0, "pq_c_daily_cus": 70.0, "cluster_id": 5 }, "geometry": { "type": "Point", "coordinates": [ 90.7091991, 23.9331445 ] } },
{ "type": "Feature", "properties": { "_id": "681367007", "pq_city": 3.0, "pq_ward": 31.0, "count_female": 0.0, "count_male": 3.0, "pq_c_daily_cus": 200.0, "cluster_id": 5 }, "geometry": { "type": "Point", "coordinates": [ 90.7082477, 23.9331678 ] } },
{ "type": "Feature", "properties": { "_id": "681451221", "pq_city": 3.0, "pq_ward": 31.0, "count_female": 0.0, "count_male": 1.0, "pq_c_daily_cus": 60.0, "cluster_id": 1 }, "geometry": { "type": "Point", "coordinates": [ 90.7174888, 23.9183207 ] } },
{ "type": "Feature", "properties": { "_id": "681451227", "pq_city": 3.0, "pq_ward": 31.0, "count_female": 0.0, "count_male": 1.0, "pq_c_daily_cus": 20.0, "cluster_id": 9 }, "geometry": { "type": "Point", "coordinates": [ 90.7183961, 23.9155104 ] } },
{ "type": "Feature", "properties": { "_id": "681451260", "pq_city": 3.0, "pq_ward": 31.0, "count_female": 0.0, "count_male": 1.0, "pq_c_daily_cus": 40.0, "cluster_id": 1 }, "geometry": { "type": "Point", "coordinates": [ 90.7180051, 23.9202095 ] } },
{ "type": "Feature", "properties": { "_id": "681451315", "pq_city": 3.0, "pq_ward": 31.0, "count_female": 0.0, "count_male": 2.0, "pq_c_daily_cus": 80.0, "cluster_id": 1 }, "geometry": { "type": "Point", "coordinates": [ 90.7227957, 23.9222446 ] } },
{ "type": "Feature", "properties": { "_id": "681451346", "pq_city": 3.0, "pq_ward": 31.0, "count_female": 0.0, "count_male": 1.0, "pq_c_daily_cus": 25.0, "cluster_id": 1 }, "geometry": { "type": "Point", "coordinates": [ 90.7236838, 23.922281 ] } },
{ "type": "Feature", "properties": { "_id": "681451375", "pq_city": 3.0, "pq_ward": 31.0, "count_female": 0.0, "count_male": 1.0, "pq_c_daily_cus": 30.0, "cluster_id": 9 }, "geometry": { "type": "Point", "coordinates": [ 90.7157797, 23.9186169 ] } },
{ "type": "Feature", "properties": { "_id": "681451381", "pq_city": 3.0, "pq_ward": 31.0, "count_female": 0.0, "count_male": 1.0, "pq_c_daily_cus": 30.0, "cluster_id": 9 }, "geometry": { "type": "Point", "coordinates": [ 90.7147474, 23.9173502 ] } },
{ "type": "Feature", "properties": { "_id": "681451382", "pq_city": 3.0, "pq_ward": 31.0, "count_female": 0.0, "count_male": 1.0, "pq_c_daily_cus": 25.0, "cluster_id": 9 }, "geometry": { "type": "Point", "coordinates": [ 90.7146623, 23.9168362 ] } },
{ "type": "Feature", "properties": { "_id": "681451389", "pq_city": 3.0, "pq_ward": 31.0, "count_female": 0.0, "count_male": 1.0, "pq_c_daily_cus": 25.0, "cluster_id": 9 }, "geometry": { "type": "Point", "coordinates": [ 90.7148297, 23.9177585 ] } },
{ "type": "Feature", "properties": { "_id": "681451398", "pq_city": 3.0, "pq_ward": 31.0, "count_female": 0.0, "count_male": 1.0, "pq_c_daily_cus": 15.0, "cluster_id": 9 }, "geometry": { "type": "Point", "coordinates": [ 90.7143285, 23.9183011 ] } },
{ "type": "Feature", "properties": { "_id": "681708110", "pq_city": 3.0, "pq_ward": 31.0, "count_female": 0.0, "count_male": 1.0, "pq_c_daily_cus": 50.0, "cluster_id": 5 }, "geometry": { "type": "Point", "coordinates": [ 90.7137483, 23.9307533 ] } },
{ "type": "Feature", "properties": { "_id": "681708116", "pq_city": 3.0, "pq_ward": 31.0, "count_female": 0.0, "count_male": 1.0, "pq_c_daily_cus": 30.0, "cluster_id": 5 }, "geometry": { "type": "Point", "coordinates": [ 90.7138913, 23.9305759 ] } },
{ "type": "Feature", "properties": { "_id": "681708147", "pq_city": 3.0, "pq_ward": 31.0, "count_female": 0.0, "count_male": 1.0, "pq_c_daily_cus": 50.0, "cluster_id": 5 }, "geometry": { "type": "Point", "coordinates": [ 90.7168549, 23.9337926 ] } },
{ "type": "Feature", "properties": { "_id": "681708148", "pq_city": 3.0, "pq_ward": 31.0, "count_female": 0.0, "count_male": 3.0, "pq_c_daily_cus": 200.0, "cluster_id": 5 }, "geometry": { "type": "Point", "coordinates": [ 90.716870200000017, 23.9338082 ] } },
{ "type": "Feature", "properties": { "_id": "681708179", "pq_city": 3.0, "pq_ward": 31.0, "count_female": 0.0, "count_male": 1.0, "pq_c_daily_cus": 40.0, "cluster_id": 5 }, "geometry": { "type": "Point", "coordinates": [ 90.7160555, 23.9357116 ] } },
{ "type": "Feature", "properties": { "_id": "681708182", "pq_city": 3.0, "pq_ward": 31.0, "count_female": 0.0, "count_male": 1.0, "pq_c_daily_cus": 50.0, "cluster_id": 5 }, "geometry": { "type": "Point", "coordinates": [ 90.7140418, 23.9350738 ] } },
{ "type": "Feature", "properties": { "_id": "681708194", "pq_city": 3.0, "pq_ward": 31.0, "count_female": 0.0, "count_male": 1.0, "pq_c_daily_cus": 40.0, "cluster_id": 5 }, "geometry": { "type": "Point", "coordinates": [ 90.7134344, 23.9334941 ] } },
{ "type": "Feature", "properties": { "_id": "681708202", "pq_city": 3.0, "pq_ward": 31.0, "count_female": 0.0, "count_male": 1.0, "pq_c_daily_cus": 60.0, "cluster_id": 5 }, "geometry": { "type": "Point", "coordinates": [ 90.7119083, 23.9360985 ] } },
{ "type": "Feature", "properties": { "_id": "681708205", "pq_city": 3.0, "pq_ward": 31.0, "count_female": 0.0, "count_male": 1.0, "pq_c_daily_cus": 50.0, "cluster_id": 5 }, "geometry": { "type": "Point", "coordinates": [ 90.7116342, 23.9361946 ] } }
]
}
