{
"type": "FeatureCollection",
"name": "bd_narsi_hull.geojson",
"crs": { "type": "name", "properties": { "name": "urn:ogc:def:crs:OGC:1.3:CRS84" } },
"features": [
{ "type": "Feature", "properties": { "cluster_id": 1, "point_count": 11, "count_female_sum": 0.0, "count_female_count": 11, "count_female_mean": 0.0, "count_male_sum": 14.0, "count_male_count": 11, "count_male_mean": 2.0, "pq_c_daily_cus_sum": 565.0, "pq_c_daily_cus_count": 11, "pq_c_daily_cus_mean": 110.0, "nearest_group": 9, "nearest_distance": 124.86235503449508 }, "geometry": { "type": "Polygon", "coordinates": [ [ [ 90.7236838, 23.922281 ], [ 90.7163862, 23.9244969 ], [ 90.7147412, 23.924140800000011 ], [ 90.7144556, 23.9228824 ], [ 90.7174888, 23.9183207 ], [ 90.7236838, 23.922281 ] ] ] } },
{ "type": "Feature", "properties": { "cluster_id": 2, "point_count": 3, "count_female_sum": 0.0, "count_female_count": 3, "count_female_mean": 0.0, "count_male_sum": 3.0, "count_male_count": 3, "count_male_mean": 1.0, "pq_c_daily_cus_sum": 90.0, "pq_c_daily_cus_count": 3, "pq_c_daily_cus_mean": 50.0, "nearest_group": 4, "nearest_distance": 546.85898883257528 }, "geometry": { "type": "Polygon", "coordinates": [ [ [ 90.649145399999981, 23.9652531 ], [ 90.6432922, 23.9723082 ], [ 90.6490075, 23.9653802 ], [ 90.649145399999981, 23.9652531 ] ] ] } },
{ "type": "Feature", "properties": { "cluster_id": 3, "point_count": 5, "count_female_sum": 0.0, "count_female_count": 5, "count_female_mean": 0.0, "count_male_sum": 8.0, "count_male_count": 5, "count_male_mean": 2.0, "pq_c_daily_cus_sum": 280.0, "pq_c_daily_cus_count": 5, "pq_c_daily_cus_mean": 100.0, "nearest_group": 9, "nearest_distance": 336.8266009305263 }, "geometry": { "type": "Polygon", "coordinates": [ [ [ 90.7104066, 23.9107587 ], [ 90.7072686, 23.903572 ], [ 90.7095426, 23.9077231 ], [ 90.710044300000021, 23.9091661 ], [ 90.7104066, 23.9107587 ] ] ] } },
{ "type": "Feature", "properties": { "cluster_id": 4, "point_count": 5, "count_female_sum": 0.0, "count_female_count": 5, "count_female_mean": 0.0, "count_male_sum": 7.0, "count_male_count": 5, "count_male_mean": 3.0, "pq_c_daily_cus_sum": 250.0, "pq_c_daily_cus_count": 5, "pq_c_daily_cus_mean": 100.0, "nearest_group": 2, "nearest_distance": 546.85898883257528 }, "geometry": { "type": "Polygon", "coordinates": [ [ [ 90.6502603, 23.9796006 ], [ 90.646411599999979, 23.9830982 ], [ 90.6448276, 23.9767378 ], [ 90.6502603, 23.9796006 ] ] ] } },
{ "type": "Feature", "properties": { "cluster_id": 5, "point_count": 28, "count_female_sum": 1.0, "count_female_count": 28, "count_female_mean": 1.0, "count_male_sum": 49.0, "count_male_count": 28, "count_male_mean": 9.0, "pq_c_daily_cus_sum": 2310.0, "pq_c_daily_cus_count": 28, "pq_c_daily_cus_mean": 250.0, "nearest_group": 11, "nearest_distance": 202.12567615652938 }, "geometry": { "type": "Polygon", "coordinates": [ [ [ 90.717718300000016, 23.9348217 ], [ 90.7160555, 23.9357116 ], [ 90.7132096, 23.9371442 ], [ 90.7103464, 23.937445 ], [ 90.7065054, 23.9332322 ], [ 90.7138913, 23.9305759 ], [ 90.717145, 23.933401699999987 ], [ 90.717718300000016, 23.9348217 ] ] ] } },
{ "type": "Feature", "properties": { "cluster_id": 6, "point_count": 6, "count_female_sum": 0.0, "count_female_count": 6, "count_female_mean": 0.0, "count_male_sum": 6.0, "count_male_count": 6, "count_male_mean": 1.0, "pq_c_daily_cus_sum": 270.0, "pq_c_daily_cus_count": 6, "pq_c_daily_cus_mean": 60.0, "nearest_group": 10, "nearest_distance": 520.85896220305779 }, "geometry": { "type": "Polygon", "coordinates": [ [ [ 90.6332962, 23.9633189 ], [ 90.6293419, 23.9671382 ], [ 90.6292179, 23.9672257 ], [ 90.6238361, 23.967781299999988 ], [ 90.6213029, 23.9662841 ], [ 90.6211199, 23.9647869 ], [ 90.6332962, 23.9633189 ] ] ] } },
{ "type": "Feature", "properties": { "cluster_id": 7, "point_count": 9, "count_female_sum": 1.0, "count_female_count": 9, "count_female_mean": 1.0, "count_male_sum": 8.0, "count_male_count": 9, "count_male_mean": 1.0, "pq_c_daily_cus_sum": 540.0, "pq_c_daily_cus_count": 9, "pq_c_daily_cus_mean": 100.0, "nearest_group": 6, "nearest_distance": 675.91587105337192 }, "geometry": { "type": "Polygon", "coordinates": [ [ [ 90.6357987, 23.9736101 ], [ 90.6321765, 23.9776115 ], [ 90.6313281, 23.9762087 ], [ 90.634772600000019, 23.9702296 ], [ 90.6357987, 23.9736101 ] ] ] } },
{ "type": "Feature", "properties": { "cluster_id": 8, "point_count": 9, "count_female_sum": 0.0, "count_female_count": 9, "count_female_mean": 0.0, "count_male_sum": 16.0, "count_male_count": 9, "count_male_mean": 5.0, "pq_c_daily_cus_sum": 1050.0, "pq_c_daily_cus_count": 9, "pq_c_daily_cus_mean": 300.0, "nearest_group": 10, "nearest_distance": 772.14367410894704 }, "geometry": { "type": "Polygon", "coordinates": [ [ [ 90.6197867, 23.9415567 ], [ 90.619325099999983, 23.942178099999989 ], [ 90.6188103, 23.9402578 ], [ 90.615387500000011, 23.9242658 ], [ 90.6182789, 23.9351827 ], [ 90.6197867, 23.9415567 ] ] ] } },
{ "type": "Feature", "properties": { "cluster_id": 9, "point_count": 14, "count_female_sum": 0.0, "count_female_count": 14, "count_female_mean": 0.0, "count_male_sum": 15.0, "count_male_count": 14, "count_male_mean": 2.0, "pq_c_daily_cus_sum": 515.0, "pq_c_daily_cus_count": 14, "pq_c_daily_cus_mean": 120.0, "nearest_group": 1, "nearest_distance": 124.86235503449508 }, "geometry": { "type": "Polygon", "coordinates": [ [ [ 90.7183961, 23.9155104 ], [ 90.7157797, 23.9186169 ], [ 90.7117333, 23.9199467 ], [ 90.709810200000021, 23.9202629 ], [ 90.7085733, 23.9203567 ], [ 90.711518100000021, 23.9134322 ], [ 90.7183961, 23.9155104 ] ] ] } },
{ "type": "Feature", "properties": { "cluster_id": 10, "point_count": 4, "count_female_sum": 0.0, "count_female_count": 4, "count_female_mean": 0.0, "count_male_sum": 5.0, "count_male_count": 4, "count_male_mean": 2.0, "pq_c_daily_cus_sum": 170.0, "pq_c_daily_cus_count": 4, "pq_c_daily_cus_mean": 70.0, "nearest_group": 6, "nearest_distance": 520.85896220305779 }, "geometry": { "type": "Polygon", "coordinates": [ [ [ 90.6248383, 23.9463517 ], [ 90.6210264, 23.9603319 ], [ 90.6198589, 23.955782399999986 ], [ 90.619713799999985, 23.9547855 ], [ 90.6248383, 23.9463517 ] ] ] } },
{ "type": "Feature", "properties": { "cluster_id": 11, "point_count": 12, "count_female_sum": 0.0, "count_female_count": 12, "count_female_mean": 0.0, "count_male_sum": 13.0, "count_male_count": 12, "count_male_mean": 2.0, "pq_c_daily_cus_sum": 500.0, "pq_c_daily_cus_count": 12, "pq_c_daily_cus_mean": 100.0, "nearest_group": 1, "nearest_distance": 168.2856612307807 }, "geometry": { "type": "Polygon", "coordinates": [ [ [ 90.713431, 23.9249117 ], [ 90.712005, 23.92941 ], [ 90.7027482, 23.9283009 ], [ 90.7073833, 23.923565 ], [ 90.713431, 23.9249117 ] ] ] } }
]
}
