{
"type": "FeatureCollection",
"name": "pk_abbot_clustered.geojson",
"crs": { "type": "name", "properties": { "name": "urn:ogc:def:crs:OGC:1.3:CRS84" } },
"features": [
{ "type": "Feature", "properties": { "_id": "666923779", "pq_city": 2.0, "pq_ward": 215.0, "count_female": 1.0, "count_male": 2.0, "pq_c_daily_cus": 30.0, "cluster_id": 7 }, "geometry": { "type": "Point", "coordinates": [ 73.2442342, 34.2181299 ] } },
{ "type": "Feature", "properties": { "_id": "666926792", "pq_city": 2.0, "pq_ward": 215.0, "count_female": 0.0, "count_male": 0.0, "pq_c_daily_cus": null, "cluster_id": 7 }, "geometry": { "type": "Point", "coordinates": [ 73.2435635, 34.2171678 ] } },
{ "type": "Feature", "properties": { "_id": "666927847", "pq_city": 2.0, "pq_ward": 215.0, "count_female": 0.0, "count_male": 0.0, "pq_c_daily_cus": null, "cluster_id": 7 }, "geometry": { "type": "Point", "coordinates": [ 73.2412841, 34.2160795 ] } },
{ "type": "Feature", "properties": { "_id": "666929023", "pq_city": 2.0, "pq_ward": 215.0, "count_female": 0.0, "count_male": 2.0, "pq_c_daily_cus": 20.0, "cluster_id": 7 }, "geometry": { "type": "Point", "coordinates": [ 73.243289, 34.2184683 ] } },
{ "type": "Feature", "properties": { "_id": "666929656", "pq_city": 2.0, "pq_ward": 215.0, "count_female": 0.0, "count_male": 0.0, "pq_c_daily_cus": null, "cluster_id": 7 }, "geometry": { "type": "Point", "coordinates": [ 73.244475, 34.2185467 ] } },
{ "type": "Feature", "properties": { "_id": "666930240", "pq_city": 2.0, "pq_ward": 215.0, "count_female": 0.0, "count_male": 2.0, "pq_c_daily_cus": 300.0, "cluster_id": 7 }, "geometry": { "type": "Point", "coordinates": [ 73.2435774, 34.2174755 ] } },
{ "type": "Feature", "properties": { "_id": "666931394", "pq_city": 2.0, "pq_ward": 215.0, "count_female": 0.0, "count_male": 0.0, "pq_c_daily_cus": null, "cluster_id": 7 }, "geometry": { "type": "Point", "coordinates": [ 73.2431033, 34.2147667 ] } },
{ "type": "Feature", "properties": { "_id": "666937163", "pq_city": 2.0, "pq_ward": 215.0, "count_female": 1.0, "count_male": 2.0, "pq_c_daily_cus": 50.0, "cluster_id": 7 }, "geometry": { "type": "Point", "coordinates": [ 73.2490982, 34.206758899999983 ] } },
{ "type": "Feature", "properties": { "_id": "666938723", "pq_city": 2.0, "pq_ward": 215.0, "count_female": 0.0, "count_male": 0.0, "pq_c_daily_cus": null, "cluster_id": 7 }, "geometry": { "type": "Point", "coordinates": [ 73.2440907, 34.2101097 ] } },
{ "type": "Feature", "properties": { "_id": "666939293", "pq_city": 2.0, "pq_ward": 215.0, "count_female": 1.0, "count_male": 1.0, "pq_c_daily_cus": 30.0, "cluster_id": 7 }, "geometry": { "type": "Point", "coordinates": [ 73.2423099, 34.2102843 ] } },
{ "type": "Feature", "properties": { "_id": "666945914", "pq_city": 2.0, "pq_ward": 215.0, "count_female": 1.0, "count_male": 2.0, "pq_c_daily_cus": 30.0, "cluster_id": 9 }, "geometry": { "type": "Point", "coordinates": [ 73.2346357, 34.192162799999984 ] } },
{ "type": "Feature", "properties": { "_id": "666945919", "pq_city": 2.0, "pq_ward": 215.0, "count_female": 0.0, "count_male": 2.0, "pq_c_daily_cus": 30.0, "cluster_id": 5 }, "geometry": { "type": "Point", "coordinates": [ 73.2408592, 34.2067968 ] } },
{ "type": "Feature", "properties": { "_id": "666947745", "pq_city": 2.0, "pq_ward": 215.0, "count_female": 0.0, "count_male": 0.0, "pq_c_daily_cus": null, "cluster_id": 9 }, "geometry": { "type": "Point", "coordinates": [ 73.2339854, 34.1923512 ] } },
{ "type": "Feature", "properties": { "_id": "666948490", "pq_city": 2.0, "pq_ward": 215.0, "count_female": 0.0, "count_male": 0.0, "pq_c_daily_cus": null, "cluster_id": 9 }, "geometry": { "type": "Point", "coordinates": [ 73.2388195, 34.199209100000012 ] } },
{ "type": "Feature", "properties": { "_id": "666948661", "pq_city": 2.0, "pq_ward": 215.0, "count_female": 0.0, "count_male": 0.0, "pq_c_daily_cus": null, "cluster_id": 5 }, "geometry": { "type": "Point", "coordinates": [ 73.2402995, 34.2059149 ] } },
{ "type": "Feature", "properties": { "_id": "666948662", "pq_city": 2.0, "pq_ward": 215.0, "count_female": 0.0, "count_male": 0.0, "pq_c_daily_cus": null, "cluster_id": 5 }, "geometry": { "type": "Point", "coordinates": [ 73.2402783, 34.2059705 ] } },
{ "type": "Feature", "properties": { "_id": "666948954", "pq_city": 2.0, "pq_ward": 215.0, "count_female": 0.0, "count_male": 3.0, "pq_c_daily_cus": 100.0, "cluster_id": 9 }, "geometry": { "type": "Point", "coordinates": [ 73.2352152, 34.1936146 ] } },
{ "type": "Feature", "properties": { "_id": "666949165", "pq_city": 2.0, "pq_ward": 215.0, "count_female": 0.0, "count_male": 6.0, "pq_c_daily_cus": 120.0, "cluster_id": 9 }, "geometry": { "type": "Point", "coordinates": [ 73.2348004, 34.193622499999989 ] } },
{ "type": "Feature", "properties": { "_id": "666949548", "pq_city": 2.0, "pq_ward": 215.0, "count_female": 0.0, "count_male": 2.0, "pq_c_daily_cus": 20.0, "cluster_id": 5 }, "geometry": { "type": "Point", "coordinates": [ 73.2402706, 34.2056224 ] } },
{ "type": "Feature", "properties": { "_id": "666950274", "pq_city": 2.0, "pq_ward": 215.0, "count_female": 1.0, "count_male": 3.0, "pq_c_daily_cus": 60.0, "cluster_id": 5 }, "geometry": { "type": "Point", "coordinates": [ 73.2401067, 34.2057333 ] } },
{ "type": "Feature", "properties": { "_id": "666950591", "pq_city": 2.0, "pq_ward": 215.0, "count_female": 0.0, "count_male": 0.0, "pq_c_daily_cus": null, "cluster_id": 9 }, "geometry": { "type": "Point", "coordinates": [ 73.2384239, 34.199256 ] } },
{ "type": "Feature", "properties": { "_id": "666950945", "pq_city": 2.0, "pq_ward": 215.0, "count_female": 0.0, "count_male": 0.0, "pq_c_daily_cus": null, "cluster_id": 5 }, "geometry": { "type": "Point", "coordinates": [ 73.2384618, 34.20028270000001 ] } },
{ "type": "Feature", "properties": { "_id": "666951562", "pq_city": 2.0, "pq_ward": 215.0, "count_female": 0.0, "count_male": 0.0, "pq_c_daily_cus": null, "cluster_id": 9 }, "geometry": { "type": "Point", "coordinates": [ 73.2352497, 34.1946842 ] } },
{ "type": "Feature", "properties": { "_id": "666952109", "pq_city": 2.0, "pq_ward": 215.0, "count_female": 0.0, "count_male": 2.0, "pq_c_daily_cus": 25.0, "cluster_id": 9 }, "geometry": { "type": "Point", "coordinates": [ 73.2352222, 34.1946817 ] } },
{ "type": "Feature", "properties": { "_id": "666952474", "pq_city": 2.0, "pq_ward": 215.0, "count_female": 0.0, "count_male": 3.0, "pq_c_daily_cus": 50.0, "cluster_id": 9 }, "geometry": { "type": "Point", "coordinates": [ 73.233294, 34.1969998 ] } },
{ "type": "Feature", "properties": { "_id": "666952752", "pq_city": 2.0, "pq_ward": 215.0, "count_female": 0.0, "count_male": 3.0, "pq_c_daily_cus": 50.0, "cluster_id": 9 }, "geometry": { "type": "Point", "coordinates": [ 73.2331564, 34.1971324 ] } },
{ "type": "Feature", "properties": { "_id": "666952961", "pq_city": 2.0, "pq_ward": 215.0, "count_female": 0.0, "count_male": 2.0, "pq_c_daily_cus": 25.0, "cluster_id": 9 }, "geometry": { "type": "Point", "coordinates": [ 73.2328903, 34.1970532 ] } },
{ "type": "Feature", "properties": { "_id": "666953352", "pq_city": 2.0, "pq_ward": 215.0, "count_female": 0.0, "count_male": 2.0, "pq_c_daily_cus": 35.0, "cluster_id": 9 }, "geometry": { "type": "Point", "coordinates": [ 73.2323285, 34.1973871 ] } },
{ "type": "Feature", "properties": { "_id": "666953982", "pq_city": 2.0, "pq_ward": 215.0, "count_female": 0.0, "count_male": 1.0, "pq_c_daily_cus": 15.0, "cluster_id": 9 }, "geometry": { "type": "Point", "coordinates": [ 73.230765, 34.1978217 ] } },
{ "type": "Feature", "properties": { "_id": "666954336", "pq_city": 2.0, "pq_ward": 215.0, "count_female": 0.0, "count_male": 2.0, "pq_c_daily_cus": 40.0, "cluster_id": 9 }, "geometry": { "type": "Point", "coordinates": [ 73.2299429, 34.197572 ] } },
{ "type": "Feature", "properties": { "_id": "666955147", "pq_city": 2.0, "pq_ward": 215.0, "count_female": 0.0, "count_male": 0.0, "pq_c_daily_cus": null, "cluster_id": 5 }, "geometry": { "type": "Point", "coordinates": [ 73.2402826, 34.2057771 ] } },
{ "type": "Feature", "properties": { "_id": "666955149", "pq_city": 2.0, "pq_ward": 215.0, "count_female": 0.0, "count_male": 5.0, "pq_c_daily_cus": 60.0, "cluster_id": 5 }, "geometry": { "type": "Point", "coordinates": [ 73.2399412, 34.2054831 ] } },
{ "type": "Feature", "properties": { "_id": "666955151", "pq_city": 2.0, "pq_ward": 215.0, "count_female": 0.0, "count_male": 0.0, "pq_c_daily_cus": null, "cluster_id": 5 }, "geometry": { "type": "Point", "coordinates": [ 73.2399257, 34.205167199999984 ] } },
{ "type": "Feature", "properties": { "_id": "666955894", "pq_city": 2.0, "pq_ward": 215.0, "count_female": 0.0, "count_male": 3.0, "pq_c_daily_cus": 20.0, "cluster_id": 9 }, "geometry": { "type": "Point", "coordinates": [ 73.2351643, 34.1959832 ] } },
{ "type": "Feature", "properties": { "_id": "666955958", "pq_city": 2.0, "pq_ward": 215.0, "count_female": 0.0, "count_male": 3.0, "pq_c_daily_cus": 30.0, "cluster_id": 9 }, "geometry": { "type": "Point", "coordinates": [ 73.235136, 34.1960138 ] } },
{ "type": "Feature", "properties": { "_id": "666956332", "pq_city": 2.0, "pq_ward": 215.0, "count_female": 0.0, "count_male": 0.0, "pq_c_daily_cus": null, "cluster_id": 9 }, "geometry": { "type": "Point", "coordinates": [ 73.2372603, 34.1989305 ] } },
{ "type": "Feature", "properties": { "_id": "666956461", "pq_city": 2.0, "pq_ward": 215.0, "count_female": 0.0, "count_male": 3.0, "pq_c_daily_cus": 20.0, "cluster_id": 9 }, "geometry": { "type": "Point", "coordinates": [ 73.2353467, 34.1959245 ] } },
{ "type": "Feature", "properties": { "_id": "666956773", "pq_city": 2.0, "pq_ward": 215.0, "count_female": 0.0, "count_male": 2.0, "pq_c_daily_cus": 20.0, "cluster_id": 9 }, "geometry": { "type": "Point", "coordinates": [ 73.2357759, 34.1959342 ] } },
{ "type": "Feature", "properties": { "_id": "666957479", "pq_city": 2.0, "pq_ward": 215.0, "count_female": 0.0, "count_male": 3.0, "pq_c_daily_cus": 500.0, "cluster_id": 9 }, "geometry": { "type": "Point", "coordinates": [ 73.2366417, 34.19696170000001 ] } },
{ "type": "Feature", "properties": { "_id": "666957677", "pq_city": 2.0, "pq_ward": 215.0, "count_female": 0.0, "count_male": 4.0, "pq_c_daily_cus": 50.0, "cluster_id": 9 }, "geometry": { "type": "Point", "coordinates": [ 73.2365975, 34.1971064 ] } },
{ "type": "Feature", "properties": { "_id": "666957725", "pq_city": 2.0, "pq_ward": 215.0, "count_female": 1.0, "count_male": 2.0, "pq_c_daily_cus": 40.0, "cluster_id": 9 }, "geometry": { "type": "Point", "coordinates": [ 73.2368633, 34.197781699999986 ] } },
{ "type": "Feature", "properties": { "_id": "666959524", "pq_city": 2.0, "pq_ward": 215.0, "count_female": 0.0, "count_male": 5.0, "pq_c_daily_cus": 120.0, "cluster_id": 5 }, "geometry": { "type": "Point", "coordinates": [ 73.2388408, 34.2029528 ] } },
{ "type": "Feature", "properties": { "_id": "666959526", "pq_city": 2.0, "pq_ward": 215.0, "count_female": 0.0, "count_male": 0.0, "pq_c_daily_cus": null, "cluster_id": 5 }, "geometry": { "type": "Point", "coordinates": [ 73.2390935, 34.2030655 ] } },
{ "type": "Feature", "properties": { "_id": "666959530", "pq_city": 2.0, "pq_ward": 215.0, "count_female": 0.0, "count_male": 3.0, "pq_c_daily_cus": 25.0, "cluster_id": 5 }, "geometry": { "type": "Point", "coordinates": [ 73.2390783, 34.2030463 ] } },
{ "type": "Feature", "properties": { "_id": "666959767", "pq_city": 2.0, "pq_ward": 215.0, "count_female": 0.0, "count_male": 4.0, "pq_c_daily_cus": 300.0, "cluster_id": 5 }, "geometry": { "type": "Point", "coordinates": [ 73.2393591, 34.2029436 ] } },
{ "type": "Feature", "properties": { "_id": "666959967", "pq_city": 2.0, "pq_ward": 215.0, "count_female": 0.0, "count_male": 0.0, "pq_c_daily_cus": null, "cluster_id": 5 }, "geometry": { "type": "Point", "coordinates": [ 73.2397222, 34.2037971 ] } },
{ "type": "Feature", "properties": { "_id": "666959969", "pq_city": 2.0, "pq_ward": 215.0, "count_female": 0.0, "count_male": 0.0, "pq_c_daily_cus": null, "cluster_id": 5 }, "geometry": { "type": "Point", "coordinates": [ 73.2397453, 34.203782 ] } },
{ "type": "Feature", "properties": { "_id": "666959971", "pq_city": 2.0, "pq_ward": 215.0, "count_female": 0.0, "count_male": 0.0, "pq_c_daily_cus": null, "cluster_id": 5 }, "geometry": { "type": "Point", "coordinates": [ 73.2394205, 34.2037964 ] } },
{ "type": "Feature", "properties": { "_id": "667060693", "pq_city": 2.0, "pq_ward": 215.0, "count_female": 0.0, "count_male": 2.0, "pq_c_daily_cus": 60.0, "cluster_id": 5 }, "geometry": { "type": "Point", "coordinates": [ 73.2388663, 34.2033887 ] } },
{ "type": "Feature", "properties": { "_id": "667060694", "pq_city": 2.0, "pq_ward": 215.0, "count_female": 0.0, "count_male": 3.0, "pq_c_daily_cus": 100.0, "cluster_id": 5 }, "geometry": { "type": "Point", "coordinates": [ 73.239081, 34.2030889 ] } },
{ "type": "Feature", "properties": { "_id": "667060698", "pq_city": 2.0, "pq_ward": 215.0, "count_female": 1.0, "count_male": 1.0, "pq_c_daily_cus": 15.0, "cluster_id": 5 }, "geometry": { "type": "Point", "coordinates": [ 73.2392723, 34.2030155 ] } },
{ "type": "Feature", "properties": { "_id": "667335780", "pq_city": 2.0, "pq_ward": 215.0, "count_female": 0.0, "count_male": 2.0, "pq_c_daily_cus": 20.0, "cluster_id": 5 }, "geometry": { "type": "Point", "coordinates": [ 73.2339835, 34.2090097 ] } },
{ "type": "Feature", "properties": { "_id": "667336132", "pq_city": 2.0, "pq_ward": 215.0, "count_female": 0.0, "count_male": 2.0, "pq_c_daily_cus": 25.0, "cluster_id": 5 }, "geometry": { "type": "Point", "coordinates": [ 73.2298733, 34.208455 ] } },
{ "type": "Feature", "properties": { "_id": "667336161", "pq_city": 2.0, "pq_ward": 215.0, "count_female": 0.0, "count_male": 0.0, "pq_c_daily_cus": null, "cluster_id": 5 }, "geometry": { "type": "Point", "coordinates": [ 73.2298749, 34.2083967 ] } },
{ "type": "Feature", "properties": { "_id": "667343595", "pq_city": 2.0, "pq_ward": 215.0, "count_female": 0.0, "count_male": 0.0, "pq_c_daily_cus": null, "cluster_id": 5 }, "geometry": { "type": "Point", "coordinates": [ 73.219565, 34.2055302 ] } },
{ "type": "Feature", "properties": { "_id": "667344685", "pq_city": 2.0, "pq_ward": 215.0, "count_female": 0.0, "count_male": 0.0, "pq_c_daily_cus": null, "cluster_id": 5 }, "geometry": { "type": "Point", "coordinates": [ 73.2175538, 34.2082878 ] } },
{ "type": "Feature", "properties": { "_id": "667350466", "pq_city": 2.0, "pq_ward": 215.0, "count_female": 0.0, "count_male": 2.0, "pq_c_daily_cus": 35.0, "cluster_id": 5 }, "geometry": { "type": "Point", "coordinates": [ 73.225702, 34.2018709 ] } },
{ "type": "Feature", "properties": { "_id": "667354884", "pq_city": 2.0, "pq_ward": 215.0, "count_female": 0.0, "count_male": 2.0, "pq_c_daily_cus": 20.0, "cluster_id": 5 }, "geometry": { "type": "Point", "coordinates": [ 73.2298871, 34.2059714 ] } },
{ "type": "Feature", "properties": { "_id": "667355542", "pq_city": 2.0, "pq_ward": 215.0, "count_female": 0.0, "count_male": 2.0, "pq_c_daily_cus": 30.0, "cluster_id": 5 }, "geometry": { "type": "Point", "coordinates": [ 73.229776, 34.2061118 ] } },
{ "type": "Feature", "properties": { "_id": "667356718", "pq_city": 2.0, "pq_ward": 215.0, "count_female": 0.0, "count_male": 0.0, "pq_c_daily_cus": null, "cluster_id": 5 }, "geometry": { "type": "Point", "coordinates": [ 73.229837, 34.206125 ] } },
{ "type": "Feature", "properties": { "_id": "667358222", "pq_city": 2.0, "pq_ward": 215.0, "count_female": 0.0, "count_male": 3.0, "pq_c_daily_cus": 300.0, "cluster_id": 5 }, "geometry": { "type": "Point", "coordinates": [ 73.2389649, 34.2028367 ] } },
{ "type": "Feature", "properties": { "_id": "667358224", "pq_city": 2.0, "pq_ward": 215.0, "count_female": 0.0, "count_male": 2.0, "pq_c_daily_cus": 15.0, "cluster_id": 5 }, "geometry": { "type": "Point", "coordinates": [ 73.2393747, 34.2028919 ] } },
{ "type": "Feature", "properties": { "_id": "667358227", "pq_city": 2.0, "pq_ward": 215.0, "count_female": 0.0, "count_male": 2.0, "pq_c_daily_cus": 15.0, "cluster_id": 5 }, "geometry": { "type": "Point", "coordinates": [ 73.2391914, 34.2027211 ] } },
{ "type": "Feature", "properties": { "_id": "667358269", "pq_city": 2.0, "pq_ward": 215.0, "count_female": 0.0, "count_male": 3.0, "pq_c_daily_cus": 60.0, "cluster_id": 5 }, "geometry": { "type": "Point", "coordinates": [ 73.2394928, 34.20255310000001 ] } },
{ "type": "Feature", "properties": { "_id": "667358279", "pq_city": 2.0, "pq_ward": 215.0, "count_female": 0.0, "count_male": 0.0, "pq_c_daily_cus": null, "cluster_id": 5 }, "geometry": { "type": "Point", "coordinates": [ 73.2397184, 34.20256 ] } },
{ "type": "Feature", "properties": { "_id": "667358286", "pq_city": 2.0, "pq_ward": 215.0, "count_female": 0.0, "count_male": 3.0, "pq_c_daily_cus": 20.0, "cluster_id": 5 }, "geometry": { "type": "Point", "coordinates": [ 73.2396871, 34.2025351 ] } },
{ "type": "Feature", "properties": { "_id": "667358312", "pq_city": 2.0, "pq_ward": 215.0, "count_female": 0.0, "count_male": 2.0, "pq_c_daily_cus": 30.0, "cluster_id": 5 }, "geometry": { "type": "Point", "coordinates": [ 73.23853, 34.2003736 ] } },
{ "type": "Feature", "properties": { "_id": "667371655", "pq_city": 2.0, "pq_ward": 215.0, "count_female": 0.0, "count_male": 0.0, "pq_c_daily_cus": null, "cluster_id": 9 }, "geometry": { "type": "Point", "coordinates": [ 73.2373298, 34.1971608 ] } },
{ "type": "Feature", "properties": { "_id": "667371750", "pq_city": 2.0, "pq_ward": 215.0, "count_female": 0.0, "count_male": 0.0, "pq_c_daily_cus": null, "cluster_id": 9 }, "geometry": { "type": "Point", "coordinates": [ 73.2371367, 34.1974912 ] } },
{ "type": "Feature", "properties": { "_id": "667376973", "pq_city": 2.0, "pq_ward": 215.0, "count_female": 0.0, "count_male": 4.0, "pq_c_daily_cus": 50.0, "cluster_id": 9 }, "geometry": { "type": "Point", "coordinates": [ 73.236842, 34.1967558 ] } },
{ "type": "Feature", "properties": { "_id": "667383191", "pq_city": 2.0, "pq_ward": 215.0, "count_female": 0.0, "count_male": 2.0, "pq_c_daily_cus": 30.0, "cluster_id": 9 }, "geometry": { "type": "Point", "coordinates": [ 73.2371269, 34.19643030000001 ] } },
{ "type": "Feature", "properties": { "_id": "667388467", "pq_city": 2.0, "pq_ward": 215.0, "count_female": 0.0, "count_male": 2.0, "pq_c_daily_cus": 30.0, "cluster_id": 9 }, "geometry": { "type": "Point", "coordinates": [ 73.237033, 34.1963564 ] } },
{ "type": "Feature", "properties": { "_id": "667389618", "pq_city": 2.0, "pq_ward": 215.0, "count_female": 0.0, "count_male": 3.0, "pq_c_daily_cus": 30.0, "cluster_id": 9 }, "geometry": { "type": "Point", "coordinates": [ 73.2368146, 34.1965837 ] } },
{ "type": "Feature", "properties": { "_id": "667389624", "pq_city": 2.0, "pq_ward": 215.0, "count_female": 0.0, "count_male": 2.0, "pq_c_daily_cus": 40.0, "cluster_id": 9 }, "geometry": { "type": "Point", "coordinates": [ 73.236878100000013, 34.1967944 ] } },
{ "type": "Feature", "properties": { "_id": "667389635", "pq_city": 2.0, "pq_ward": 215.0, "count_female": 0.0, "count_male": 5.0, "pq_c_daily_cus": 100.0, "cluster_id": 9 }, "geometry": { "type": "Point", "coordinates": [ 73.2370062, 34.1964343 ] } },
{ "type": "Feature", "properties": { "_id": "667389659", "pq_city": 2.0, "pq_ward": 215.0, "count_female": 0.0, "count_male": 2.0, "pq_c_daily_cus": 30.0, "cluster_id": 9 }, "geometry": { "type": "Point", "coordinates": [ 73.237204, 34.1965976 ] } },
{ "type": "Feature", "properties": { "_id": "667392622", "pq_city": 2.0, "pq_ward": 215.0, "count_female": 0.0, "count_male": 2.0, "pq_c_daily_cus": 100.0, "cluster_id": 9 }, "geometry": { "type": "Point", "coordinates": [ 73.2370299, 34.1964913 ] } },
{ "type": "Feature", "properties": { "_id": "667402804", "pq_city": 2.0, "pq_ward": 215.0, "count_female": 0.0, "count_male": 0.0, "pq_c_daily_cus": null, "cluster_id": 5 }, "geometry": { "type": "Point", "coordinates": [ 73.2441514, 34.2032132 ] } },
{ "type": "Feature", "properties": { "_id": "667659931", "pq_city": 2.0, "pq_ward": 215.0, "count_female": 0.0, "count_male": 0.0, "pq_c_daily_cus": null, "cluster_id": 7 }, "geometry": { "type": "Point", "coordinates": [ 73.2529398, 34.2061657 ] } },
{ "type": "Feature", "properties": { "_id": "667663379", "pq_city": 2.0, "pq_ward": 215.0, "count_female": 0.0, "count_male": 1.0, "pq_c_daily_cus": 20.0, "cluster_id": 5 }, "geometry": { "type": "Point", "coordinates": [ 73.2498792, 34.2031485 ] } },
{ "type": "Feature", "properties": { "_id": "667663380", "pq_city": 2.0, "pq_ward": 215.0, "count_female": 0.0, "count_male": 2.0, "pq_c_daily_cus": 20.0, "cluster_id": 9 }, "geometry": { "type": "Point", "coordinates": [ 73.227792, 34.1995274 ] } },
{ "type": "Feature", "properties": { "_id": "667664209", "pq_city": 2.0, "pq_ward": 215.0, "count_female": 0.0, "count_male": 2.0, "pq_c_daily_cus": 15.0, "cluster_id": 5 }, "geometry": { "type": "Point", "coordinates": [ 73.2255934, 34.2019924 ] } },
{ "type": "Feature", "properties": { "_id": "667665354", "pq_city": 2.0, "pq_ward": 215.0, "count_female": 0.0, "count_male": 2.0, "pq_c_daily_cus": 20.0, "cluster_id": 5 }, "geometry": { "type": "Point", "coordinates": [ 73.219831, 34.2039444 ] } },
{ "type": "Feature", "properties": { "_id": "667668571", "pq_city": 2.0, "pq_ward": 215.0, "count_female": 0.0, "count_male": 0.0, "pq_c_daily_cus": null, "cluster_id": 9 }, "geometry": { "type": "Point", "coordinates": [ 73.2550343, 34.197162099999986 ] } },
{ "type": "Feature", "properties": { "_id": "667675675", "pq_city": 2.0, "pq_ward": 215.0, "count_female": 0.0, "count_male": 0.0, "pq_c_daily_cus": null, "cluster_id": 5 }, "geometry": { "type": "Point", "coordinates": [ 73.2297002, 34.2082032 ] } },
{ "type": "Feature", "properties": { "_id": "667677573", "pq_city": 2.0, "pq_ward": 215.0, "count_female": 0.0, "count_male": 0.0, "pq_c_daily_cus": null, "cluster_id": 3 }, "geometry": { "type": "Point", "coordinates": [ 73.2651942, 34.1958431 ] } },
{ "type": "Feature", "properties": { "_id": "667687925", "pq_city": 2.0, "pq_ward": 215.0, "count_female": 1.0, "count_male": 2.0, "pq_c_daily_cus": 20.0, "cluster_id": 9 }, "geometry": { "type": "Point", "coordinates": [ 73.2362217, 34.1963644 ] } },
{ "type": "Feature", "properties": { "_id": "667687927", "pq_city": 2.0, "pq_ward": 215.0, "count_female": 0.0, "count_male": 1.0, "pq_c_daily_cus": 100.0, "cluster_id": 9 }, "geometry": { "type": "Point", "coordinates": [ 73.236184, 34.196497 ] } },
{ "type": "Feature", "properties": { "_id": "667688272", "pq_city": 2.0, "pq_ward": 215.0, "count_female": 0.0, "count_male": 2.0, "pq_c_daily_cus": 60.0, "cluster_id": 9 }, "geometry": { "type": "Point", "coordinates": [ 73.2362898, 34.1963621 ] } },
{ "type": "Feature", "properties": { "_id": "667689124", "pq_city": 2.0, "pq_ward": 215.0, "count_female": 0.0, "count_male": 2.0, "pq_c_daily_cus": 40.0, "cluster_id": 9 }, "geometry": { "type": "Point", "coordinates": [ 73.2362819, 34.196491799999983 ] } },
{ "type": "Feature", "properties": { "_id": "667689307", "pq_city": 2.0, "pq_ward": 215.0, "count_female": 0.0, "count_male": 0.0, "pq_c_daily_cus": null, "cluster_id": 3 }, "geometry": { "type": "Point", "coordinates": [ 73.2836874, 34.205044 ] } },
{ "type": "Feature", "properties": { "_id": "667689598", "pq_city": 2.0, "pq_ward": 215.0, "count_female": 0.0, "count_male": 2.0, "pq_c_daily_cus": 20.0, "cluster_id": 3 }, "geometry": { "type": "Point", "coordinates": [ 73.2829738, 34.2049812 ] } },
{ "type": "Feature", "properties": { "_id": "667690110", "pq_city": 2.0, "pq_ward": 215.0, "count_female": 0.0, "count_male": 0.0, "pq_c_daily_cus": null, "cluster_id": 3 }, "geometry": { "type": "Point", "coordinates": [ 73.28291, 34.2047695 ] } },
{ "type": "Feature", "properties": { "_id": "667690468", "pq_city": 2.0, "pq_ward": 215.0, "count_female": 0.0, "count_male": 2.0, "pq_c_daily_cus": 30.0, "cluster_id": 9 }, "geometry": { "type": "Point", "coordinates": [ 73.2362708, 34.1964954 ] } },
{ "type": "Feature", "properties": { "_id": "667697378", "pq_city": 2.0, "pq_ward": 215.0, "count_female": 0.0, "count_male": 2.0, "pq_c_daily_cus": 70.0, "cluster_id": 9 }, "geometry": { "type": "Point", "coordinates": [ 73.2360624, 34.1962281 ] } },
{ "type": "Feature", "properties": { "_id": "667698091", "pq_city": 2.0, "pq_ward": 215.0, "count_female": 0.0, "count_male": 0.0, "pq_c_daily_cus": null, "cluster_id": 9 }, "geometry": { "type": "Point", "coordinates": [ 73.236121, 34.1962399 ] } },
{ "type": "Feature", "properties": { "_id": "667698424", "pq_city": 2.0, "pq_ward": 215.0, "count_female": 0.0, "count_male": 2.0, "pq_c_daily_cus": 20.0, "cluster_id": 3 }, "geometry": { "type": "Point", "coordinates": [ 73.2670746, 34.1930125 ] } },
{ "type": "Feature", "properties": { "_id": "667700228", "pq_city": 2.0, "pq_ward": 215.0, "count_female": 0.0, "count_male": 2.0, "pq_c_daily_cus": 30.0, "cluster_id": 9 }, "geometry": { "type": "Point", "coordinates": [ 73.2361214, 34.1962423 ] } },
{ "type": "Feature", "properties": { "_id": "667701627", "pq_city": 2.0, "pq_ward": 215.0, "count_female": 0.0, "count_male": 2.0, "pq_c_daily_cus": 20.0, "cluster_id": 9 }, "geometry": { "type": "Point", "coordinates": [ 73.236118, 34.1962081 ] } },
{ "type": "Feature", "properties": { "_id": "667714420", "pq_city": 2.0, "pq_ward": 215.0, "count_female": 0.0, "count_male": 0.0, "pq_c_daily_cus": null, "cluster_id": 9 }, "geometry": { "type": "Point", "coordinates": [ 73.2365005, 34.19612 ] } },
{ "type": "Feature", "properties": { "_id": "667714462", "pq_city": 2.0, "pq_ward": 215.0, "count_female": 0.0, "count_male": 3.0, "pq_c_daily_cus": 40.0, "cluster_id": 9 }, "geometry": { "type": "Point", "coordinates": [ 73.2365513, 34.1961686 ] } },
{ "type": "Feature", "properties": { "_id": "667717170", "pq_city": 2.0, "pq_ward": 215.0, "count_female": 0.0, "count_male": 3.0, "pq_c_daily_cus": 15.0, "cluster_id": 5 }, "geometry": { "type": "Point", "coordinates": [ 73.2399927, 34.2073336 ] } },
{ "type": "Feature", "properties": { "_id": "667720360", "pq_city": 2.0, "pq_ward": 215.0, "count_female": 0.0, "count_male": 0.0, "pq_c_daily_cus": null, "cluster_id": 9 }, "geometry": { "type": "Point", "coordinates": [ 73.2372841, 34.196046 ] } },
{ "type": "Feature", "properties": { "_id": "667722493", "pq_city": 2.0, "pq_ward": 215.0, "count_female": 1.0, "count_male": 2.0, "pq_c_daily_cus": 20.0, "cluster_id": 9 }, "geometry": { "type": "Point", "coordinates": [ 73.2356904, 34.1937354 ] } },
{ "type": "Feature", "properties": { "_id": "667723891", "pq_city": 2.0, "pq_ward": 215.0, "count_female": 0.0, "count_male": 0.0, "pq_c_daily_cus": null, "cluster_id": 9 }, "geometry": { "type": "Point", "coordinates": [ 73.235779, 34.193688099999989 ] } },
{ "type": "Feature", "properties": { "_id": "667725123", "pq_city": 2.0, "pq_ward": 215.0, "count_female": 0.0, "count_male": 0.0, "pq_c_daily_cus": null, "cluster_id": 9 }, "geometry": { "type": "Point", "coordinates": [ 73.2373708, 34.1957291 ] } },
{ "type": "Feature", "properties": { "_id": "667725355", "pq_city": 2.0, "pq_ward": 215.0, "count_female": 0.0, "count_male": 3.0, "pq_c_daily_cus": 300.0, "cluster_id": 9 }, "geometry": { "type": "Point", "coordinates": [ 73.2355773, 34.1902383 ] } },
{ "type": "Feature", "properties": { "_id": "667741076", "pq_city": 2.0, "pq_ward": 215.0, "count_female": 1.0, "count_male": 2.0, "pq_c_daily_cus": 20.0, "cluster_id": 9 }, "geometry": { "type": "Point", "coordinates": [ 73.2409118, 34.1915417 ] } },
{ "type": "Feature", "properties": { "_id": "667743542", "pq_city": 2.0, "pq_ward": 215.0, "count_female": 0.0, "count_male": 2.0, "pq_c_daily_cus": 35.0, "cluster_id": 9 }, "geometry": { "type": "Point", "coordinates": [ 73.2364145, 34.1924348 ] } },
{ "type": "Feature", "properties": { "_id": "667744050", "pq_city": 2.0, "pq_ward": 215.0, "count_female": 0.0, "count_male": 3.0, "pq_c_daily_cus": 50.0, "cluster_id": 9 }, "geometry": { "type": "Point", "coordinates": [ 73.2366856, 34.1919276 ] } },
{ "type": "Feature", "properties": { "_id": "667744927", "pq_city": 2.0, "pq_ward": 215.0, "count_female": 0.0, "count_male": 4.0, "pq_c_daily_cus": 150.0, "cluster_id": 9 }, "geometry": { "type": "Point", "coordinates": [ 73.237484, 34.190108 ] } },
{ "type": "Feature", "properties": { "_id": "667745535", "pq_city": 2.0, "pq_ward": 215.0, "count_female": 0.0, "count_male": 4.0, "pq_c_daily_cus": 80.0, "cluster_id": 9 }, "geometry": { "type": "Point", "coordinates": [ 73.2389563, 34.1878577 ] } },
{ "type": "Feature", "properties": { "_id": "669397156", "pq_city": 2.0, "pq_ward": 212.0, "count_female": 0.0, "count_male": 2.0, "pq_c_daily_cus": 20.0, "cluster_id": 6 }, "geometry": { "type": "Point", "coordinates": [ 73.2233219, 34.2760116 ] } },
{ "type": "Feature", "properties": { "_id": "669409767", "pq_city": 2.0, "pq_ward": 212.0, "count_female": 0.0, "count_male": 0.0, "pq_c_daily_cus": null, "cluster_id": 7 }, "geometry": { "type": "Point", "coordinates": [ 73.240935, 34.228815 ] } },
{ "type": "Feature", "properties": { "_id": "669409787", "pq_city": 2.0, "pq_ward": 212.0, "count_female": 0.0, "count_male": 2.0, "pq_c_daily_cus": 35.0, "cluster_id": 6 }, "geometry": { "type": "Point", "coordinates": [ 73.2350776, 34.2651045 ] } },
{ "type": "Feature", "properties": { "_id": "669409830", "pq_city": 2.0, "pq_ward": 212.0, "count_female": 0.0, "count_male": 2.0, "pq_c_daily_cus": 10.0, "cluster_id": 6 }, "geometry": { "type": "Point", "coordinates": [ 73.2353924, 34.265273 ] } },
{ "type": "Feature", "properties": { "_id": "669410890", "pq_city": 2.0, "pq_ward": 212.0, "count_female": 0.0, "count_male": 2.0, "pq_c_daily_cus": 150.0, "cluster_id": 6 }, "geometry": { "type": "Point", "coordinates": [ 73.2359504, 34.2646473 ] } },
{ "type": "Feature", "properties": { "_id": "669410892", "pq_city": 2.0, "pq_ward": 212.0, "count_female": 0.0, "count_male": 1.0, "pq_c_daily_cus": 20.0, "cluster_id": 6 }, "geometry": { "type": "Point", "coordinates": [ 73.2358053, 34.2652112 ] } },
{ "type": "Feature", "properties": { "_id": "669411095", "pq_city": 2.0, "pq_ward": 212.0, "count_female": 0.0, "count_male": 0.0, "pq_c_daily_cus": null, "cluster_id": 6 }, "geometry": { "type": "Point", "coordinates": [ 73.2360453, 34.2647224 ] } },
{ "type": "Feature", "properties": { "_id": "669412919", "pq_city": 2.0, "pq_ward": 212.0, "count_female": 0.0, "count_male": 2.0, "pq_c_daily_cus": 150.0, "cluster_id": 6 }, "geometry": { "type": "Point", "coordinates": [ 73.2361576, 34.263842 ] } },
{ "type": "Feature", "properties": { "_id": "669423439", "pq_city": 2.0, "pq_ward": 212.0, "count_female": 0.0, "count_male": 1.0, "pq_c_daily_cus": 15.0, "cluster_id": 6 }, "geometry": { "type": "Point", "coordinates": [ 73.235997, 34.264525 ] } },
{ "type": "Feature", "properties": { "_id": "669423454", "pq_city": 2.0, "pq_ward": 212.0, "count_female": 0.0, "count_male": 3.0, "pq_c_daily_cus": 300.0, "cluster_id": 6 }, "geometry": { "type": "Point", "coordinates": [ 73.2360041, 34.2636073 ] } },
{ "type": "Feature", "properties": { "_id": "669423460", "pq_city": 2.0, "pq_ward": 212.0, "count_female": 1.0, "count_male": 2.0, "pq_c_daily_cus": 60.0, "cluster_id": 6 }, "geometry": { "type": "Point", "coordinates": [ 73.2359973, 34.2638252 ] } },
{ "type": "Feature", "properties": { "_id": "669423470", "pq_city": 2.0, "pq_ward": 212.0, "count_female": 0.0, "count_male": 0.0, "pq_c_daily_cus": null, "cluster_id": 6 }, "geometry": { "type": "Point", "coordinates": [ 73.2360809, 34.2639518 ] } },
{ "type": "Feature", "properties": { "_id": "669423616", "pq_city": 2.0, "pq_ward": 212.0, "count_female": 0.0, "count_male": 3.0, "pq_c_daily_cus": 35.0, "cluster_id": 6 }, "geometry": { "type": "Point", "coordinates": [ 73.2363629, 34.2653289 ] } },
{ "type": "Feature", "properties": { "_id": "669424424", "pq_city": 2.0, "pq_ward": 212.0, "count_female": 0.0, "count_male": 1.0, "pq_c_daily_cus": 25.0, "cluster_id": 11 }, "geometry": { "type": "Point", "coordinates": [ 73.2356412, 34.2377603 ] } },
{ "type": "Feature", "properties": { "_id": "669426417", "pq_city": 2.0, "pq_ward": 212.0, "count_female": 0.0, "count_male": 2.0, "pq_c_daily_cus": 18.0, "cluster_id": 11 }, "geometry": { "type": "Point", "coordinates": [ 73.2297986, 34.2416181 ] } },
{ "type": "Feature", "properties": { "_id": "669430979", "pq_city": 2.0, "pq_ward": 212.0, "count_female": 0.0, "count_male": 0.0, "pq_c_daily_cus": null, "cluster_id": 11 }, "geometry": { "type": "Point", "coordinates": [ 73.217252, 34.2382015 ] } },
{ "type": "Feature", "properties": { "_id": "669439598", "pq_city": 2.0, "pq_ward": 212.0, "count_female": 0.0, "count_male": 0.0, "pq_c_daily_cus": null, "cluster_id": 11 }, "geometry": { "type": "Point", "coordinates": [ 73.2310519, 34.2517172 ] } },
{ "type": "Feature", "properties": { "_id": "669440897", "pq_city": 2.0, "pq_ward": 212.0, "count_female": 0.0, "count_male": 2.0, "pq_c_daily_cus": 10.0, "cluster_id": 11 }, "geometry": { "type": "Point", "coordinates": [ 73.2353817, 34.2523227 ] } },
{ "type": "Feature", "properties": { "_id": "669692455", "pq_city": 2.0, "pq_ward": 212.0, "count_female": 0.0, "count_male": 1.0, "pq_c_daily_cus": 17.0, "cluster_id": 6 }, "geometry": { "type": "Point", "coordinates": [ 73.2359051, 34.263023499999989 ] } },
{ "type": "Feature", "properties": { "_id": "669697548", "pq_city": 2.0, "pq_ward": 212.0, "count_female": 0.0, "count_male": 2.0, "pq_c_daily_cus": 25.0, "cluster_id": 6 }, "geometry": { "type": "Point", "coordinates": [ 73.2355177, 34.2626292 ] } },
{ "type": "Feature", "properties": { "_id": "669704358", "pq_city": 2.0, "pq_ward": 212.0, "count_female": 0.0, "count_male": 0.0, "pq_c_daily_cus": null, "cluster_id": 11 }, "geometry": { "type": "Point", "coordinates": [ 73.2185778, 34.251944 ] } },
{ "type": "Feature", "properties": { "_id": "669758928", "pq_city": 2.0, "pq_ward": 212.0, "count_female": 0.0, "count_male": 0.0, "pq_c_daily_cus": null, "cluster_id": 11 }, "geometry": { "type": "Point", "coordinates": [ 73.2312065, 34.251867 ] } },
{ "type": "Feature", "properties": { "_id": "672455143", "pq_city": 2.0, "pq_ward": 213.0, "count_female": 0.0, "count_male": 2.0, "pq_c_daily_cus": 50.0, "cluster_id": 9 }, "geometry": { "type": "Point", "coordinates": [ 73.2343937, 34.189731199999983 ] } },
{ "type": "Feature", "properties": { "_id": "672460202", "pq_city": 2.0, "pq_ward": 213.0, "count_female": 0.0, "count_male": 0.0, "pq_c_daily_cus": null, "cluster_id": 1 }, "geometry": { "type": "Point", "coordinates": [ 73.2276822, 34.1847224 ] } },
{ "type": "Feature", "properties": { "_id": "672464412", "pq_city": 2.0, "pq_ward": 213.0, "count_female": 0.0, "count_male": 0.0, "pq_c_daily_cus": null, "cluster_id": 9 }, "geometry": { "type": "Point", "coordinates": [ 73.2226327, 34.1890197 ] } },
{ "type": "Feature", "properties": { "_id": "672466314", "pq_city": 2.0, "pq_ward": 213.0, "count_female": 0.0, "count_male": 0.0, "pq_c_daily_cus": null, "cluster_id": 1 }, "geometry": { "type": "Point", "coordinates": [ 73.2209353, 34.1862318 ] } },
{ "type": "Feature", "properties": { "_id": "672478029", "pq_city": 2.0, "pq_ward": 213.0, "count_female": 0.0, "count_male": 0.0, "pq_c_daily_cus": null, "cluster_id": 1 }, "geometry": { "type": "Point", "coordinates": [ 73.2275711, 34.175863 ] } },
{ "type": "Feature", "properties": { "_id": "672481510", "pq_city": 2.0, "pq_ward": 213.0, "count_female": 0.0, "count_male": 0.0, "pq_c_daily_cus": null, "cluster_id": 1 }, "geometry": { "type": "Point", "coordinates": [ 73.2292101, 34.1810876 ] } },
{ "type": "Feature", "properties": { "_id": "672486266", "pq_city": 2.0, "pq_ward": 213.0, "count_female": 0.0, "count_male": 3.0, "pq_c_daily_cus": 100.0, "cluster_id": 8 }, "geometry": { "type": "Point", "coordinates": [ 73.2251695, 34.1693884 ] } },
{ "type": "Feature", "properties": { "_id": "672486865", "pq_city": 2.0, "pq_ward": 213.0, "count_female": 0.0, "count_male": 0.0, "pq_c_daily_cus": null, "cluster_id": 8 }, "geometry": { "type": "Point", "coordinates": [ 73.2251168, 34.1693408 ] } },
{ "type": "Feature", "properties": { "_id": "672488155", "pq_city": 2.0, "pq_ward": 213.0, "count_female": 0.0, "count_male": 3.0, "pq_c_daily_cus": 130.0, "cluster_id": 1 }, "geometry": { "type": "Point", "coordinates": [ 73.2298837, 34.1803407 ] } },
{ "type": "Feature", "properties": { "_id": "672490788", "pq_city": 2.0, "pq_ward": 213.0, "count_female": 0.0, "count_male": 3.0, "pq_c_daily_cus": 33.0, "cluster_id": 8 }, "geometry": { "type": "Point", "coordinates": [ 73.22491, 34.1688527 ] } },
{ "type": "Feature", "properties": { "_id": "672491393", "pq_city": 2.0, "pq_ward": 213.0, "count_female": 0.0, "count_male": 2.0, "pq_c_daily_cus": 40.0, "cluster_id": 8 }, "geometry": { "type": "Point", "coordinates": [ 73.2246773, 34.168314 ] } },
{ "type": "Feature", "properties": { "_id": "672651369", "pq_city": 2.0, "pq_ward": 213.0, "count_female": 0.0, "count_male": 2.0, "pq_c_daily_cus": 50.0, "cluster_id": 1 }, "geometry": { "type": "Point", "coordinates": [ 73.2307404, 34.1824858 ] } },
{ "type": "Feature", "properties": { "_id": "672748713", "pq_city": 2.0, "pq_ward": 213.0, "count_female": 0.0, "count_male": 2.0, "pq_c_daily_cus": 30.0, "cluster_id": 8 }, "geometry": { "type": "Point", "coordinates": [ 73.2249252, 34.1758473 ] } },
{ "type": "Feature", "properties": { "_id": "672751236", "pq_city": 2.0, "pq_ward": 213.0, "count_female": 0.0, "count_male": 0.0, "pq_c_daily_cus": null, "cluster_id": 8 }, "geometry": { "type": "Point", "coordinates": [ 73.217479, 34.1744074 ] } },
{ "type": "Feature", "properties": { "_id": "672752422", "pq_city": 2.0, "pq_ward": 213.0, "count_female": 0.0, "count_male": 0.0, "pq_c_daily_cus": null, "cluster_id": 8 }, "geometry": { "type": "Point", "coordinates": [ 73.2178086, 34.1741537 ] } },
{ "type": "Feature", "properties": { "_id": "672752428", "pq_city": 2.0, "pq_ward": 213.0, "count_female": 0.0, "count_male": 0.0, "pq_c_daily_cus": null, "cluster_id": 8 }, "geometry": { "type": "Point", "coordinates": [ 73.2177543, 34.174189 ] } },
{ "type": "Feature", "properties": { "_id": "672752926", "pq_city": 2.0, "pq_ward": 213.0, "count_female": 0.0, "count_male": 0.0, "pq_c_daily_cus": null, "cluster_id": 8 }, "geometry": { "type": "Point", "coordinates": [ 73.2178037, 34.17411 ] } },
{ "type": "Feature", "properties": { "_id": "672759046", "pq_city": 2.0, "pq_ward": 213.0, "count_female": 0.0, "count_male": 0.0, "pq_c_daily_cus": null, "cluster_id": 8 }, "geometry": { "type": "Point", "coordinates": [ 73.2224852, 34.1714888 ] } },
{ "type": "Feature", "properties": { "_id": "672759176", "pq_city": 2.0, "pq_ward": 213.0, "count_female": 0.0, "count_male": 0.0, "pq_c_daily_cus": null, "cluster_id": 8 }, "geometry": { "type": "Point", "coordinates": [ 73.2225656, 34.1714825 ] } },
{ "type": "Feature", "properties": { "_id": "672761747", "pq_city": 2.0, "pq_ward": 213.0, "count_female": 0.0, "count_male": 3.0, "pq_c_daily_cus": 15.0, "cluster_id": 1 }, "geometry": { "type": "Point", "coordinates": [ 73.2243966, 34.1822461 ] } },
{ "type": "Feature", "properties": { "_id": "672763174", "pq_city": 2.0, "pq_ward": 213.0, "count_female": 1.0, "count_male": 1.0, "pq_c_daily_cus": 35.0, "cluster_id": 8 }, "geometry": { "type": "Point", "coordinates": [ 73.2227882, 34.1701268 ] } },
{ "type": "Feature", "properties": { "_id": "672763805", "pq_city": 2.0, "pq_ward": 213.0, "count_female": 0.0, "count_male": 0.0, "pq_c_daily_cus": null, "cluster_id": 8 }, "geometry": { "type": "Point", "coordinates": [ 73.2227483, 34.1700671 ] } },
{ "type": "Feature", "properties": { "_id": "672764150", "pq_city": 2.0, "pq_ward": 213.0, "count_female": 0.0, "count_male": 1.0, "pq_c_daily_cus": 35.0, "cluster_id": 8 }, "geometry": { "type": "Point", "coordinates": [ 73.2230415, 34.1698823 ] } },
{ "type": "Feature", "properties": { "_id": "672765492", "pq_city": 2.0, "pq_ward": 213.0, "count_female": 0.0, "count_male": 0.0, "pq_c_daily_cus": null, "cluster_id": 1 }, "geometry": { "type": "Point", "coordinates": [ 73.2291536, 34.1812263 ] } },
{ "type": "Feature", "properties": { "_id": "672766052", "pq_city": 2.0, "pq_ward": 213.0, "count_female": 0.0, "count_male": 0.0, "pq_c_daily_cus": null, "cluster_id": 8 }, "geometry": { "type": "Point", "coordinates": [ 73.2240261, 34.1688394 ] } },
{ "type": "Feature", "properties": { "_id": "672766266", "pq_city": 2.0, "pq_ward": 213.0, "count_female": 0.0, "count_male": 0.0, "pq_c_daily_cus": null, "cluster_id": 8 }, "geometry": { "type": "Point", "coordinates": [ 73.2171655, 34.1760825 ] } },
{ "type": "Feature", "properties": { "_id": "672766286", "pq_city": 2.0, "pq_ward": 213.0, "count_female": 0.0, "count_male": 2.0, "pq_c_daily_cus": 30.0, "cluster_id": 8 }, "geometry": { "type": "Point", "coordinates": [ 73.2239252, 34.1687863 ] } },
{ "type": "Feature", "properties": { "_id": "672766562", "pq_city": 2.0, "pq_ward": 213.0, "count_female": 0.0, "count_male": 0.0, "pq_c_daily_cus": null, "cluster_id": 8 }, "geometry": { "type": "Point", "coordinates": [ 73.2237314, 34.168802899999989 ] } },
{ "type": "Feature", "properties": { "_id": "672768253", "pq_city": 2.0, "pq_ward": 213.0, "count_female": 0.0, "count_male": 0.0, "pq_c_daily_cus": null, "cluster_id": 8 }, "geometry": { "type": "Point", "coordinates": [ 73.2229098, 34.1694987 ] } },
{ "type": "Feature", "properties": { "_id": "672772063", "pq_city": 2.0, "pq_ward": 213.0, "count_female": 0.0, "count_male": 0.0, "pq_c_daily_cus": null, "cluster_id": 8 }, "geometry": { "type": "Point", "coordinates": [ 73.2250435, 34.1694397 ] } },
{ "type": "Feature", "properties": { "_id": "672772399", "pq_city": 2.0, "pq_ward": 213.0, "count_female": 0.0, "count_male": 3.0, "pq_c_daily_cus": 100.0, "cluster_id": 8 }, "geometry": { "type": "Point", "coordinates": [ 73.2249912, 34.1694829 ] } },
{ "type": "Feature", "properties": { "_id": "672774299", "pq_city": 2.0, "pq_ward": 213.0, "count_female": 0.0, "count_male": 3.0, "pq_c_daily_cus": 150.0, "cluster_id": 8 }, "geometry": { "type": "Point", "coordinates": [ 73.2252973, 34.17068720000001 ] } },
{ "type": "Feature", "properties": { "_id": "672775829", "pq_city": 2.0, "pq_ward": 213.0, "count_female": 0.0, "count_male": 0.0, "pq_c_daily_cus": null, "cluster_id": 8 }, "geometry": { "type": "Point", "coordinates": [ 73.2258146, 34.1719028 ] } },
{ "type": "Feature", "properties": { "_id": "672781963", "pq_city": 2.0, "pq_ward": 213.0, "count_female": 0.0, "count_male": 0.0, "pq_c_daily_cus": null, "cluster_id": 8 }, "geometry": { "type": "Point", "coordinates": [ 73.2274706, 34.1726047 ] } },
{ "type": "Feature", "properties": { "_id": "672784078", "pq_city": 2.0, "pq_ward": 213.0, "count_female": 1.0, "count_male": 1.0, "pq_c_daily_cus": 35.0, "cluster_id": 8 }, "geometry": { "type": "Point", "coordinates": [ 73.2232045, 34.1665302 ] } },
{ "type": "Feature", "properties": { "_id": "672784749", "pq_city": 2.0, "pq_ward": 213.0, "count_female": 2.0, "count_male": 0.0, "pq_c_daily_cus": 15.0, "cluster_id": 8 }, "geometry": { "type": "Point", "coordinates": [ 73.2230391, 34.1665864 ] } },
{ "type": "Feature", "properties": { "_id": "672805784", "pq_city": 2.0, "pq_ward": 213.0, "count_female": 0.0, "count_male": 1.0, "pq_c_daily_cus": 15.0, "cluster_id": 1 }, "geometry": { "type": "Point", "coordinates": [ 73.2279344, 34.1782161 ] } },
{ "type": "Feature", "properties": { "_id": "672805787", "pq_city": 2.0, "pq_ward": 213.0, "count_female": 0.0, "count_male": 0.0, "pq_c_daily_cus": null, "cluster_id": 1 }, "geometry": { "type": "Point", "coordinates": [ 73.2292158, 34.1812227 ] } },
{ "type": "Feature", "properties": { "_id": "672805793", "pq_city": 2.0, "pq_ward": 213.0, "count_female": 0.0, "count_male": 0.0, "pq_c_daily_cus": null, "cluster_id": 1 }, "geometry": { "type": "Point", "coordinates": [ 73.2298425, 34.1810507 ] } },
{ "type": "Feature", "properties": { "_id": "673043167", "pq_city": 2.0, "pq_ward": 213.0, "count_female": 0.0, "count_male": 0.0, "pq_c_daily_cus": null, "cluster_id": 1 }, "geometry": { "type": "Point", "coordinates": [ 73.2437867, 34.1744229 ] } },
{ "type": "Feature", "properties": { "_id": "673043177", "pq_city": 2.0, "pq_ward": 213.0, "count_female": 0.0, "count_male": 1.0, "pq_c_daily_cus": 60.0, "cluster_id": 1 }, "geometry": { "type": "Point", "coordinates": [ 73.2438684, 34.1742728 ] } },
{ "type": "Feature", "properties": { "_id": "673043233", "pq_city": 2.0, "pq_ward": 216.0, "count_female": 0.0, "count_male": 0.0, "pq_c_daily_cus": null, "cluster_id": 10 }, "geometry": { "type": "Point", "coordinates": [ 73.2367611, 34.157177 ] } },
{ "type": "Feature", "properties": { "_id": "673043603", "pq_city": 2.0, "pq_ward": 213.0, "count_female": 0.0, "count_male": 1.0, "pq_c_daily_cus": 30.0, "cluster_id": 1 }, "geometry": { "type": "Point", "coordinates": [ 73.245859, 34.173655599999989 ] } },
{ "type": "Feature", "properties": { "_id": "673043792", "pq_city": 2.0, "pq_ward": 216.0, "count_female": 0.0, "count_male": 0.0, "pq_c_daily_cus": null, "cluster_id": 10 }, "geometry": { "type": "Point", "coordinates": [ 73.2386317, 34.1572208 ] } },
{ "type": "Feature", "properties": { "_id": "673043939", "pq_city": 2.0, "pq_ward": 213.0, "count_female": 0.0, "count_male": 1.0, "pq_c_daily_cus": 15.0, "cluster_id": 1 }, "geometry": { "type": "Point", "coordinates": [ 73.2458274, 34.1730974 ] } },
{ "type": "Feature", "properties": { "_id": "673046374", "pq_city": 2.0, "pq_ward": 213.0, "count_female": 0.0, "count_male": 0.0, "pq_c_daily_cus": null, "cluster_id": 1 }, "geometry": { "type": "Point", "coordinates": [ 73.2433939, 34.1705299 ] } },
{ "type": "Feature", "properties": { "_id": "673046769", "pq_city": 2.0, "pq_ward": 213.0, "count_female": 0.0, "count_male": 3.0, "pq_c_daily_cus": 20.0, "cluster_id": 10 }, "geometry": { "type": "Point", "coordinates": [ 73.2331519, 34.1613863 ] } },
{ "type": "Feature", "properties": { "_id": "673048887", "pq_city": 2.0, "pq_ward": 213.0, "count_female": 0.0, "count_male": 0.0, "pq_c_daily_cus": null, "cluster_id": 10 }, "geometry": { "type": "Point", "coordinates": [ 73.2393143, 34.165630899999989 ] } },
{ "type": "Feature", "properties": { "_id": "673048891", "pq_city": 2.0, "pq_ward": 213.0, "count_female": 0.0, "count_male": 1.0, "pq_c_daily_cus": 100.0, "cluster_id": 10 }, "geometry": { "type": "Point", "coordinates": [ 73.2323506, 34.1599531 ] } },
{ "type": "Feature", "properties": { "_id": "673049712", "pq_city": 2.0, "pq_ward": 213.0, "count_female": 0.0, "count_male": 2.0, "pq_c_daily_cus": 25.0, "cluster_id": 10 }, "geometry": { "type": "Point", "coordinates": [ 73.2324122, 34.1602783 ] } },
{ "type": "Feature", "properties": { "_id": "673051296", "pq_city": 2.0, "pq_ward": 216.0, "count_female": 0.0, "count_male": 2.0, "pq_c_daily_cus": 20.0, "cluster_id": 10 }, "geometry": { "type": "Point", "coordinates": [ 73.2415182, 34.1574421 ] } },
{ "type": "Feature", "properties": { "_id": "673054442", "pq_city": 2.0, "pq_ward": 213.0, "count_female": 0.0, "count_male": 2.0, "pq_c_daily_cus": 20.0, "cluster_id": 1 }, "geometry": { "type": "Point", "coordinates": [ 73.238002900000012, 34.1699178 ] } },
{ "type": "Feature", "properties": { "_id": "673054839", "pq_city": 2.0, "pq_ward": 216.0, "count_female": 0.0, "count_male": 0.0, "pq_c_daily_cus": null, "cluster_id": 10 }, "geometry": { "type": "Point", "coordinates": [ 73.2383811, 34.1569462 ] } },
{ "type": "Feature", "properties": { "_id": "673054932", "pq_city": 2.0, "pq_ward": 213.0, "count_female": 0.0, "count_male": 1.0, "pq_c_daily_cus": 50.0, "cluster_id": 10 }, "geometry": { "type": "Point", "coordinates": [ 73.232437, 34.157485 ] } },
{ "type": "Feature", "properties": { "_id": "673055502", "pq_city": 2.0, "pq_ward": 216.0, "count_female": 0.0, "count_male": 3.0, "pq_c_daily_cus": 50.0, "cluster_id": 10 }, "geometry": { "type": "Point", "coordinates": [ 73.2383252, 34.1571869 ] } },
{ "type": "Feature", "properties": { "_id": "673055699", "pq_city": 2.0, "pq_ward": 213.0, "count_female": 0.0, "count_male": 0.0, "pq_c_daily_cus": null, "cluster_id": 10 }, "geometry": { "type": "Point", "coordinates": [ 73.2329282, 34.1569042 ] } },
{ "type": "Feature", "properties": { "_id": "673056015", "pq_city": 2.0, "pq_ward": 216.0, "count_female": 0.0, "count_male": 1.0, "pq_c_daily_cus": 30.0, "cluster_id": 10 }, "geometry": { "type": "Point", "coordinates": [ 73.2381761, 34.1572247 ] } },
{ "type": "Feature", "properties": { "_id": "673056045", "pq_city": 2.0, "pq_ward": 216.0, "count_female": 0.0, "count_male": 0.0, "pq_c_daily_cus": null, "cluster_id": 10 }, "geometry": { "type": "Point", "coordinates": [ 73.2381644, 34.1572711 ] } },
{ "type": "Feature", "properties": { "_id": "673056536", "pq_city": 2.0, "pq_ward": 216.0, "count_female": 0.0, "count_male": 1.0, "pq_c_daily_cus": 30.0, "cluster_id": 10 }, "geometry": { "type": "Point", "coordinates": [ 73.238165, 34.1572202 ] } },
{ "type": "Feature", "properties": { "_id": "673056631", "pq_city": 2.0, "pq_ward": 216.0, "count_female": 0.0, "count_male": 1.0, "pq_c_daily_cus": 60.0, "cluster_id": 10 }, "geometry": { "type": "Point", "coordinates": [ 73.236856, 34.1569446 ] } },
{ "type": "Feature", "properties": { "_id": "673056844", "pq_city": 2.0, "pq_ward": 213.0, "count_female": 0.0, "count_male": 1.0, "pq_c_daily_cus": 100.0, "cluster_id": 1 }, "geometry": { "type": "Point", "coordinates": [ 73.2380108, 34.1723962 ] } },
{ "type": "Feature", "properties": { "_id": "673057476", "pq_city": 2.0, "pq_ward": 216.0, "count_female": 0.0, "count_male": 0.0, "pq_c_daily_cus": null, "cluster_id": 10 }, "geometry": { "type": "Point", "coordinates": [ 73.2356168, 34.1569479 ] } },
{ "type": "Feature", "properties": { "_id": "673057672", "pq_city": 2.0, "pq_ward": 216.0, "count_female": 0.0, "count_male": 0.0, "pq_c_daily_cus": null, "cluster_id": 10 }, "geometry": { "type": "Point", "coordinates": [ 73.2356284, 34.1570061 ] } },
{ "type": "Feature", "properties": { "_id": "673058325", "pq_city": 2.0, "pq_ward": 213.0, "count_female": 0.0, "count_male": 0.0, "pq_c_daily_cus": null, "cluster_id": 10 }, "geometry": { "type": "Point", "coordinates": [ 73.2386485, 34.1575648 ] } },
{ "type": "Feature", "properties": { "_id": "673058542", "pq_city": 2.0, "pq_ward": 216.0, "count_female": 0.0, "count_male": 1.0, "pq_c_daily_cus": 18.0, "cluster_id": 10 }, "geometry": { "type": "Point", "coordinates": [ 73.2323016, 34.1565308 ] } },
{ "type": "Feature", "properties": { "_id": "673058801", "pq_city": 2.0, "pq_ward": 213.0, "count_female": 0.0, "count_male": 2.0, "pq_c_daily_cus": 80.0, "cluster_id": 1 }, "geometry": { "type": "Point", "coordinates": [ 73.2381889, 34.171236 ] } },
{ "type": "Feature", "properties": { "_id": "673073710", "pq_city": 2.0, "pq_ward": 216.0, "count_female": 0.0, "count_male": 2.0, "pq_c_daily_cus": 25.0, "cluster_id": 10 }, "geometry": { "type": "Point", "coordinates": [ 73.2387275, 34.1571241 ] } },
{ "type": "Feature", "properties": { "_id": "673074257", "pq_city": 2.0, "pq_ward": 216.0, "count_female": 1.0, "count_male": 1.0, "pq_c_daily_cus": 25.0, "cluster_id": 10 }, "geometry": { "type": "Point", "coordinates": [ 73.2388421, 34.1570535 ] } },
{ "type": "Feature", "properties": { "_id": "673387901", "pq_city": 2.0, "pq_ward": 214.0, "count_female": 0.0, "count_male": 2.0, "pq_c_daily_cus": 40.0, "cluster_id": 2 }, "geometry": { "type": "Point", "coordinates": [ 73.209569, 34.1465804 ] } },
{ "type": "Feature", "properties": { "_id": "673388047", "pq_city": 2.0, "pq_ward": 214.0, "count_female": 0.0, "count_male": 2.0, "pq_c_daily_cus": 60.0, "cluster_id": 2 }, "geometry": { "type": "Point", "coordinates": [ 73.2082828, 34.1472816 ] } },
{ "type": "Feature", "properties": { "_id": "673389885", "pq_city": 2.0, "pq_ward": 214.0, "count_female": 0.0, "count_male": 0.0, "pq_c_daily_cus": null, "cluster_id": 2 }, "geometry": { "type": "Point", "coordinates": [ 73.1967109, 34.1385304 ] } },
{ "type": "Feature", "properties": { "_id": "673390249", "pq_city": 2.0, "pq_ward": 214.0, "count_female": 0.0, "count_male": 2.0, "pq_c_daily_cus": 20.0, "cluster_id": 2 }, "geometry": { "type": "Point", "coordinates": [ 73.2059098, 34.1393209 ] } },
{ "type": "Feature", "properties": { "_id": "673390458", "pq_city": 2.0, "pq_ward": 214.0, "count_female": 0.0, "count_male": 1.0, "pq_c_daily_cus": 30.0, "cluster_id": 2 }, "geometry": { "type": "Point", "coordinates": [ 73.2090218, 34.1477207 ] } },
{ "type": "Feature", "properties": { "_id": "673390776", "pq_city": 2.0, "pq_ward": 214.0, "count_female": 0.0, "count_male": 0.0, "pq_c_daily_cus": null, "cluster_id": 2 }, "geometry": { "type": "Point", "coordinates": [ 73.2092997, 34.1472331 ] } },
{ "type": "Feature", "properties": { "_id": "673393434", "pq_city": 2.0, "pq_ward": 214.0, "count_female": 0.0, "count_male": 2.0, "pq_c_daily_cus": 80.0, "cluster_id": 2 }, "geometry": { "type": "Point", "coordinates": [ 73.2110324, 34.1488129 ] } },
{ "type": "Feature", "properties": { "_id": "673394315", "pq_city": 2.0, "pq_ward": 214.0, "count_female": 0.0, "count_male": 2.0, "pq_c_daily_cus": 45.0, "cluster_id": 2 }, "geometry": { "type": "Point", "coordinates": [ 73.2028039, 34.1472129 ] } },
{ "type": "Feature", "properties": { "_id": "673395783", "pq_city": 2.0, "pq_ward": 214.0, "count_female": 0.0, "count_male": 2.0, "pq_c_daily_cus": 35.0, "cluster_id": 2 }, "geometry": { "type": "Point", "coordinates": [ 73.2157147, 34.1464813 ] } },
{ "type": "Feature", "properties": { "_id": "673395791", "pq_city": 2.0, "pq_ward": 214.0, "count_female": 0.0, "count_male": 2.0, "pq_c_daily_cus": 25.0, "cluster_id": 2 }, "geometry": { "type": "Point", "coordinates": [ 73.215627, 34.146309099999989 ] } },
{ "type": "Feature", "properties": { "_id": "673396468", "pq_city": 2.0, "pq_ward": 214.0, "count_female": 0.0, "count_male": 0.0, "pq_c_daily_cus": null, "cluster_id": 2 }, "geometry": { "type": "Point", "coordinates": [ 73.2155828, 34.1462644 ] } },
{ "type": "Feature", "properties": { "_id": "673396814", "pq_city": 2.0, "pq_ward": 214.0, "count_female": 0.0, "count_male": 2.0, "pq_c_daily_cus": 50.0, "cluster_id": 2 }, "geometry": { "type": "Point", "coordinates": [ 73.215464, 34.1460816 ] } },
{ "type": "Feature", "properties": { "_id": "673396966", "pq_city": 2.0, "pq_ward": 214.0, "count_female": 0.0, "count_male": 2.0, "pq_c_daily_cus": 55.0, "cluster_id": 2 }, "geometry": { "type": "Point", "coordinates": [ 73.215704, 34.1464317 ] } },
{ "type": "Feature", "properties": { "_id": "673396972", "pq_city": 2.0, "pq_ward": 214.0, "count_female": 0.0, "count_male": 2.0, "pq_c_daily_cus": 25.0, "cluster_id": 2 }, "geometry": { "type": "Point", "coordinates": [ 73.2154547, 34.1461729 ] } },
{ "type": "Feature", "properties": { "_id": "673396974", "pq_city": 2.0, "pq_ward": 214.0, "count_female": 0.0, "count_male": 2.0, "pq_c_daily_cus": 80.0, "cluster_id": 2 }, "geometry": { "type": "Point", "coordinates": [ 73.2155047, 34.1461739 ] } },
{ "type": "Feature", "properties": { "_id": "673396976", "pq_city": 2.0, "pq_ward": 214.0, "count_female": 0.0, "count_male": 2.0, "pq_c_daily_cus": 20.0, "cluster_id": 2 }, "geometry": { "type": "Point", "coordinates": [ 73.2154879, 34.1460293 ] } },
{ "type": "Feature", "properties": { "_id": "673396978", "pq_city": 2.0, "pq_ward": 214.0, "count_female": 0.0, "count_male": 2.0, "pq_c_daily_cus": 120.0, "cluster_id": 2 }, "geometry": { "type": "Point", "coordinates": [ 73.2154567, 34.1459825 ] } },
{ "type": "Feature", "properties": { "_id": "673398918", "pq_city": 2.0, "pq_ward": 214.0, "count_female": 0.0, "count_male": 2.0, "pq_c_daily_cus": 20.0, "cluster_id": 2 }, "geometry": { "type": "Point", "coordinates": [ 73.2153469, 34.1455416 ] } },
{ "type": "Feature", "properties": { "_id": "673398922", "pq_city": 2.0, "pq_ward": 214.0, "count_female": 0.0, "count_male": 0.0, "pq_c_daily_cus": null, "cluster_id": 2 }, "geometry": { "type": "Point", "coordinates": [ 73.2152747, 34.14501 ] } },
{ "type": "Feature", "properties": { "_id": "673401089", "pq_city": 2.0, "pq_ward": 214.0, "count_female": 0.0, "count_male": 3.0, "pq_c_daily_cus": 40.0, "cluster_id": 2 }, "geometry": { "type": "Point", "coordinates": [ 73.215356, 34.1457134 ] } },
{ "type": "Feature", "properties": { "_id": "673401103", "pq_city": 2.0, "pq_ward": 214.0, "count_female": 0.0, "count_male": 2.0, "pq_c_daily_cus": 25.0, "cluster_id": 2 }, "geometry": { "type": "Point", "coordinates": [ 73.2151594, 34.1450452 ] } },
{ "type": "Feature", "properties": { "_id": "673401327", "pq_city": 2.0, "pq_ward": 214.0, "count_female": 0.0, "count_male": 1.0, "pq_c_daily_cus": 50.0, "cluster_id": 2 }, "geometry": { "type": "Point", "coordinates": [ 73.202956, 34.1472519 ] } },
{ "type": "Feature", "properties": { "_id": "673401402", "pq_city": 2.0, "pq_ward": 214.0, "count_female": 0.0, "count_male": 2.0, "pq_c_daily_cus": 30.0, "cluster_id": 2 }, "geometry": { "type": "Point", "coordinates": [ 73.2031305, 34.147210800000011 ] } },
{ "type": "Feature", "properties": { "_id": "673401849", "pq_city": 2.0, "pq_ward": 214.0, "count_female": 0.0, "count_male": 2.0, "pq_c_daily_cus": 70.0, "cluster_id": 2 }, "geometry": { "type": "Point", "coordinates": [ 73.2131168, 34.1415151 ] } },
{ "type": "Feature", "properties": { "_id": "673403335", "pq_city": 2.0, "pq_ward": 214.0, "count_female": 0.0, "count_male": 3.0, "pq_c_daily_cus": 40.0, "cluster_id": 2 }, "geometry": { "type": "Point", "coordinates": [ 73.2125123, 34.1457134 ] } },
{ "type": "Feature", "properties": { "_id": "673403410", "pq_city": 2.0, "pq_ward": 214.0, "count_female": 0.0, "count_male": 2.0, "pq_c_daily_cus": 20.0, "cluster_id": 2 }, "geometry": { "type": "Point", "coordinates": [ 73.2125053, 34.1457899 ] } },
{ "type": "Feature", "properties": { "_id": "673404723", "pq_city": 2.0, "pq_ward": 214.0, "count_female": 0.0, "count_male": 3.0, "pq_c_daily_cus": 30.0, "cluster_id": 2 }, "geometry": { "type": "Point", "coordinates": [ 73.2128001, 34.1477822 ] } },
{ "type": "Feature", "properties": { "_id": "673405038", "pq_city": 2.0, "pq_ward": 214.0, "count_female": 0.0, "count_male": 3.0, "pq_c_daily_cus": 50.0, "cluster_id": 2 }, "geometry": { "type": "Point", "coordinates": [ 73.21256630000002, 34.1477597 ] } },
{ "type": "Feature", "properties": { "_id": "673405618", "pq_city": 2.0, "pq_ward": 214.0, "count_female": 0.0, "count_male": 4.0, "pq_c_daily_cus": 50.0, "cluster_id": 2 }, "geometry": { "type": "Point", "coordinates": [ 73.21272, 34.1478438 ] } },
{ "type": "Feature", "properties": { "_id": "673405620", "pq_city": 2.0, "pq_ward": 214.0, "count_female": 0.0, "count_male": 2.0, "pq_c_daily_cus": 20.0, "cluster_id": 2 }, "geometry": { "type": "Point", "coordinates": [ 73.2119792, 34.1470301 ] } },
{ "type": "Feature", "properties": { "_id": "673405994", "pq_city": 2.0, "pq_ward": 214.0, "count_female": 0.0, "count_male": 2.0, "pq_c_daily_cus": 30.0, "cluster_id": 2 }, "geometry": { "type": "Point", "coordinates": [ 73.2118067, 34.1467318 ] } },
{ "type": "Feature", "properties": { "_id": "673408617", "pq_city": 2.0, "pq_ward": 214.0, "count_female": 0.0, "count_male": 3.0, "pq_c_daily_cus": 30.0, "cluster_id": 2 }, "geometry": { "type": "Point", "coordinates": [ 73.2125079, 34.1478287 ] } },
{ "type": "Feature", "properties": { "_id": "673412912", "pq_city": 2.0, "pq_ward": 214.0, "count_female": 0.0, "count_male": 3.0, "pq_c_daily_cus": 30.0, "cluster_id": 2 }, "geometry": { "type": "Point", "coordinates": [ 73.2109828, 34.1457462 ] } },
{ "type": "Feature", "properties": { "_id": "673412914", "pq_city": 2.0, "pq_ward": 214.0, "count_female": 0.0, "count_male": 0.0, "pq_c_daily_cus": null, "cluster_id": 2 }, "geometry": { "type": "Point", "coordinates": [ 73.210952, 34.145690599999988 ] } },
{ "type": "Feature", "properties": { "_id": "673412916", "pq_city": 2.0, "pq_ward": 214.0, "count_female": 0.0, "count_male": 2.0, "pq_c_daily_cus": 25.0, "cluster_id": 2 }, "geometry": { "type": "Point", "coordinates": [ 73.2109197, 34.1455747 ] } },
{ "type": "Feature", "properties": { "_id": "673412920", "pq_city": 2.0, "pq_ward": 214.0, "count_female": 0.0, "count_male": 1.0, "pq_c_daily_cus": 70.0, "cluster_id": 2 }, "geometry": { "type": "Point", "coordinates": [ 73.2109309, 34.145578 ] } },
{ "type": "Feature", "properties": { "_id": "673414910", "pq_city": 2.0, "pq_ward": 214.0, "count_female": 0.0, "count_male": 0.0, "pq_c_daily_cus": null, "cluster_id": 2 }, "geometry": { "type": "Point", "coordinates": [ 73.2152959, 34.1461199 ] } },
{ "type": "Feature", "properties": { "_id": "673434324", "pq_city": 2.0, "pq_ward": 214.0, "count_female": 0.0, "count_male": 3.0, "pq_c_daily_cus": 30.0, "cluster_id": 2 }, "geometry": { "type": "Point", "coordinates": [ 73.2151287, 34.1461461 ] } },
{ "type": "Feature", "properties": { "_id": "673434326", "pq_city": 2.0, "pq_ward": 214.0, "count_female": 0.0, "count_male": 2.0, "pq_c_daily_cus": 35.0, "cluster_id": 2 }, "geometry": { "type": "Point", "coordinates": [ 73.2145214, 34.146395 ] } },
{ "type": "Feature", "properties": { "_id": "673434333", "pq_city": 2.0, "pq_ward": 214.0, "count_female": 0.0, "count_male": 1.0, "pq_c_daily_cus": 20.0, "cluster_id": 2 }, "geometry": { "type": "Point", "coordinates": [ 73.198233300000012, 34.1481718 ] } },
{ "type": "Feature", "properties": { "_id": "673437212", "pq_city": 2.0, "pq_ward": 214.0, "count_female": 0.0, "count_male": 0.0, "pq_c_daily_cus": null, "cluster_id": 2 }, "geometry": { "type": "Point", "coordinates": [ 73.1981752, 34.1481243 ] } },
{ "type": "Feature", "properties": { "_id": "673707904", "pq_city": 2.0, "pq_ward": 214.0, "count_female": 0.0, "count_male": 1.0, "pq_c_daily_cus": 50.0, "cluster_id": 2 }, "geometry": { "type": "Point", "coordinates": [ 73.2136858, 34.1406051 ] } },
{ "type": "Feature", "properties": { "_id": "673708319", "pq_city": 2.0, "pq_ward": 214.0, "count_female": 0.0, "count_male": 0.0, "pq_c_daily_cus": null, "cluster_id": 2 }, "geometry": { "type": "Point", "coordinates": [ 73.2129803, 34.141449 ] } },
{ "type": "Feature", "properties": { "_id": "673708728", "pq_city": 2.0, "pq_ward": 214.0, "count_female": 0.0, "count_male": 0.0, "pq_c_daily_cus": null, "cluster_id": 2 }, "geometry": { "type": "Point", "coordinates": [ 73.2132102, 34.1415061 ] } },
{ "type": "Feature", "properties": { "_id": "673710524", "pq_city": 2.0, "pq_ward": 214.0, "count_female": 0.0, "count_male": 2.0, "pq_c_daily_cus": 25.0, "cluster_id": 2 }, "geometry": { "type": "Point", "coordinates": [ 73.1999563, 34.1491252 ] } },
{ "type": "Feature", "properties": { "_id": "673710564", "pq_city": 2.0, "pq_ward": 214.0, "count_female": 0.0, "count_male": 2.0, "pq_c_daily_cus": 30.0, "cluster_id": 2 }, "geometry": { "type": "Point", "coordinates": [ 73.1998152, 34.1492493 ] } },
{ "type": "Feature", "properties": { "_id": "673715368", "pq_city": 2.0, "pq_ward": 214.0, "count_female": 0.0, "count_male": 0.0, "pq_c_daily_cus": null, "cluster_id": 2 }, "geometry": { "type": "Point", "coordinates": [ 73.2002098, 34.1582834 ] } },
{ "type": "Feature", "properties": { "_id": "675430761", "pq_city": 2.0, "pq_ward": 217.0, "count_female": 0.0, "count_male": 0.0, "pq_c_daily_cus": null, "cluster_id": 4 }, "geometry": { "type": "Point", "coordinates": [ 73.2592663, 34.1695594 ] } },
{ "type": "Feature", "properties": { "_id": "675441291", "pq_city": 2.0, "pq_ward": 217.0, "count_female": 0.0, "count_male": 0.0, "pq_c_daily_cus": null, "cluster_id": 4 }, "geometry": { "type": "Point", "coordinates": [ 73.2503579, 34.1620918 ] } },
{ "type": "Feature", "properties": { "_id": "675442928", "pq_city": 2.0, "pq_ward": 217.0, "count_female": 0.0, "count_male": 0.0, "pq_c_daily_cus": null, "cluster_id": 4 }, "geometry": { "type": "Point", "coordinates": [ 73.2485624, 34.1626486 ] } },
{ "type": "Feature", "properties": { "_id": "675445170", "pq_city": 2.0, "pq_ward": 217.0, "count_female": 0.0, "count_male": 1.0, "pq_c_daily_cus": 100.0, "cluster_id": 4 }, "geometry": { "type": "Point", "coordinates": [ 73.2502858, 34.1612806 ] } },
{ "type": "Feature", "properties": { "_id": "675446083", "pq_city": 2.0, "pq_ward": 217.0, "count_female": 0.0, "count_male": 2.0, "pq_c_daily_cus": 30.0, "cluster_id": 4 }, "geometry": { "type": "Point", "coordinates": [ 73.2512083, 34.1602352 ] } },
{ "type": "Feature", "properties": { "_id": "675447786", "pq_city": 2.0, "pq_ward": 217.0, "count_female": 0.0, "count_male": 2.0, "pq_c_daily_cus": 80.0, "cluster_id": 4 }, "geometry": { "type": "Point", "coordinates": [ 73.2650297, 34.166846499999984 ] } },
{ "type": "Feature", "properties": { "_id": "675447974", "pq_city": 2.0, "pq_ward": 217.0, "count_female": 0.0, "count_male": 0.0, "pq_c_daily_cus": null, "cluster_id": 4 }, "geometry": { "type": "Point", "coordinates": [ 73.2650412, 34.1668568 ] } },
{ "type": "Feature", "properties": { "_id": "675448665", "pq_city": 2.0, "pq_ward": 217.0, "count_female": 0.0, "count_male": 0.0, "pq_c_daily_cus": null, "cluster_id": 4 }, "geometry": { "type": "Point", "coordinates": [ 73.2664182, 34.1656152 ] } },
{ "type": "Feature", "properties": { "_id": "675449046", "pq_city": 2.0, "pq_ward": 217.0, "count_female": 0.0, "count_male": 0.0, "pq_c_daily_cus": null, "cluster_id": 4 }, "geometry": { "type": "Point", "coordinates": [ 73.2569209, 34.1628024 ] } },
{ "type": "Feature", "properties": { "_id": "675451698", "pq_city": 2.0, "pq_ward": 217.0, "count_female": 0.0, "count_male": 1.0, "pq_c_daily_cus": 80.0, "cluster_id": 4 }, "geometry": { "type": "Point", "coordinates": [ 73.2598051, 34.1660275 ] } },
{ "type": "Feature", "properties": { "_id": "675452197", "pq_city": 2.0, "pq_ward": 217.0, "count_female": 1.0, "count_male": 2.0, "pq_c_daily_cus": 12.0, "cluster_id": 4 }, "geometry": { "type": "Point", "coordinates": [ 73.2640382, 34.1671757 ] } },
{ "type": "Feature", "properties": { "_id": "675452594", "pq_city": 2.0, "pq_ward": 217.0, "count_female": 0.0, "count_male": 2.0, "pq_c_daily_cus": 30.0, "cluster_id": 4 }, "geometry": { "type": "Point", "coordinates": [ 73.2632624, 34.1660823 ] } },
{ "type": "Feature", "properties": { "_id": "675454752", "pq_city": 2.0, "pq_ward": 217.0, "count_female": 1.0, "count_male": 1.0, "pq_c_daily_cus": 20.0, "cluster_id": 4 }, "geometry": { "type": "Point", "coordinates": [ 73.2559723, 34.1691153 ] } },
{ "type": "Feature", "properties": { "_id": "675456461", "pq_city": 2.0, "pq_ward": 217.0, "count_female": 0.0, "count_male": 2.0, "pq_c_daily_cus": 35.0, "cluster_id": 4 }, "geometry": { "type": "Point", "coordinates": [ 73.2650278, 34.1667805 ] } },
{ "type": "Feature", "properties": { "_id": "675456466", "pq_city": 2.0, "pq_ward": 217.0, "count_female": 1.0, "count_male": 1.0, "pq_c_daily_cus": 70.0, "cluster_id": 4 }, "geometry": { "type": "Point", "coordinates": [ 73.2603696, 34.1650078 ] } },
{ "type": "Feature", "properties": { "_id": "675479239", "pq_city": 2.0, "pq_ward": 217.0, "count_female": 0.0, "count_male": 1.0, "pq_c_daily_cus": 60.0, "cluster_id": 4 }, "geometry": { "type": "Point", "coordinates": [ 73.2601797, 34.1645798 ] } },
{ "type": "Feature", "properties": { "_id": "675482073", "pq_city": 2.0, "pq_ward": 217.0, "count_female": 0.0, "count_male": 1.0, "pq_c_daily_cus": 40.0, "cluster_id": 4 }, "geometry": { "type": "Point", "coordinates": [ 73.2514901, 34.1596222 ] } },
{ "type": "Feature", "properties": { "_id": "675523991", "pq_city": 2.0, "pq_ward": 217.0, "count_female": 0.0, "count_male": 0.0, "pq_c_daily_cus": null, "cluster_id": 4 }, "geometry": { "type": "Point", "coordinates": [ 73.2616633, 34.1636009 ] } },
{ "type": "Feature", "properties": { "_id": "675524127", "pq_city": 2.0, "pq_ward": 217.0, "count_female": 0.0, "count_male": 2.0, "pq_c_daily_cus": 100.0, "cluster_id": 4 }, "geometry": { "type": "Point", "coordinates": [ 73.261821, 34.1636108 ] } },
{ "type": "Feature", "properties": { "_id": "675526436", "pq_city": 2.0, "pq_ward": 217.0, "count_female": 0.0, "count_male": 2.0, "pq_c_daily_cus": 30.0, "cluster_id": 4 }, "geometry": { "type": "Point", "coordinates": [ 73.2641642, 34.1588074 ] } },
{ "type": "Feature", "properties": { "_id": "675526453", "pq_city": 2.0, "pq_ward": 217.0, "count_female": 0.0, "count_male": 0.0, "pq_c_daily_cus": null, "cluster_id": 4 }, "geometry": { "type": "Point", "coordinates": [ 73.2641595, 34.158787 ] } },
{ "type": "Feature", "properties": { "_id": "675526556", "pq_city": 2.0, "pq_ward": 217.0, "count_female": 0.0, "count_male": 1.0, "pq_c_daily_cus": 25.0, "cluster_id": 4 }, "geometry": { "type": "Point", "coordinates": [ 73.2648422, 34.1577442 ] } },
{ "type": "Feature", "properties": { "_id": "675531304", "pq_city": 2.0, "pq_ward": 217.0, "count_female": 0.0, "count_male": 1.0, "pq_c_daily_cus": 40.0, "cluster_id": 4 }, "geometry": { "type": "Point", "coordinates": [ 73.2635763, 34.1578476 ] } },
{ "type": "Feature", "properties": { "_id": "675531343", "pq_city": 2.0, "pq_ward": 217.0, "count_female": 0.0, "count_male": 3.0, "pq_c_daily_cus": 70.0, "cluster_id": 4 }, "geometry": { "type": "Point", "coordinates": [ 73.2636017, 34.1578228 ] } },
{ "type": "Feature", "properties": { "_id": "675534943", "pq_city": 2.0, "pq_ward": 217.0, "count_female": 0.0, "count_male": 2.0, "pq_c_daily_cus": 70.0, "cluster_id": 4 }, "geometry": { "type": "Point", "coordinates": [ 73.2520136, 34.1596854 ] } },
{ "type": "Feature", "properties": { "_id": "675538799", "pq_city": 2.0, "pq_ward": 217.0, "count_female": 0.0, "count_male": 0.0, "pq_c_daily_cus": null, "cluster_id": 4 }, "geometry": { "type": "Point", "coordinates": [ 73.2636827, 34.1583401 ] } },
{ "type": "Feature", "properties": { "_id": "690801429", "pq_city": 2.0, "pq_ward": 215.0, "count_female": 0.0, "count_male": 0.0, "pq_c_daily_cus": null, "cluster_id": 9 }, "geometry": { "type": "Point", "coordinates": [ 73.23662, 34.19612 ] } },
{ "type": "Feature", "properties": { "_id": "690802382", "pq_city": 2.0, "pq_ward": 215.0, "count_female": 0.0, "count_male": 2.0, "pq_c_daily_cus": 50.0, "cluster_id": 7 }, "geometry": { "type": "Point", "coordinates": [ 73.24387, 34.214918 ] } },
{ "type": "Feature", "properties": { "_id": "690804310", "pq_city": 2.0, "pq_ward": 215.0, "count_female": 0.0, "count_male": 0.0, "pq_c_daily_cus": null, "cluster_id": 5 }, "geometry": { "type": "Point", "coordinates": [ 73.23852, 34.20027 ] } },
{ "type": "Feature", "properties": { "_id": "690805563", "pq_city": 2.0, "pq_ward": 215.0, "count_female": 0.0, "count_male": 2.0, "pq_c_daily_cus": 40.0, "cluster_id": 5 }, "geometry": { "type": "Point", "coordinates": [ 73.23398, 34.209 ] } },
{ "type": "Feature", "properties": { "_id": "690806643", "pq_city": 2.0, "pq_ward": 215.0, "count_female": 0.0, "count_male": 0.0, "pq_c_daily_cus": null, "cluster_id": 7 }, "geometry": { "type": "Point", "coordinates": [ 73.2434, 34.21475 ] } }
]
}
