{
"type": "FeatureCollection",
"name": "pk_abbot_hull.geojson",
"crs": { "type": "name", "properties": { "name": "urn:ogc:def:crs:OGC:1.3:CRS84" } },
"features": [
{ "type": "Feature", "properties": { "cluster_id": 1, "point_count": 14, "count_female_sum": 3.0, "count_female_count": 14, "count_female_mean": 1.0, "count_male_sum": 11.0, "count_male_count": 14, "count_male_mean": 2.0, "pq_c_daily_cus_sum": 480.0, "pq_c_daily_cus_count": 6, "pq_c_daily_cus_mean": 300.0, "nearest_group": 8, "nearest_distance": 324.63648155775849 }, "geometry": { "type": "Polygon", "coordinates": [ [ [ 73.2529398, 34.2061657 ], [ 73.240935, 34.228815 ], [ 73.2412841, 34.2160795 ], [ 73.2423099, 34.2102843 ], [ 73.2490982, 34.206758899999976 ], [ 73.2529398, 34.2061657 ] ] ] } },
{ "type": "Feature", "properties": { "cluster_id": 2, "point_count": 30, "count_female_sum": 1.0, "count_female_count": 30, "count_female_mean": 1.0, "count_male_sum": 27.0, "count_male_count": 30, "count_male_mean": 3.0, "pq_c_daily_cus_sum": 758.0, "pq_c_daily_cus_count": 18, "pq_c_daily_cus_mean": 100.0, "nearest_group": 6, "nearest_distance": 176.96980459802589 }, "geometry": { "type": "Polygon", "coordinates": [ [ [ 73.2485624, 34.1626486 ], [ 73.245859, 34.173655599999989 ], [ 73.2437867, 34.1744229 ], [ 73.2380108, 34.1723962 ], [ 73.2324122, 34.1602783 ], [ 73.2323506, 34.1599531 ], [ 73.2323016, 34.1565308 ], [ 73.2383811, 34.156946200000014 ], [ 73.2415182, 34.157442099999983 ], [ 73.2485624, 34.1626486 ] ] ] } },
{ "type": "Feature", "properties": { "cluster_id": 3, "point_count": 37, "count_female_sum": 4.0, "count_female_count": 37, "count_female_mean": 2.0, "count_male_sum": 30.0, "count_male_count": 37, "count_male_mean": 3.0, "pq_c_daily_cus_sum": 813.0, "pq_c_daily_cus_count": 15, "pq_c_daily_cus_mean": 150.0, "nearest_group": 9, "nearest_distance": 339.78861339817365 }, "geometry": { "type": "Polygon", "coordinates": [ [ [ 73.2307404, 34.1824858 ], [ 73.2276822, 34.184722399999977 ], [ 73.2209353, 34.1862318 ], [ 73.2171655, 34.1760825 ], [ 73.217479, 34.1744074 ], [ 73.2230391, 34.166586400000014 ], [ 73.2232045, 34.166530199999976 ], [ 73.2246773, 34.168314 ], [ 73.2274706, 34.1726047 ], [ 73.2307404, 34.1824858 ] ] ] } },
{ "type": "Feature", "properties": { "cluster_id": 4, "point_count": 21, "count_female_sum": 1.0, "count_female_count": 21, "count_female_mean": 1.0, "count_male_sum": 28.0, "count_male_count": 21, "count_male_mean": 3.0, "pq_c_daily_cus_sum": 890.0, "pq_c_daily_cus_count": 15, "pq_c_daily_cus_mean": 300.0, "nearest_group": 1, "nearest_distance": 1107.2940710107744 }, "geometry": { "type": "Polygon", "coordinates": [ [ [ 73.2363629, 34.2653289 ], [ 73.2233219, 34.2760116 ], [ 73.2185778, 34.251944 ], [ 73.217252, 34.2382015 ], [ 73.2356412, 34.2377603 ], [ 73.2363629, 34.2653289 ] ] ] } },
{ "type": "Feature", "properties": { "cluster_id": 5, "point_count": 47, "count_female_sum": 0.0, "count_female_count": 47, "count_female_mean": 0.0, "count_male_sum": 78.0, "count_male_count": 47, "count_male_mean": 4.0, "pq_c_daily_cus_sum": 1505.0, "pq_c_daily_cus_count": 37, "pq_c_daily_cus_mean": 120.0, "nearest_group": 2, "nearest_distance": 1895.5286087284021 }, "geometry": { "type": "Polygon", "coordinates": [ [ [ 73.2157147, 34.146481300000012 ], [ 73.2002098, 34.1582834 ], [ 73.1981752, 34.1481243 ], [ 73.1967109, 34.1385304 ], [ 73.2059098, 34.1393209 ], [ 73.2136858, 34.1406051 ], [ 73.2152747, 34.14501 ], [ 73.215704, 34.1464317 ], [ 73.2157147, 34.146481300000012 ] ] ] } },
{ "type": "Feature", "properties": { "cluster_id": 6, "point_count": 25, "count_female_sum": 3.0, "count_female_count": 25, "count_female_mean": 1.0, "count_male_sum": 27.0, "count_male_count": 25, "count_male_mean": 3.0, "pq_c_daily_cus_sum": 892.0, "pq_c_daily_cus_count": 17, "pq_c_daily_cus_mean": 100.0, "nearest_group": 2, "nearest_distance": 176.96980459802589 }, "geometry": { "type": "Polygon", "coordinates": [ [ [ 73.2664182, 34.1656152 ], [ 73.2650412, 34.1668568 ], [ 73.2592663, 34.1695594 ], [ 73.2559723, 34.1691153 ], [ 73.2503579, 34.1620918 ], [ 73.2502858, 34.1612806 ], [ 73.2514901, 34.1596222 ], [ 73.2636017, 34.1578228 ], [ 73.2648422, 34.1577442 ], [ 73.2664182, 34.1656152 ] ] ] } },
{ "type": "Feature", "properties": { "cluster_id": 7, "point_count": 5, "count_female_sum": 0.0, "count_female_count": 5, "count_female_mean": 0.0, "count_male_sum": 4.0, "count_male_count": 5, "count_male_mean": 2.0, "pq_c_daily_cus_sum": 40.0, "pq_c_daily_cus_count": 2, "pq_c_daily_cus_mean": 20.0, "nearest_group": 9, "nearest_distance": 949.23682014835708 }, "geometry": { "type": "Polygon", "coordinates": [ [ [ 73.2836874, 34.205044 ], [ 73.2829738, 34.2049812 ], [ 73.2651942, 34.195843099999976 ], [ 73.2670746, 34.1930125 ], [ 73.2836874, 34.205044 ] ] ] } },
{ "type": "Feature", "properties": { "cluster_id": 8, "point_count": 43, "count_female_sum": 2.0, "count_female_count": 43, "count_female_mean": 1.0, "count_male_sum": 65.0, "count_male_count": 43, "count_male_mean": 5.0, "pq_c_daily_cus_sum": 1470.0, "pq_c_daily_cus_count": 26, "pq_c_daily_cus_mean": 300.0, "nearest_group": 9, "nearest_distance": 112.99431421536153 }, "geometry": { "type": "Polygon", "coordinates": [ [ [ 73.2498792, 34.2031485 ], [ 73.2399927, 34.2073336 ], [ 73.2339835, 34.2090097 ], [ 73.2175538, 34.2082878 ], [ 73.219831, 34.2039444 ], [ 73.225702, 34.2018709 ], [ 73.23852, 34.20027 ], [ 73.2498792, 34.2031485 ] ] ] } },
{ "type": "Feature", "properties": { "cluster_id": 9, "point_count": 58, "count_female_sum": 5.0, "count_female_count": 58, "count_female_mean": 1.0, "count_male_sum": 110.0, "count_male_count": 58, "count_male_mean": 6.0, "pq_c_daily_cus_sum": 2715.0, "pq_c_daily_cus_count": 43, "pq_c_daily_cus_mean": 500.0, "nearest_group": 8, "nearest_distance": 112.99431421536153 }, "geometry": { "type": "Polygon", "coordinates": [ [ [ 73.2550343, 34.197162099999986 ], [ 73.2388195, 34.199209100000012 ], [ 73.2384239, 34.199256 ], [ 73.227792, 34.1995274 ], [ 73.2226327, 34.1890197 ], [ 73.2389563, 34.1878577 ], [ 73.2550343, 34.197162099999986 ] ] ] } }
]
}
