{
"type": "FeatureCollection",
"name": "pk_pesha_clustered.geojson",
"crs": { "type": "name", "properties": { "name": "urn:ogc:def:crs:OGC:1.3:CRS84" } },
"features": [
{ "type": "Feature", "properties": { "_id": "665839376", "pq_city": 1.0, "pq_ward": 105.0, "count_female": 0.0, "count_male": 0.0, "pq_c_daily_cus": null, "cluster_id": 1 }, "geometry": { "type": "Point", "coordinates": [ 71.5032331, 33.965418 ] } },
{ "type": "Feature", "properties": { "_id": "665846971", "pq_city": 1.0, "pq_ward": 105.0, "count_female": 0.0, "count_male": 0.0, "pq_c_daily_cus": null, "cluster_id": 9 }, "geometry": { "type": "Point", "coordinates": [ 71.4686217, 33.9921309 ] } },
{ "type": "Feature", "properties": { "_id": "665853478", "pq_city": 1.0, "pq_ward": 105.0, "count_female": 0.0, "count_male": 0.0, "pq_c_daily_cus": null, "cluster_id": 9 }, "geometry": { "type": "Point", "coordinates": [ 71.4722803, 33.9868866 ] } },
{ "type": "Feature", "properties": { "_id": "665861522", "pq_city": 1.0, "pq_ward": 105.0, "count_female": 0.0, "count_male": 0.0, "pq_c_daily_cus": null, "cluster_id": 9 }, "geometry": { "type": "Point", "coordinates": [ 71.4722743, 33.9907046 ] } },
{ "type": "Feature", "properties": { "_id": "665864526", "pq_city": 1.0, "pq_ward": 105.0, "count_female": 0.0, "count_male": 0.0, "pq_c_daily_cus": null, "cluster_id": 9 }, "geometry": { "type": "Point", "coordinates": [ 71.4766669, 33.993219 ] } },
{ "type": "Feature", "properties": { "_id": "665872489", "pq_city": 1.0, "pq_ward": 105.0, "count_female": 0.0, "count_male": 0.0, "pq_c_daily_cus": null, "cluster_id": 1 }, "geometry": { "type": "Point", "coordinates": [ 71.478689, 33.9735421 ] } },
{ "type": "Feature", "properties": { "_id": "665891423", "pq_city": 1.0, "pq_ward": 105.0, "count_female": 0.0, "count_male": 0.0, "pq_c_daily_cus": null, "cluster_id": 1 }, "geometry": { "type": "Point", "coordinates": [ 71.490411, 33.9783796 ] } },
{ "type": "Feature", "properties": { "_id": "666224047", "pq_city": 1.0, "pq_ward": 105.0, "count_female": 0.0, "count_male": 0.0, "pq_c_daily_cus": null, "cluster_id": 1 }, "geometry": { "type": "Point", "coordinates": [ 71.4935998, 33.9829774 ] } },
{ "type": "Feature", "properties": { "_id": "666225886", "pq_city": 1.0, "pq_ward": 105.0, "count_female": 0.0, "count_male": 0.0, "pq_c_daily_cus": null, "cluster_id": 1 }, "geometry": { "type": "Point", "coordinates": [ 71.4948742, 33.984919599999984 ] } },
{ "type": "Feature", "properties": { "_id": "666228105", "pq_city": 1.0, "pq_ward": 105.0, "count_female": 0.0, "count_male": 0.0, "pq_c_daily_cus": null, "cluster_id": 1 }, "geometry": { "type": "Point", "coordinates": [ 71.4935655, 33.9827466 ] } },
{ "type": "Feature", "properties": { "_id": "668649654", "pq_city": 1.0, "pq_ward": 109.0, "count_female": 0.0, "count_male": 5.0, "pq_c_daily_cus": 150.0, "cluster_id": 9 }, "geometry": { "type": "Point", "coordinates": [ 71.467327, 33.9977837 ] } },
{ "type": "Feature", "properties": { "_id": "668651266", "pq_city": 1.0, "pq_ward": 109.0, "count_female": 1.0, "count_male": 4.0, "pq_c_daily_cus": 250.0, "cluster_id": 9 }, "geometry": { "type": "Point", "coordinates": [ 71.4680627, 34.002461 ] } },
{ "type": "Feature", "properties": { "_id": "668653996", "pq_city": 1.0, "pq_ward": 111.0, "count_female": 0.0, "count_male": 6.0, "pq_c_daily_cus": 100.0, "cluster_id": 2 }, "geometry": { "type": "Point", "coordinates": [ 71.4863929, 33.9976178 ] } },
{ "type": "Feature", "properties": { "_id": "668654486", "pq_city": 1.0, "pq_ward": 111.0, "count_female": 0.0, "count_male": 3.0, "pq_c_daily_cus": 80.0, "cluster_id": 2 }, "geometry": { "type": "Point", "coordinates": [ 71.4864109, 33.9979811 ] } },
{ "type": "Feature", "properties": { "_id": "668655640", "pq_city": 1.0, "pq_ward": 110.0, "count_female": 0.0, "count_male": 1.0, "pq_c_daily_cus": 15.0, "cluster_id": 2 }, "geometry": { "type": "Point", "coordinates": [ 71.4946136, 34.001185899999989 ] } },
{ "type": "Feature", "properties": { "_id": "668657772", "pq_city": 1.0, "pq_ward": 111.0, "count_female": 0.0, "count_male": 0.0, "pq_c_daily_cus": null, "cluster_id": 2 }, "geometry": { "type": "Point", "coordinates": [ 71.4883262, 33.9969876 ] } },
{ "type": "Feature", "properties": { "_id": "668657811", "pq_city": 1.0, "pq_ward": 110.0, "count_female": 0.0, "count_male": 1.0, "pq_c_daily_cus": 50.0, "cluster_id": 2 }, "geometry": { "type": "Point", "coordinates": [ 71.4944427, 34.000345 ] } },
{ "type": "Feature", "properties": { "_id": "668657978", "pq_city": 1.0, "pq_ward": 111.0, "count_female": 0.0, "count_male": 1.0, "pq_c_daily_cus": 45.0, "cluster_id": 2 }, "geometry": { "type": "Point", "coordinates": [ 71.4885395, 33.9971338 ] } },
{ "type": "Feature", "properties": { "_id": "668658099", "pq_city": 1.0, "pq_ward": 111.0, "count_female": 0.0, "count_male": 1.0, "pq_c_daily_cus": 50.0, "cluster_id": 2 }, "geometry": { "type": "Point", "coordinates": [ 71.4885478, 33.996977200000011 ] } },
{ "type": "Feature", "properties": { "_id": "668658204", "pq_city": 1.0, "pq_ward": 111.0, "count_female": 0.0, "count_male": 2.0, "pq_c_daily_cus": 60.0, "cluster_id": 2 }, "geometry": { "type": "Point", "coordinates": [ 71.4884172, 33.9969788 ] } },
{ "type": "Feature", "properties": { "_id": "668659157", "pq_city": 1.0, "pq_ward": 111.0, "count_female": 0.0, "count_male": 1.0, "pq_c_daily_cus": 50.0, "cluster_id": 2 }, "geometry": { "type": "Point", "coordinates": [ 71.4884847, 33.9966495 ] } },
{ "type": "Feature", "properties": { "_id": "668659274", "pq_city": 1.0, "pq_ward": 110.0, "count_female": 0.0, "count_male": 2.0, "pq_c_daily_cus": 50.0, "cluster_id": 2 }, "geometry": { "type": "Point", "coordinates": [ 71.4943355, 34.0001776 ] } },
{ "type": "Feature", "properties": { "_id": "668659799", "pq_city": 1.0, "pq_ward": 111.0, "count_female": 0.0, "count_male": 3.0, "pq_c_daily_cus": 25.0, "cluster_id": 2 }, "geometry": { "type": "Point", "coordinates": [ 71.4890615, 33.9969588 ] } },
{ "type": "Feature", "properties": { "_id": "668660117", "pq_city": 1.0, "pq_ward": 109.0, "count_female": 0.0, "count_male": 0.0, "pq_c_daily_cus": null, "cluster_id": 9 }, "geometry": { "type": "Point", "coordinates": [ 71.4644074, 34.004733099999989 ] } },
{ "type": "Feature", "properties": { "_id": "668660251", "pq_city": 1.0, "pq_ward": 111.0, "count_female": 0.0, "count_male": 0.0, "pq_c_daily_cus": null, "cluster_id": 2 }, "geometry": { "type": "Point", "coordinates": [ 71.4885597, 33.9965413 ] } },
{ "type": "Feature", "properties": { "_id": "668660589", "pq_city": 1.0, "pq_ward": 111.0, "count_female": 0.0, "count_male": 3.0, "pq_c_daily_cus": 60.0, "cluster_id": 2 }, "geometry": { "type": "Point", "coordinates": [ 71.4883528, 33.995744 ] } },
{ "type": "Feature", "properties": { "_id": "668661148", "pq_city": 1.0, "pq_ward": 111.0, "count_female": 0.0, "count_male": 3.0, "pq_c_daily_cus": 40.0, "cluster_id": 2 }, "geometry": { "type": "Point", "coordinates": [ 71.4883732, 33.9959369 ] } },
{ "type": "Feature", "properties": { "_id": "668661151", "pq_city": 1.0, "pq_ward": 111.0, "count_female": 0.0, "count_male": 0.0, "pq_c_daily_cus": null, "cluster_id": 2 }, "geometry": { "type": "Point", "coordinates": [ 71.4884135, 33.9958495 ] } },
{ "type": "Feature", "properties": { "_id": "668661313", "pq_city": 1.0, "pq_ward": 111.0, "count_female": 0.0, "count_male": 6.0, "pq_c_daily_cus": 250.0, "cluster_id": 2 }, "geometry": { "type": "Point", "coordinates": [ 71.4887138, 33.9957361 ] } },
{ "type": "Feature", "properties": { "_id": "668661553", "pq_city": 1.0, "pq_ward": 111.0, "count_female": 0.0, "count_male": 2.0, "pq_c_daily_cus": 60.0, "cluster_id": 2 }, "geometry": { "type": "Point", "coordinates": [ 71.4882843, 33.996827899999985 ] } },
{ "type": "Feature", "properties": { "_id": "668661556", "pq_city": 1.0, "pq_ward": 111.0, "count_female": 0.0, "count_male": 1.0, "pq_c_daily_cus": 80.0, "cluster_id": 2 }, "geometry": { "type": "Point", "coordinates": [ 71.4883601, 33.9959964 ] } },
{ "type": "Feature", "properties": { "_id": "668661558", "pq_city": 1.0, "pq_ward": 111.0, "count_female": 0.0, "count_male": 4.0, "pq_c_daily_cus": 60.0, "cluster_id": 2 }, "geometry": { "type": "Point", "coordinates": [ 71.4883299, 33.9958405 ] } },
{ "type": "Feature", "properties": { "_id": "668661561", "pq_city": 1.0, "pq_ward": 111.0, "count_female": 0.0, "count_male": 6.0, "pq_c_daily_cus": 80.0, "cluster_id": 2 }, "geometry": { "type": "Point", "coordinates": [ 71.4883829, 33.9958078 ] } },
{ "type": "Feature", "properties": { "_id": "668661564", "pq_city": 1.0, "pq_ward": 111.0, "count_female": 0.0, "count_male": 0.0, "pq_c_daily_cus": null, "cluster_id": 2 }, "geometry": { "type": "Point", "coordinates": [ 71.488779, 33.9957335 ] } },
{ "type": "Feature", "properties": { "_id": "668661875", "pq_city": 1.0, "pq_ward": 109.0, "count_female": 0.0, "count_male": 2.0, "pq_c_daily_cus": 50.0, "cluster_id": 9 }, "geometry": { "type": "Point", "coordinates": [ 71.4593515, 34.0130021 ] } },
{ "type": "Feature", "properties": { "_id": "668662545", "pq_city": 1.0, "pq_ward": 111.0, "count_female": 0.0, "count_male": 3.0, "pq_c_daily_cus": 50.0, "cluster_id": 2 }, "geometry": { "type": "Point", "coordinates": [ 71.4898184, 33.995738500000016 ] } },
{ "type": "Feature", "properties": { "_id": "668662724", "pq_city": 1.0, "pq_ward": 111.0, "count_female": 0.0, "count_male": 3.0, "pq_c_daily_cus": 30.0, "cluster_id": 2 }, "geometry": { "type": "Point", "coordinates": [ 71.4899381, 33.9957718 ] } },
{ "type": "Feature", "properties": { "_id": "668664757", "pq_city": 1.0, "pq_ward": 111.0, "count_female": 0.0, "count_male": 2.0, "pq_c_daily_cus": 40.0, "cluster_id": 2 }, "geometry": { "type": "Point", "coordinates": [ 71.4910488, 33.9957548 ] } },
{ "type": "Feature", "properties": { "_id": "668666179", "pq_city": 1.0, "pq_ward": 106.0, "count_female": 0.0, "count_male": 0.0, "pq_c_daily_cus": null, "cluster_id": 2 }, "geometry": { "type": "Point", "coordinates": [ 71.4936603, 34.0071278 ] } },
{ "type": "Feature", "properties": { "_id": "668666685", "pq_city": 1.0, "pq_ward": 110.0, "count_female": 0.0, "count_male": 0.0, "pq_c_daily_cus": null, "cluster_id": 2 }, "geometry": { "type": "Point", "coordinates": [ 71.497692, 34.0026804 ] } },
{ "type": "Feature", "properties": { "_id": "668667105", "pq_city": 1.0, "pq_ward": 110.0, "count_female": 0.0, "count_male": 0.0, "pq_c_daily_cus": null, "cluster_id": 2 }, "geometry": { "type": "Point", "coordinates": [ 71.4977277, 34.0027227 ] } },
{ "type": "Feature", "properties": { "_id": "668668116", "pq_city": 1.0, "pq_ward": 110.0, "count_female": 0.0, "count_male": 3.0, "pq_c_daily_cus": 30.0, "cluster_id": 2 }, "geometry": { "type": "Point", "coordinates": [ 71.4974366, 34.0038217 ] } },
{ "type": "Feature", "properties": { "_id": "668668533", "pq_city": 1.0, "pq_ward": 110.0, "count_female": 0.0, "count_male": 2.0, "pq_c_daily_cus": 15.0, "cluster_id": 2 }, "geometry": { "type": "Point", "coordinates": [ 71.4973702, 34.0033035 ] } },
{ "type": "Feature", "properties": { "_id": "668668762", "pq_city": 1.0, "pq_ward": 111.0, "count_female": 0.0, "count_male": 5.0, "pq_c_daily_cus": 100.0, "cluster_id": 2 }, "geometry": { "type": "Point", "coordinates": [ 71.4886974, 33.9956999 ] } },
{ "type": "Feature", "properties": { "_id": "668668770", "pq_city": 1.0, "pq_ward": 111.0, "count_female": 0.0, "count_male": 0.0, "pq_c_daily_cus": null, "cluster_id": 2 }, "geometry": { "type": "Point", "coordinates": [ 71.4887304, 33.9957478 ] } },
{ "type": "Feature", "properties": { "_id": "668669888", "pq_city": 1.0, "pq_ward": 111.0, "count_female": 0.0, "count_male": 10.0, "pq_c_daily_cus": 500.0, "cluster_id": 2 }, "geometry": { "type": "Point", "coordinates": [ 71.4886308, 33.9957284 ] } },
{ "type": "Feature", "properties": { "_id": "668670221", "pq_city": 1.0, "pq_ward": 111.0, "count_female": 0.0, "count_male": 5.0, "pq_c_daily_cus": 350.0, "cluster_id": 2 }, "geometry": { "type": "Point", "coordinates": [ 71.4885316, 33.99568 ] } },
{ "type": "Feature", "properties": { "_id": "668670692", "pq_city": 1.0, "pq_ward": 111.0, "count_female": 0.0, "count_male": 5.0, "pq_c_daily_cus": 200.0, "cluster_id": 2 }, "geometry": { "type": "Point", "coordinates": [ 71.4884517, 33.995709 ] } },
{ "type": "Feature", "properties": { "_id": "668671043", "pq_city": 1.0, "pq_ward": 111.0, "count_female": 0.0, "count_male": 3.0, "pq_c_daily_cus": 150.0, "cluster_id": 2 }, "geometry": { "type": "Point", "coordinates": [ 71.4883273, 33.9957834 ] } },
{ "type": "Feature", "properties": { "_id": "668671224", "pq_city": 1.0, "pq_ward": 111.0, "count_female": 0.0, "count_male": 8.0, "pq_c_daily_cus": 250.0, "cluster_id": 2 }, "geometry": { "type": "Point", "coordinates": [ 71.4882205, 33.9956842 ] } },
{ "type": "Feature", "properties": { "_id": "668671271", "pq_city": 1.0, "pq_ward": 111.0, "count_female": 0.0, "count_male": 5.0, "pq_c_daily_cus": 300.0, "cluster_id": 2 }, "geometry": { "type": "Point", "coordinates": [ 71.488477, 33.9957084 ] } },
{ "type": "Feature", "properties": { "_id": "668671788", "pq_city": 1.0, "pq_ward": 111.0, "count_female": 0.0, "count_male": 5.0, "pq_c_daily_cus": 150.0, "cluster_id": 2 }, "geometry": { "type": "Point", "coordinates": [ 71.4880199, 33.9955235 ] } },
{ "type": "Feature", "properties": { "_id": "668672185", "pq_city": 1.0, "pq_ward": 111.0, "count_female": 0.0, "count_male": 5.0, "pq_c_daily_cus": 60.0, "cluster_id": 2 }, "geometry": { "type": "Point", "coordinates": [ 71.4881319, 33.9955078 ] } },
{ "type": "Feature", "properties": { "_id": "668672248", "pq_city": 1.0, "pq_ward": 111.0, "count_female": 0.0, "count_male": 3.0, "pq_c_daily_cus": 300.0, "cluster_id": 2 }, "geometry": { "type": "Point", "coordinates": [ 71.4886428, 33.995661 ] } },
{ "type": "Feature", "properties": { "_id": "668672283", "pq_city": 1.0, "pq_ward": 111.0, "count_female": 0.0, "count_male": 6.0, "pq_c_daily_cus": 700.0, "cluster_id": 2 }, "geometry": { "type": "Point", "coordinates": [ 71.4881305, 33.9954087 ] } },
{ "type": "Feature", "properties": { "_id": "668672325", "pq_city": 1.0, "pq_ward": 111.0, "count_female": 0.0, "count_male": 3.0, "pq_c_daily_cus": 200.0, "cluster_id": 2 }, "geometry": { "type": "Point", "coordinates": [ 71.4880359, 33.995476600000011 ] } },
{ "type": "Feature", "properties": { "_id": "668672923", "pq_city": 1.0, "pq_ward": 111.0, "count_female": 0.0, "count_male": 10.0, "pq_c_daily_cus": 600.0, "cluster_id": 2 }, "geometry": { "type": "Point", "coordinates": [ 71.4880996, 33.9953262 ] } },
{ "type": "Feature", "properties": { "_id": "668673356", "pq_city": 1.0, "pq_ward": 111.0, "count_female": 0.0, "count_male": 9.0, "pq_c_daily_cus": 600.0, "cluster_id": 2 }, "geometry": { "type": "Point", "coordinates": [ 71.4880234, 33.9954564 ] } },
{ "type": "Feature", "properties": { "_id": "668673366", "pq_city": 1.0, "pq_ward": 111.0, "count_female": 0.0, "count_male": 0.0, "pq_c_daily_cus": null, "cluster_id": 2 }, "geometry": { "type": "Point", "coordinates": [ 71.4880553, 33.9953888 ] } },
{ "type": "Feature", "properties": { "_id": "668677076", "pq_city": 1.0, "pq_ward": 106.0, "count_female": 0.0, "count_male": 0.0, "pq_c_daily_cus": null, "cluster_id": 2 }, "geometry": { "type": "Point", "coordinates": [ 71.4978902, 34.0018828 ] } },
{ "type": "Feature", "properties": { "_id": "668680081", "pq_city": 1.0, "pq_ward": 106.0, "count_female": 0.0, "count_male": 2.0, "pq_c_daily_cus": 100.0, "cluster_id": 2 }, "geometry": { "type": "Point", "coordinates": [ 71.5007505, 34.0028398 ] } },
{ "type": "Feature", "properties": { "_id": "668680857", "pq_city": 1.0, "pq_ward": 111.0, "count_female": 0.0, "count_male": 2.0, "pq_c_daily_cus": 10.0, "cluster_id": 9 }, "geometry": { "type": "Point", "coordinates": [ 71.4711124, 33.9978348 ] } },
{ "type": "Feature", "properties": { "_id": "668680953", "pq_city": 1.0, "pq_ward": 111.0, "count_female": 0.0, "count_male": 2.0, "pq_c_daily_cus": 40.0, "cluster_id": 9 }, "geometry": { "type": "Point", "coordinates": [ 71.4708258, 33.9977711 ] } },
{ "type": "Feature", "properties": { "_id": "668681074", "pq_city": 1.0, "pq_ward": 106.0, "count_female": 0.0, "count_male": 0.0, "pq_c_daily_cus": null, "cluster_id": 7 }, "geometry": { "type": "Point", "coordinates": [ 71.5031472, 34.0047664 ] } },
{ "type": "Feature", "properties": { "_id": "668681676", "pq_city": 1.0, "pq_ward": 111.0, "count_female": 0.0, "count_male": 4.0, "pq_c_daily_cus": 100.0, "cluster_id": 9 }, "geometry": { "type": "Point", "coordinates": [ 71.4706848, 33.9977716 ] } },
{ "type": "Feature", "properties": { "_id": "668681797", "pq_city": 1.0, "pq_ward": 111.0, "count_female": 0.0, "count_male": 0.0, "pq_c_daily_cus": null, "cluster_id": 9 }, "geometry": { "type": "Point", "coordinates": [ 71.4706518, 33.9976298 ] } },
{ "type": "Feature", "properties": { "_id": "668681805", "pq_city": 1.0, "pq_ward": 111.0, "count_female": 0.0, "count_male": 0.0, "pq_c_daily_cus": null, "cluster_id": 9 }, "geometry": { "type": "Point", "coordinates": [ 71.4698799, 33.9976563 ] } },
{ "type": "Feature", "properties": { "_id": "668681811", "pq_city": 1.0, "pq_ward": 111.0, "count_female": 0.0, "count_male": 0.0, "pq_c_daily_cus": null, "cluster_id": 9 }, "geometry": { "type": "Point", "coordinates": [ 71.4711293, 33.9978195 ] } },
{ "type": "Feature", "properties": { "_id": "668681996", "pq_city": 1.0, "pq_ward": 111.0, "count_female": 0.0, "count_male": 4.0, "pq_c_daily_cus": 100.0, "cluster_id": 9 }, "geometry": { "type": "Point", "coordinates": [ 71.4707589, 33.9978042 ] } },
{ "type": "Feature", "properties": { "_id": "668682907", "pq_city": 1.0, "pq_ward": 106.0, "count_female": 0.0, "count_male": 0.0, "pq_c_daily_cus": null, "cluster_id": 7 }, "geometry": { "type": "Point", "coordinates": [ 71.5027033, 34.008243 ] } },
{ "type": "Feature", "properties": { "_id": "668683412", "pq_city": 1.0, "pq_ward": 106.0, "count_female": 0.0, "count_male": 0.0, "pq_c_daily_cus": null, "cluster_id": 7 }, "geometry": { "type": "Point", "coordinates": [ 71.5032658, 34.0085255 ] } },
{ "type": "Feature", "properties": { "_id": "668684381", "pq_city": 1.0, "pq_ward": 111.0, "count_female": 0.0, "count_male": 0.0, "pq_c_daily_cus": null, "cluster_id": 9 }, "geometry": { "type": "Point", "coordinates": [ 71.4712607, 33.9953485 ] } },
{ "type": "Feature", "properties": { "_id": "668684416", "pq_city": 1.0, "pq_ward": 111.0, "count_female": 0.0, "count_male": 0.0, "pq_c_daily_cus": null, "cluster_id": 9 }, "geometry": { "type": "Point", "coordinates": [ 71.4713375, 33.9954677 ] } },
{ "type": "Feature", "properties": { "_id": "668684988", "pq_city": 1.0, "pq_ward": 106.0, "count_female": 0.0, "count_male": 2.0, "pq_c_daily_cus": 150.0, "cluster_id": 7 }, "geometry": { "type": "Point", "coordinates": [ 71.5026297, 34.0088436 ] } },
{ "type": "Feature", "properties": { "_id": "668685062", "pq_city": 1.0, "pq_ward": 111.0, "count_female": 0.0, "count_male": 0.0, "pq_c_daily_cus": null, "cluster_id": 9 }, "geometry": { "type": "Point", "coordinates": [ 71.4731654, 33.995494299999983 ] } },
{ "type": "Feature", "properties": { "_id": "668685732", "pq_city": 1.0, "pq_ward": 111.0, "count_female": 0.0, "count_male": 3.0, "pq_c_daily_cus": 20.0, "cluster_id": 9 }, "geometry": { "type": "Point", "coordinates": [ 71.4746303, 33.9954656 ] } },
{ "type": "Feature", "properties": { "_id": "668686364", "pq_city": 1.0, "pq_ward": 106.0, "count_female": 0.0, "count_male": 0.0, "pq_c_daily_cus": null, "cluster_id": 7 }, "geometry": { "type": "Point", "coordinates": [ 71.5024603, 34.008931300000015 ] } },
{ "type": "Feature", "properties": { "_id": "669391651", "pq_city": 1.0, "pq_ward": 109.0, "count_female": 0.0, "count_male": 0.0, "pq_c_daily_cus": null, "cluster_id": 4 }, "geometry": { "type": "Point", "coordinates": [ 71.474126, 34.0279585 ] } },
{ "type": "Feature", "properties": { "_id": "669393106", "pq_city": 1.0, "pq_ward": 109.0, "count_female": 0.0, "count_male": 0.0, "pq_c_daily_cus": null, "cluster_id": 4 }, "geometry": { "type": "Point", "coordinates": [ 71.4775452, 34.0160459 ] } },
{ "type": "Feature", "properties": { "_id": "669396691", "pq_city": 1.0, "pq_ward": 109.0, "count_female": 0.0, "count_male": 0.0, "pq_c_daily_cus": null, "cluster_id": 4 }, "geometry": { "type": "Point", "coordinates": [ 71.47544, 34.0163439 ] } },
{ "type": "Feature", "properties": { "_id": "669401604", "pq_city": 1.0, "pq_ward": 105.0, "count_female": 0.0, "count_male": 0.0, "pq_c_daily_cus": null, "cluster_id": 9 }, "geometry": { "type": "Point", "coordinates": [ 71.4771351, 33.9934423 ] } },
{ "type": "Feature", "properties": { "_id": "669402138", "pq_city": 1.0, "pq_ward": 110.0, "count_female": 0.0, "count_male": 0.0, "pq_c_daily_cus": null, "cluster_id": 9 }, "geometry": { "type": "Point", "coordinates": [ 71.4813596, 34.0023235 ] } },
{ "type": "Feature", "properties": { "_id": "669403097", "pq_city": 1.0, "pq_ward": 110.0, "count_female": 0.0, "count_male": 1.0, "pq_c_daily_cus": 15.0, "cluster_id": 9 }, "geometry": { "type": "Point", "coordinates": [ 71.481699, 34.002205 ] } },
{ "type": "Feature", "properties": { "_id": "669405129", "pq_city": 1.0, "pq_ward": 106.0, "count_female": 0.0, "count_male": 0.0, "pq_c_daily_cus": null, "cluster_id": 7 }, "geometry": { "type": "Point", "coordinates": [ 71.4942467, 34.0104231 ] } },
{ "type": "Feature", "properties": { "_id": "669405983", "pq_city": 1.0, "pq_ward": 111.0, "count_female": 0.0, "count_male": 2.0, "pq_c_daily_cus": 150.0, "cluster_id": 2 }, "geometry": { "type": "Point", "coordinates": [ 71.485945200000018, 33.9911992 ] } },
{ "type": "Feature", "properties": { "_id": "669406697", "pq_city": 1.0, "pq_ward": 111.0, "count_female": 0.0, "count_male": 0.0, "pq_c_daily_cus": null, "cluster_id": 2 }, "geometry": { "type": "Point", "coordinates": [ 71.4859809, 33.9912156 ] } },
{ "type": "Feature", "properties": { "_id": "669408189", "pq_city": 1.0, "pq_ward": 102.0, "count_female": 0.0, "count_male": 0.0, "pq_c_daily_cus": null, "cluster_id": 4 }, "geometry": { "type": "Point", "coordinates": [ 71.4847687, 34.0217404 ] } },
{ "type": "Feature", "properties": { "_id": "669409264", "pq_city": 1.0, "pq_ward": 102.0, "count_female": 0.0, "count_male": 2.0, "pq_c_daily_cus": 50.0, "cluster_id": 4 }, "geometry": { "type": "Point", "coordinates": [ 71.485426, 34.0232334 ] } },
{ "type": "Feature", "properties": { "_id": "669409313", "pq_city": 1.0, "pq_ward": 111.0, "count_female": 0.0, "count_male": 0.0, "pq_c_daily_cus": null, "cluster_id": 9 }, "geometry": { "type": "Point", "coordinates": [ 71.4792158, 33.9935973 ] } },
{ "type": "Feature", "properties": { "_id": "669409316", "pq_city": 1.0, "pq_ward": 111.0, "count_female": 0.0, "count_male": 0.0, "pq_c_daily_cus": null, "cluster_id": 2 }, "geometry": { "type": "Point", "coordinates": [ 71.4859796, 33.9912248 ] } },
{ "type": "Feature", "properties": { "_id": "669410736", "pq_city": 1.0, "pq_ward": 111.0, "count_female": 0.0, "count_male": 8.0, "pq_c_daily_cus": 250.0, "cluster_id": 2 }, "geometry": { "type": "Point", "coordinates": [ 71.4923575, 33.997337 ] } },
{ "type": "Feature", "properties": { "_id": "669410941", "pq_city": 1.0, "pq_ward": 106.0, "count_female": 0.0, "count_male": 0.0, "pq_c_daily_cus": null, "cluster_id": 7 }, "geometry": { "type": "Point", "coordinates": [ 71.4955018, 34.0143322 ] } },
{ "type": "Feature", "properties": { "_id": "669411483", "pq_city": 1.0, "pq_ward": 111.0, "count_female": 0.0, "count_male": 5.0, "pq_c_daily_cus": 100.0, "cluster_id": 2 }, "geometry": { "type": "Point", "coordinates": [ 71.4922279, 33.9973203 ] } },
{ "type": "Feature", "properties": { "_id": "669412885", "pq_city": 1.0, "pq_ward": 106.0, "count_female": 0.0, "count_male": 0.0, "pq_c_daily_cus": null, "cluster_id": 7 }, "geometry": { "type": "Point", "coordinates": [ 71.4983515, 34.0106499 ] } },
{ "type": "Feature", "properties": { "_id": "669413800", "pq_city": 1.0, "pq_ward": 102.0, "count_female": 0.0, "count_male": 0.0, "pq_c_daily_cus": null, "cluster_id": 4 }, "geometry": { "type": "Point", "coordinates": [ 71.487276, 34.0264691 ] } },
{ "type": "Feature", "properties": { "_id": "669416968", "pq_city": 1.0, "pq_ward": 102.0, "count_female": 0.0, "count_male": 0.0, "pq_c_daily_cus": null, "cluster_id": 4 }, "geometry": { "type": "Point", "coordinates": [ 71.4884245, 34.0283198 ] } },
{ "type": "Feature", "properties": { "_id": "669417544", "pq_city": 1.0, "pq_ward": 106.0, "count_female": 0.0, "count_male": 0.0, "pq_c_daily_cus": null, "cluster_id": 7 }, "geometry": { "type": "Point", "coordinates": [ 71.50407730000002, 34.0128401 ] } },
{ "type": "Feature", "properties": { "_id": "669417764", "pq_city": 1.0, "pq_ward": 102.0, "count_female": 0.0, "count_male": 2.0, "pq_c_daily_cus": 30.0, "cluster_id": 4 }, "geometry": { "type": "Point", "coordinates": [ 71.4883629, 34.0286099 ] } },
{ "type": "Feature", "properties": { "_id": "669417862", "pq_city": 1.0, "pq_ward": 102.0, "count_female": 0.0, "count_male": 3.0, "pq_c_daily_cus": 45.0, "cluster_id": 4 }, "geometry": { "type": "Point", "coordinates": [ 71.488338, 34.0286319 ] } },
{ "type": "Feature", "properties": { "_id": "669418090", "pq_city": 1.0, "pq_ward": 102.0, "count_female": 0.0, "count_male": 0.0, "pq_c_daily_cus": null, "cluster_id": 4 }, "geometry": { "type": "Point", "coordinates": [ 71.4882548, 34.0286653 ] } },
{ "type": "Feature", "properties": { "_id": "669419108", "pq_city": 1.0, "pq_ward": 106.0, "count_female": 0.0, "count_male": 0.0, "pq_c_daily_cus": null, "cluster_id": 7 }, "geometry": { "type": "Point", "coordinates": [ 71.5060022, 34.0139438 ] } },
{ "type": "Feature", "properties": { "_id": "669419169", "pq_city": 1.0, "pq_ward": 102.0, "count_female": 0.0, "count_male": 0.0, "pq_c_daily_cus": null, "cluster_id": 4 }, "geometry": { "type": "Point", "coordinates": [ 71.4860318, 34.02999350000001 ] } },
{ "type": "Feature", "properties": { "_id": "669421052", "pq_city": 1.0, "pq_ward": 111.0, "count_female": 0.0, "count_male": 2.0, "pq_c_daily_cus": 30.0, "cluster_id": 2 }, "geometry": { "type": "Point", "coordinates": [ 71.4949269, 33.9989348 ] } },
{ "type": "Feature", "properties": { "_id": "669422661", "pq_city": 1.0, "pq_ward": 111.0, "count_female": 0.0, "count_male": 3.0, "pq_c_daily_cus": 35.0, "cluster_id": 2 }, "geometry": { "type": "Point", "coordinates": [ 71.4945273, 33.998675 ] } },
{ "type": "Feature", "properties": { "_id": "669425345", "pq_city": 1.0, "pq_ward": 106.0, "count_female": 0.0, "count_male": 0.0, "pq_c_daily_cus": null, "cluster_id": 7 }, "geometry": { "type": "Point", "coordinates": [ 71.5027946, 34.0147516 ] } },
{ "type": "Feature", "properties": { "_id": "669426364", "pq_city": 1.0, "pq_ward": 106.0, "count_female": 0.0, "count_male": 0.0, "pq_c_daily_cus": null, "cluster_id": 7 }, "geometry": { "type": "Point", "coordinates": [ 71.5023174, 34.0145552 ] } },
{ "type": "Feature", "properties": { "_id": "669427783", "pq_city": 1.0, "pq_ward": 106.0, "count_female": 0.0, "count_male": 0.0, "pq_c_daily_cus": null, "cluster_id": 7 }, "geometry": { "type": "Point", "coordinates": [ 71.5012261, 34.0147929 ] } },
{ "type": "Feature", "properties": { "_id": "669428598", "pq_city": 1.0, "pq_ward": 102.0, "count_female": 0.0, "count_male": 0.0, "pq_c_daily_cus": null, "cluster_id": 4 }, "geometry": { "type": "Point", "coordinates": [ 71.4857118, 34.0301471 ] } },
{ "type": "Feature", "properties": { "_id": "669428949", "pq_city": 1.0, "pq_ward": 102.0, "count_female": 0.0, "count_male": 2.0, "pq_c_daily_cus": 20.0, "cluster_id": 4 }, "geometry": { "type": "Point", "coordinates": [ 71.4858905, 34.030166199999989 ] } },
{ "type": "Feature", "properties": { "_id": "669429379", "pq_city": 1.0, "pq_ward": 106.0, "count_female": 0.0, "count_male": 0.0, "pq_c_daily_cus": null, "cluster_id": 7 }, "geometry": { "type": "Point", "coordinates": [ 71.5003435, 34.0159744 ] } },
{ "type": "Feature", "properties": { "_id": "669430671", "pq_city": 1.0, "pq_ward": 111.0, "count_female": 0.0, "count_male": 2.0, "pq_c_daily_cus": 10.0, "cluster_id": 2 }, "geometry": { "type": "Point", "coordinates": [ 71.5039101, 33.9902656 ] } },
{ "type": "Feature", "properties": { "_id": "669430740", "pq_city": 1.0, "pq_ward": 111.0, "count_female": 0.0, "count_male": 2.0, "pq_c_daily_cus": 300.0, "cluster_id": 2 }, "geometry": { "type": "Point", "coordinates": [ 71.5039435, 33.9902801 ] } },
{ "type": "Feature", "properties": { "_id": "669433222", "pq_city": 1.0, "pq_ward": 111.0, "count_female": 0.0, "count_male": 2.0, "pq_c_daily_cus": 30.0, "cluster_id": 2 }, "geometry": { "type": "Point", "coordinates": [ 71.5024561, 33.9954104 ] } },
{ "type": "Feature", "properties": { "_id": "669434391", "pq_city": 1.0, "pq_ward": 111.0, "count_female": 0.0, "count_male": 0.0, "pq_c_daily_cus": null, "cluster_id": 2 }, "geometry": { "type": "Point", "coordinates": [ 71.4997817, 33.9909689 ] } },
{ "type": "Feature", "properties": { "_id": "669684338", "pq_city": 1.0, "pq_ward": 109.0, "count_female": 0.0, "count_male": 0.0, "pq_c_daily_cus": null, "cluster_id": 9 }, "geometry": { "type": "Point", "coordinates": [ 71.4691088, 33.9999495 ] } },
{ "type": "Feature", "properties": { "_id": "669685435", "pq_city": 1.0, "pq_ward": 109.0, "count_female": 0.0, "count_male": 0.0, "pq_c_daily_cus": null, "cluster_id": 9 }, "geometry": { "type": "Point", "coordinates": [ 71.4692448, 34.000136 ] } },
{ "type": "Feature", "properties": { "_id": "669686294", "pq_city": 1.0, "pq_ward": 109.0, "count_female": 0.0, "count_male": 0.0, "pq_c_daily_cus": null, "cluster_id": 9 }, "geometry": { "type": "Point", "coordinates": [ 71.4690089, 34.0000236 ] } },
{ "type": "Feature", "properties": { "_id": "669686682", "pq_city": 1.0, "pq_ward": 109.0, "count_female": 0.0, "count_male": 0.0, "pq_c_daily_cus": null, "cluster_id": 9 }, "geometry": { "type": "Point", "coordinates": [ 71.4691793, 34.000089 ] } },
{ "type": "Feature", "properties": { "_id": "669687280", "pq_city": 1.0, "pq_ward": 109.0, "count_female": 0.0, "count_male": 3.0, "pq_c_daily_cus": 80.0, "cluster_id": 9 }, "geometry": { "type": "Point", "coordinates": [ 71.4688359, 34.0000157 ] } },
{ "type": "Feature", "properties": { "_id": "669691955", "pq_city": 1.0, "pq_ward": 109.0, "count_female": 0.0, "count_male": 4.0, "pq_c_daily_cus": 200.0, "cluster_id": 9 }, "geometry": { "type": "Point", "coordinates": [ 71.4619847, 34.0077941 ] } },
{ "type": "Feature", "properties": { "_id": "669692740", "pq_city": 1.0, "pq_ward": 103.0, "count_female": 0.0, "count_male": 0.0, "pq_c_daily_cus": null, "cluster_id": 1 }, "geometry": { "type": "Point", "coordinates": [ 71.4973691, 33.9874212 ] } },
{ "type": "Feature", "properties": { "_id": "669693007", "pq_city": 1.0, "pq_ward": 109.0, "count_female": 0.0, "count_male": 2.0, "pq_c_daily_cus": 35.0, "cluster_id": 9 }, "geometry": { "type": "Point", "coordinates": [ 71.4687223, 34.00067640000001 ] } },
{ "type": "Feature", "properties": { "_id": "669693173", "pq_city": 1.0, "pq_ward": 109.0, "count_female": 0.0, "count_male": 2.0, "pq_c_daily_cus": 25.0, "cluster_id": 9 }, "geometry": { "type": "Point", "coordinates": [ 71.4687369, 34.000793 ] } },
{ "type": "Feature", "properties": { "_id": "669693491", "pq_city": 1.0, "pq_ward": 109.0, "count_female": 0.0, "count_male": 3.0, "pq_c_daily_cus": 150.0, "cluster_id": 9 }, "geometry": { "type": "Point", "coordinates": [ 71.4687336, 34.001084 ] } },
{ "type": "Feature", "properties": { "_id": "669693524", "pq_city": 1.0, "pq_ward": 109.0, "count_female": 0.0, "count_male": 6.0, "pq_c_daily_cus": 200.0, "cluster_id": 9 }, "geometry": { "type": "Point", "coordinates": [ 71.462048, 34.00771180000001 ] } },
{ "type": "Feature", "properties": { "_id": "669693852", "pq_city": 1.0, "pq_ward": 109.0, "count_female": 1.0, "count_male": 2.0, "pq_c_daily_cus": 200.0, "cluster_id": 9 }, "geometry": { "type": "Point", "coordinates": [ 71.462167, 34.0076973 ] } },
{ "type": "Feature", "properties": { "_id": "669695108", "pq_city": 1.0, "pq_ward": 109.0, "count_female": 0.0, "count_male": 0.0, "pq_c_daily_cus": null, "cluster_id": 9 }, "geometry": { "type": "Point", "coordinates": [ 71.4679572, 34.0028869 ] } },
{ "type": "Feature", "properties": { "_id": "669695344", "pq_city": 1.0, "pq_ward": 103.0, "count_female": 0.0, "count_male": 0.0, "pq_c_daily_cus": null, "cluster_id": 1 }, "geometry": { "type": "Point", "coordinates": [ 71.5010338, 33.9815667 ] } },
{ "type": "Feature", "properties": { "_id": "669696000", "pq_city": 1.0, "pq_ward": 109.0, "count_female": 0.0, "count_male": 0.0, "pq_c_daily_cus": null, "cluster_id": 9 }, "geometry": { "type": "Point", "coordinates": [ 71.4678986, 34.0031944 ] } },
{ "type": "Feature", "properties": { "_id": "669696196", "pq_city": 1.0, "pq_ward": 109.0, "count_female": 0.0, "count_male": 0.0, "pq_c_daily_cus": null, "cluster_id": 9 }, "geometry": { "type": "Point", "coordinates": [ 71.462042, 34.0072549 ] } },
{ "type": "Feature", "properties": { "_id": "669696243", "pq_city": 1.0, "pq_ward": 103.0, "count_female": 0.0, "count_male": 0.0, "pq_c_daily_cus": null, "cluster_id": 1 }, "geometry": { "type": "Point", "coordinates": [ 71.5064276, 33.9790118 ] } },
{ "type": "Feature", "properties": { "_id": "669697296", "pq_city": 1.0, "pq_ward": 109.0, "count_female": 0.0, "count_male": 3.0, "pq_c_daily_cus": 100.0, "cluster_id": 9 }, "geometry": { "type": "Point", "coordinates": [ 71.4622213, 34.007316 ] } },
{ "type": "Feature", "properties": { "_id": "669697298", "pq_city": 1.0, "pq_ward": 109.0, "count_female": 0.0, "count_male": 3.0, "pq_c_daily_cus": 150.0, "cluster_id": 9 }, "geometry": { "type": "Point", "coordinates": [ 71.4621832, 34.0072256 ] } },
{ "type": "Feature", "properties": { "_id": "669697642", "pq_city": 1.0, "pq_ward": 102.0, "count_female": 0.0, "count_male": 0.0, "pq_c_daily_cus": null, "cluster_id": 4 }, "geometry": { "type": "Point", "coordinates": [ 71.4873166, 34.0260327 ] } },
{ "type": "Feature", "properties": { "_id": "669697960", "pq_city": 1.0, "pq_ward": 103.0, "count_female": 0.0, "count_male": 0.0, "pq_c_daily_cus": null, "cluster_id": 1 }, "geometry": { "type": "Point", "coordinates": [ 71.5126335, 33.9784386 ] } },
{ "type": "Feature", "properties": { "_id": "669698005", "pq_city": 1.0, "pq_ward": 106.0, "count_female": 0.0, "count_male": 1.0, "pq_c_daily_cus": 10.0, "cluster_id": 4 }, "geometry": { "type": "Point", "coordinates": [ 71.4933957, 34.0195996 ] } },
{ "type": "Feature", "properties": { "_id": "669698924", "pq_city": 1.0, "pq_ward": 102.0, "count_female": 0.0, "count_male": 3.0, "pq_c_daily_cus": 25.0, "cluster_id": 4 }, "geometry": { "type": "Point", "coordinates": [ 71.4869661, 34.0252232 ] } },
{ "type": "Feature", "properties": { "_id": "669700803", "pq_city": 1.0, "pq_ward": 102.0, "count_female": 0.0, "count_male": 0.0, "pq_c_daily_cus": null, "cluster_id": 4 }, "geometry": { "type": "Point", "coordinates": [ 71.4858344, 34.0232596 ] } },
{ "type": "Feature", "properties": { "_id": "669703202", "pq_city": 1.0, "pq_ward": 103.0, "count_female": 0.0, "count_male": 0.0, "pq_c_daily_cus": null, "cluster_id": 2 }, "geometry": { "type": "Point", "coordinates": [ 71.5046671, 33.9900581 ] } },
{ "type": "Feature", "properties": { "_id": "669703207", "pq_city": 1.0, "pq_ward": 103.0, "count_female": 0.0, "count_male": 0.0, "pq_c_daily_cus": null, "cluster_id": 2 }, "geometry": { "type": "Point", "coordinates": [ 71.5044995, 33.9899115 ] } },
{ "type": "Feature", "properties": { "_id": "669703274", "pq_city": 1.0, "pq_ward": 106.0, "count_female": 0.0, "count_male": 2.0, "pq_c_daily_cus": 25.0, "cluster_id": 7 }, "geometry": { "type": "Point", "coordinates": [ 71.4960461, 34.0166426 ] } },
{ "type": "Feature", "properties": { "_id": "669705235", "pq_city": 1.0, "pq_ward": 103.0, "count_female": 0.0, "count_male": 1.0, "pq_c_daily_cus": 15.0, "cluster_id": 2 }, "geometry": { "type": "Point", "coordinates": [ 71.5063929, 33.994921699999985 ] } },
{ "type": "Feature", "properties": { "_id": "669709209", "pq_city": 1.0, "pq_ward": 109.0, "count_female": 0.0, "count_male": 0.0, "pq_c_daily_cus": null, "cluster_id": 9 }, "geometry": { "type": "Point", "coordinates": [ 71.4691926, 34.0062277 ] } },
{ "type": "Feature", "properties": { "_id": "669711439", "pq_city": 1.0, "pq_ward": 109.0, "count_female": 0.0, "count_male": 0.0, "pq_c_daily_cus": null, "cluster_id": 9 }, "geometry": { "type": "Point", "coordinates": [ 71.4729297, 34.0065132 ] } },
{ "type": "Feature", "properties": { "_id": "669714342", "pq_city": 1.0, "pq_ward": 110.0, "count_female": 0.0, "count_male": 0.0, "pq_c_daily_cus": null, "cluster_id": 7 }, "geometry": { "type": "Point", "coordinates": [ 71.5112451, 34.008502 ] } },
{ "type": "Feature", "properties": { "_id": "669717638", "pq_city": 1.0, "pq_ward": 103.0, "count_female": 0.0, "count_male": 2.0, "pq_c_daily_cus": 30.0, "cluster_id": 2 }, "geometry": { "type": "Point", "coordinates": [ 71.504735, 33.9951078 ] } },
{ "type": "Feature", "properties": { "_id": "669719491", "pq_city": 1.0, "pq_ward": 103.0, "count_female": 0.0, "count_male": 0.0, "pq_c_daily_cus": null, "cluster_id": 2 }, "geometry": { "type": "Point", "coordinates": [ 71.5039617, 33.9944788 ] } },
{ "type": "Feature", "properties": { "_id": "669719495", "pq_city": 1.0, "pq_ward": 103.0, "count_female": 0.0, "count_male": 0.0, "pq_c_daily_cus": null, "cluster_id": 2 }, "geometry": { "type": "Point", "coordinates": [ 71.5040221, 33.9946694 ] } },
{ "type": "Feature", "properties": { "_id": "669722615", "pq_city": 1.0, "pq_ward": 110.0, "count_female": 0.0, "count_male": 0.0, "pq_c_daily_cus": null, "cluster_id": 7 }, "geometry": { "type": "Point", "coordinates": [ 71.5046443, 34.011282 ] } },
{ "type": "Feature", "properties": { "_id": "669723511", "pq_city": 1.0, "pq_ward": 103.0, "count_female": 0.0, "count_male": 0.0, "pq_c_daily_cus": null, "cluster_id": 1 }, "geometry": { "type": "Point", "coordinates": [ 71.503596, 33.9874886 ] } },
{ "type": "Feature", "properties": { "_id": "669725995", "pq_city": 1.0, "pq_ward": 106.0, "count_female": 0.0, "count_male": 0.0, "pq_c_daily_cus": null, "cluster_id": 7 }, "geometry": { "type": "Point", "coordinates": [ 71.5023103, 34.0108204 ] } },
{ "type": "Feature", "properties": { "_id": "669728382", "pq_city": 1.0, "pq_ward": 110.0, "count_female": 0.0, "count_male": 4.0, "pq_c_daily_cus": 60.0, "cluster_id": 7 }, "geometry": { "type": "Point", "coordinates": [ 71.5026323, 34.0090843 ] } },
{ "type": "Feature", "properties": { "_id": "669735305", "pq_city": 1.0, "pq_ward": 109.0, "count_female": 0.0, "count_male": 0.0, "pq_c_daily_cus": null, "cluster_id": 9 }, "geometry": { "type": "Point", "coordinates": [ 71.4726432, 34.003948 ] } },
{ "type": "Feature", "properties": { "_id": "669745722", "pq_city": 1.0, "pq_ward": 109.0, "count_female": 0.0, "count_male": 0.0, "pq_c_daily_cus": null, "cluster_id": 5 }, "geometry": { "type": "Point", "coordinates": [ 71.4458407, 34.005571 ] } },
{ "type": "Feature", "properties": { "_id": "669765661", "pq_city": 1.0, "pq_ward": 109.0, "count_female": 0.0, "count_male": 0.0, "pq_c_daily_cus": null, "cluster_id": 5 }, "geometry": { "type": "Point", "coordinates": [ 71.4242358, 34.0021473 ] } },
{ "type": "Feature", "properties": { "_id": "669773332", "pq_city": 1.0, "pq_ward": 109.0, "count_female": 0.0, "count_male": 0.0, "pq_c_daily_cus": null, "cluster_id": 5 }, "geometry": { "type": "Point", "coordinates": [ 71.4288516, 34.0044879 ] } },
{ "type": "Feature", "properties": { "_id": "669790234", "pq_city": 1.0, "pq_ward": 109.0, "count_female": 0.0, "count_male": 0.0, "pq_c_daily_cus": null, "cluster_id": 5 }, "geometry": { "type": "Point", "coordinates": [ 71.4289592, 34.0110115 ] } },
{ "type": "Feature", "properties": { "_id": "672736155", "pq_city": 1.0, "pq_ward": 109.0, "count_female": 0.0, "count_male": 0.0, "pq_c_daily_cus": null, "cluster_id": 5 }, "geometry": { "type": "Point", "coordinates": [ 71.4148155, 33.999118 ] } },
{ "type": "Feature", "properties": { "_id": "672736889", "pq_city": 1.0, "pq_ward": 109.0, "count_female": 0.0, "count_male": 0.0, "pq_c_daily_cus": null, "cluster_id": 5 }, "geometry": { "type": "Point", "coordinates": [ 71.4095335, 33.9993081 ] } },
{ "type": "Feature", "properties": { "_id": "672742992", "pq_city": 1.0, "pq_ward": 101.0, "count_female": 0.0, "count_male": 7.0, "pq_c_daily_cus": 250.0, "cluster_id": 3 }, "geometry": { "type": "Point", "coordinates": [ 71.5389098, 34.0192938 ] } },
{ "type": "Feature", "properties": { "_id": "672743289", "pq_city": 1.0, "pq_ward": 107.0, "count_female": 0.0, "count_male": 2.0, "pq_c_daily_cus": 100.0, "cluster_id": 7 }, "geometry": { "type": "Point", "coordinates": [ 71.5184298, 34.0094512 ] } },
{ "type": "Feature", "properties": { "_id": "672743457", "pq_city": 1.0, "pq_ward": 101.0, "count_female": 0.0, "count_male": 6.0, "pq_c_daily_cus": 100.0, "cluster_id": 3 }, "geometry": { "type": "Point", "coordinates": [ 71.5385294, 34.0200795 ] } },
{ "type": "Feature", "properties": { "_id": "672743490", "pq_city": 1.0, "pq_ward": 109.0, "count_female": 0.0, "count_male": 3.0, "pq_c_daily_cus": 50.0, "cluster_id": 5 }, "geometry": { "type": "Point", "coordinates": [ 71.4233438, 33.9978877 ] } },
{ "type": "Feature", "properties": { "_id": "672743538", "pq_city": 1.0, "pq_ward": 101.0, "count_female": 0.0, "count_male": 2.0, "pq_c_daily_cus": 15.0, "cluster_id": 3 }, "geometry": { "type": "Point", "coordinates": [ 71.5385865, 34.0199951 ] } },
{ "type": "Feature", "properties": { "_id": "672743777", "pq_city": 1.0, "pq_ward": 109.0, "count_female": 0.0, "count_male": 4.0, "pq_c_daily_cus": 150.0, "cluster_id": 5 }, "geometry": { "type": "Point", "coordinates": [ 71.4233111, 33.99806 ] } },
{ "type": "Feature", "properties": { "_id": "672744021", "pq_city": 1.0, "pq_ward": 101.0, "count_female": 0.0, "count_male": 5.0, "pq_c_daily_cus": 60.0, "cluster_id": 3 }, "geometry": { "type": "Point", "coordinates": [ 71.5388969, 34.020460800000016 ] } },
{ "type": "Feature", "properties": { "_id": "672744195", "pq_city": 1.0, "pq_ward": 109.0, "count_female": 0.0, "count_male": 0.0, "pq_c_daily_cus": null, "cluster_id": 5 }, "geometry": { "type": "Point", "coordinates": [ 71.4236585, 33.9979353 ] } },
{ "type": "Feature", "properties": { "_id": "672744449", "pq_city": 1.0, "pq_ward": 107.0, "count_female": 0.0, "count_male": 0.0, "pq_c_daily_cus": null, "cluster_id": 7 }, "geometry": { "type": "Point", "coordinates": [ 71.517004, 34.0103814 ] } },
{ "type": "Feature", "properties": { "_id": "672744866", "pq_city": 1.0, "pq_ward": 109.0, "count_female": 0.0, "count_male": 0.0, "pq_c_daily_cus": null, "cluster_id": 5 }, "geometry": { "type": "Point", "coordinates": [ 71.4234966, 33.9981788 ] } },
{ "type": "Feature", "properties": { "_id": "672745951", "pq_city": 1.0, "pq_ward": 107.0, "count_female": 0.0, "count_male": 1.0, "pq_c_daily_cus": 200.0, "cluster_id": 7 }, "geometry": { "type": "Point", "coordinates": [ 71.5130215, 34.0132566 ] } },
{ "type": "Feature", "properties": { "_id": "672746402", "pq_city": 1.0, "pq_ward": 107.0, "count_female": 0.0, "count_male": 2.0, "pq_c_daily_cus": 70.0, "cluster_id": 7 }, "geometry": { "type": "Point", "coordinates": [ 71.5130609, 34.0132846 ] } },
{ "type": "Feature", "properties": { "_id": "672748676", "pq_city": 1.0, "pq_ward": 107.0, "count_female": 0.0, "count_male": 0.0, "pq_c_daily_cus": null, "cluster_id": 7 }, "geometry": { "type": "Point", "coordinates": [ 71.5126466, 34.013404 ] } },
{ "type": "Feature", "properties": { "_id": "672748698", "pq_city": 1.0, "pq_ward": 107.0, "count_female": 0.0, "count_male": 0.0, "pq_c_daily_cus": null, "cluster_id": 3 }, "geometry": { "type": "Point", "coordinates": [ 71.5314355, 34.0229452 ] } },
{ "type": "Feature", "properties": { "_id": "672750296", "pq_city": 1.0, "pq_ward": 107.0, "count_female": 0.0, "count_male": 0.0, "pq_c_daily_cus": null, "cluster_id": 3 }, "geometry": { "type": "Point", "coordinates": [ 71.5272181, 34.024469 ] } },
{ "type": "Feature", "properties": { "_id": "672751710", "pq_city": 1.0, "pq_ward": 107.0, "count_female": 0.0, "count_male": 0.0, "pq_c_daily_cus": null, "cluster_id": 7 }, "geometry": { "type": "Point", "coordinates": [ 71.5132918, 34.021918699999986 ] } },
{ "type": "Feature", "properties": { "_id": "672753318", "pq_city": 1.0, "pq_ward": 107.0, "count_female": 0.0, "count_male": 0.0, "pq_c_daily_cus": null, "cluster_id": 3 }, "geometry": { "type": "Point", "coordinates": [ 71.5318612, 34.0175725 ] } },
{ "type": "Feature", "properties": { "_id": "672756175", "pq_city": 1.0, "pq_ward": 107.0, "count_female": 0.0, "count_male": 0.0, "pq_c_daily_cus": null, "cluster_id": 3 }, "geometry": { "type": "Point", "coordinates": [ 71.5181476, 34.0235141 ] } },
{ "type": "Feature", "properties": { "_id": "672756943", "pq_city": 1.0, "pq_ward": 107.0, "count_female": 0.0, "count_male": 2.0, "pq_c_daily_cus": 20.0, "cluster_id": 3 }, "geometry": { "type": "Point", "coordinates": [ 71.5343623, 34.0163225 ] } },
{ "type": "Feature", "properties": { "_id": "672757046", "pq_city": 1.0, "pq_ward": 107.0, "count_female": 0.0, "count_male": 0.0, "pq_c_daily_cus": null, "cluster_id": 3 }, "geometry": { "type": "Point", "coordinates": [ 71.5199215, 34.0241871 ] } },
{ "type": "Feature", "properties": { "_id": "672763542", "pq_city": 1.0, "pq_ward": 107.0, "count_female": 0.0, "count_male": 0.0, "pq_c_daily_cus": null, "cluster_id": 3 }, "geometry": { "type": "Point", "coordinates": [ 71.5317985, 34.0174468 ] } },
{ "type": "Feature", "properties": { "_id": "672769933", "pq_city": 1.0, "pq_ward": 107.0, "count_female": 0.0, "count_male": 0.0, "pq_c_daily_cus": null, "cluster_id": 7 }, "geometry": { "type": "Point", "coordinates": [ 71.5224862, 34.0138787 ] } },
{ "type": "Feature", "properties": { "_id": "672771208", "pq_city": 1.0, "pq_ward": 107.0, "count_female": 0.0, "count_male": 0.0, "pq_c_daily_cus": null, "cluster_id": 7 }, "geometry": { "type": "Point", "coordinates": [ 71.520789, 34.0122865 ] } },
{ "type": "Feature", "properties": { "_id": "672778831", "pq_city": 1.0, "pq_ward": 107.0, "count_female": 0.0, "count_male": 0.0, "pq_c_daily_cus": null, "cluster_id": 7 }, "geometry": { "type": "Point", "coordinates": [ 71.5191529, 34.0089284 ] } },
{ "type": "Feature", "properties": { "_id": "672779510", "pq_city": 1.0, "pq_ward": 107.0, "count_female": 0.0, "count_male": 2.0, "pq_c_daily_cus": 200.0, "cluster_id": 7 }, "geometry": { "type": "Point", "coordinates": [ 71.5192681, 34.0091105 ] } },
{ "type": "Feature", "properties": { "_id": "672780934", "pq_city": 1.0, "pq_ward": 107.0, "count_female": 0.0, "count_male": 3.0, "pq_c_daily_cus": 80.0, "cluster_id": 7 }, "geometry": { "type": "Point", "coordinates": [ 71.5197207, 34.0096867 ] } },
{ "type": "Feature", "properties": { "_id": "672781136", "pq_city": 1.0, "pq_ward": 107.0, "count_female": 0.0, "count_male": 0.0, "pq_c_daily_cus": null, "cluster_id": 7 }, "geometry": { "type": "Point", "coordinates": [ 71.5197722, 34.0097185 ] } },
{ "type": "Feature", "properties": { "_id": "672787436", "pq_city": 1.0, "pq_ward": 107.0, "count_female": 0.0, "count_male": 0.0, "pq_c_daily_cus": null, "cluster_id": 7 }, "geometry": { "type": "Point", "coordinates": [ 71.523586, 34.0124971 ] } },
{ "type": "Feature", "properties": { "_id": "672796110", "pq_city": 1.0, "pq_ward": 105.0, "count_female": 0.0, "count_male": 0.0, "pq_c_daily_cus": null, "cluster_id": 9 }, "geometry": { "type": "Point", "coordinates": [ 71.4651559, 33.9930686 ] } },
{ "type": "Feature", "properties": { "_id": "672823227", "pq_city": 1.0, "pq_ward": 105.0, "count_female": 0.0, "count_male": 0.0, "pq_c_daily_cus": null, "cluster_id": 9 }, "geometry": { "type": "Point", "coordinates": [ 71.4657167, 33.9903167 ] } },
{ "type": "Feature", "properties": { "_id": "672823739", "pq_city": 1.0, "pq_ward": 105.0, "count_female": 0.0, "count_male": 0.0, "pq_c_daily_cus": null, "cluster_id": 9 }, "geometry": { "type": "Point", "coordinates": [ 71.4651683, 33.9896733 ] } },
{ "type": "Feature", "properties": { "_id": "672824395", "pq_city": 1.0, "pq_ward": 105.0, "count_female": 0.0, "count_male": 0.0, "pq_c_daily_cus": null, "cluster_id": 9 }, "geometry": { "type": "Point", "coordinates": [ 71.4637917, 33.990205 ] } },
{ "type": "Feature", "properties": { "_id": "673034400", "pq_city": 1.0, "pq_ward": 102.0, "count_female": 0.0, "count_male": 0.0, "pq_c_daily_cus": null, "cluster_id": 4 }, "geometry": { "type": "Point", "coordinates": [ 71.4816286, 34.0334626 ] } },
{ "type": "Feature", "properties": { "_id": "673034935", "pq_city": 1.0, "pq_ward": 102.0, "count_female": 0.0, "count_male": 0.0, "pq_c_daily_cus": null, "cluster_id": 4 }, "geometry": { "type": "Point", "coordinates": [ 71.4817117, 34.0333418 ] } },
{ "type": "Feature", "properties": { "_id": "673037172", "pq_city": 1.0, "pq_ward": 102.0, "count_female": 0.0, "count_male": 0.0, "pq_c_daily_cus": null, "cluster_id": 4 }, "geometry": { "type": "Point", "coordinates": [ 71.487295, 34.0264183 ] } },
{ "type": "Feature", "properties": { "_id": "673038296", "pq_city": 1.0, "pq_ward": 102.0, "count_female": 0.0, "count_male": 2.0, "pq_c_daily_cus": 60.0, "cluster_id": 4 }, "geometry": { "type": "Point", "coordinates": [ 71.488609, 34.0277585 ] } },
{ "type": "Feature", "properties": { "_id": "673040640", "pq_city": 1.0, "pq_ward": 102.0, "count_female": 0.0, "count_male": 0.0, "pq_c_daily_cus": null, "cluster_id": 4 }, "geometry": { "type": "Point", "coordinates": [ 71.485365, 34.030215 ] } },
{ "type": "Feature", "properties": { "_id": "673042285", "pq_city": 1.0, "pq_ward": 107.0, "count_female": 0.0, "count_male": 3.0, "pq_c_daily_cus": 100.0, "cluster_id": 7 }, "geometry": { "type": "Point", "coordinates": [ 71.5204424, 34.0084777 ] } },
{ "type": "Feature", "properties": { "_id": "673042400", "pq_city": 1.0, "pq_ward": 107.0, "count_female": 0.0, "count_male": 5.0, "pq_c_daily_cus": 300.0, "cluster_id": 7 }, "geometry": { "type": "Point", "coordinates": [ 71.5209876, 34.0084759 ] } },
{ "type": "Feature", "properties": { "_id": "673044216", "pq_city": 1.0, "pq_ward": 102.0, "count_female": 0.0, "count_male": 0.0, "pq_c_daily_cus": null, "cluster_id": 4 }, "geometry": { "type": "Point", "coordinates": [ 71.4838617, 34.0429017 ] } },
{ "type": "Feature", "properties": { "_id": "673048318", "pq_city": 1.0, "pq_ward": 102.0, "count_female": 0.0, "count_male": 0.0, "pq_c_daily_cus": null, "cluster_id": 4 }, "geometry": { "type": "Point", "coordinates": [ 71.4873467, 34.0394567 ] } },
{ "type": "Feature", "properties": { "_id": "673048818", "pq_city": 1.0, "pq_ward": 107.0, "count_female": 0.0, "count_male": 0.0, "pq_c_daily_cus": null, "cluster_id": 7 }, "geometry": { "type": "Point", "coordinates": [ 71.5209562, 34.0087899 ] } },
{ "type": "Feature", "properties": { "_id": "673050102", "pq_city": 1.0, "pq_ward": 107.0, "count_female": 0.0, "count_male": 0.0, "pq_c_daily_cus": null, "cluster_id": 7 }, "geometry": { "type": "Point", "coordinates": [ 71.5203373, 34.0090175 ] } },
{ "type": "Feature", "properties": { "_id": "673050594", "pq_city": 1.0, "pq_ward": 102.0, "count_female": 0.0, "count_male": 0.0, "pq_c_daily_cus": null, "cluster_id": 4 }, "geometry": { "type": "Point", "coordinates": [ 71.4898117, 34.0404867 ] } },
{ "type": "Feature", "properties": { "_id": "673051752", "pq_city": 1.0, "pq_ward": 102.0, "count_female": 0.0, "count_male": 0.0, "pq_c_daily_cus": null, "cluster_id": 4 }, "geometry": { "type": "Point", "coordinates": [ 71.4922059, 34.041801799999988 ] } },
{ "type": "Feature", "properties": { "_id": "673056150", "pq_city": 1.0, "pq_ward": 107.0, "count_female": 0.0, "count_male": 0.0, "pq_c_daily_cus": null, "cluster_id": 3 }, "geometry": { "type": "Point", "coordinates": [ 71.5182511, 34.0254664 ] } },
{ "type": "Feature", "properties": { "_id": "673060646", "pq_city": 1.0, "pq_ward": 102.0, "count_female": 0.0, "count_male": 0.0, "pq_c_daily_cus": null, "cluster_id": 4 }, "geometry": { "type": "Point", "coordinates": [ 71.4881123, 34.0359576 ] } },
{ "type": "Feature", "properties": { "_id": "673061452", "pq_city": 1.0, "pq_ward": 102.0, "count_female": 0.0, "count_male": 0.0, "pq_c_daily_cus": null, "cluster_id": 4 }, "geometry": { "type": "Point", "coordinates": [ 71.4872285, 34.0349234 ] } },
{ "type": "Feature", "properties": { "_id": "673074847", "pq_city": 1.0, "pq_ward": 108.0, "count_female": 0.0, "count_male": 0.0, "pq_c_daily_cus": null, "cluster_id": 7 }, "geometry": { "type": "Point", "coordinates": [ 71.5109387, 34.0238591 ] } },
{ "type": "Feature", "properties": { "_id": "673088488", "pq_city": 1.0, "pq_ward": 107.0, "count_female": 0.0, "count_male": 2.0, "pq_c_daily_cus": 150.0, "cluster_id": 7 }, "geometry": { "type": "Point", "coordinates": [ 71.5131056, 34.0133366 ] } },
{ "type": "Feature", "properties": { "_id": "673095775", "pq_city": 1.0, "pq_ward": 107.0, "count_female": 0.0, "count_male": 3.0, "pq_c_daily_cus": 50.0, "cluster_id": 7 }, "geometry": { "type": "Point", "coordinates": [ 71.5188424, 34.009242099999987 ] } },
{ "type": "Feature", "properties": { "_id": "673380273", "pq_city": 1.0, "pq_ward": 102.0, "count_female": 0.0, "count_male": 4.0, "pq_c_daily_cus": 25.0, "cluster_id": 4 }, "geometry": { "type": "Point", "coordinates": [ 71.4887517, 34.0280922 ] } },
{ "type": "Feature", "properties": { "_id": "673386392", "pq_city": 1.0, "pq_ward": 107.0, "count_female": 0.0, "count_male": 0.0, "pq_c_daily_cus": null, "cluster_id": 7 }, "geometry": { "type": "Point", "coordinates": [ 71.5028326, 34.0158955 ] } },
{ "type": "Feature", "properties": { "_id": "673386861", "pq_city": 1.0, "pq_ward": 108.0, "count_female": 0.0, "count_male": 0.0, "pq_c_daily_cus": null, "cluster_id": 7 }, "geometry": { "type": "Point", "coordinates": [ 71.5023452, 34.014394 ] } },
{ "type": "Feature", "properties": { "_id": "673387209", "pq_city": 1.0, "pq_ward": 107.0, "count_female": 0.0, "count_male": 0.0, "pq_c_daily_cus": null, "cluster_id": 7 }, "geometry": { "type": "Point", "coordinates": [ 71.5021043, 34.0142737 ] } },
{ "type": "Feature", "properties": { "_id": "673389288", "pq_city": 1.0, "pq_ward": 102.0, "count_female": 0.0, "count_male": 0.0, "pq_c_daily_cus": null, "cluster_id": 7 }, "geometry": { "type": "Point", "coordinates": [ 71.5094437, 34.0262666 ] } },
{ "type": "Feature", "properties": { "_id": "673392258", "pq_city": 1.0, "pq_ward": 102.0, "count_female": 0.0, "count_male": 0.0, "pq_c_daily_cus": null, "cluster_id": 7 }, "geometry": { "type": "Point", "coordinates": [ 71.5076612, 34.0229955 ] } },
{ "type": "Feature", "properties": { "_id": "673392792", "pq_city": 1.0, "pq_ward": 106.0, "count_female": 0.0, "count_male": 0.0, "pq_c_daily_cus": null, "cluster_id": 7 }, "geometry": { "type": "Point", "coordinates": [ 71.5003699, 34.0108724 ] } },
{ "type": "Feature", "properties": { "_id": "673392858", "pq_city": 1.0, "pq_ward": 107.0, "count_female": 0.0, "count_male": 0.0, "pq_c_daily_cus": null, "cluster_id": 7 }, "geometry": { "type": "Point", "coordinates": [ 71.502324, 34.010849599999986 ] } },
{ "type": "Feature", "properties": { "_id": "673398368", "pq_city": 1.0, "pq_ward": 107.0, "count_female": 0.0, "count_male": 0.0, "pq_c_daily_cus": null, "cluster_id": 7 }, "geometry": { "type": "Point", "coordinates": [ 71.5021294, 34.0142207 ] } },
{ "type": "Feature", "properties": { "_id": "673399529", "pq_city": 1.0, "pq_ward": 105.0, "count_female": 0.0, "count_male": 0.0, "pq_c_daily_cus": null, "cluster_id": 2 }, "geometry": { "type": "Point", "coordinates": [ 71.4839599, 33.9912122 ] } },
{ "type": "Feature", "properties": { "_id": "673400223", "pq_city": 1.0, "pq_ward": 105.0, "count_female": 0.0, "count_male": 0.0, "pq_c_daily_cus": null, "cluster_id": 1 }, "geometry": { "type": "Point", "coordinates": [ 71.4907609, 33.978520499999988 ] } },
{ "type": "Feature", "properties": { "_id": "673400927", "pq_city": 1.0, "pq_ward": 105.0, "count_female": 0.0, "count_male": 5.0, "pq_c_daily_cus": 150.0, "cluster_id": 1 }, "geometry": { "type": "Point", "coordinates": [ 71.4999434, 33.9828282 ] } },
{ "type": "Feature", "properties": { "_id": "673401529", "pq_city": 1.0, "pq_ward": 107.0, "count_female": 0.0, "count_male": 0.0, "pq_c_daily_cus": null, "cluster_id": 4 }, "geometry": { "type": "Point", "coordinates": [ 71.4963988, 34.0197324 ] } },
{ "type": "Feature", "properties": { "_id": "673401995", "pq_city": 1.0, "pq_ward": 105.0, "count_female": 0.0, "count_male": 0.0, "pq_c_daily_cus": null, "cluster_id": 1 }, "geometry": { "type": "Point", "coordinates": [ 71.4735124, 33.975328 ] } },
{ "type": "Feature", "properties": { "_id": "673403693", "pq_city": 1.0, "pq_ward": 105.0, "count_female": 0.0, "count_male": 0.0, "pq_c_daily_cus": null, "cluster_id": 2 }, "geometry": { "type": "Point", "coordinates": [ 71.4841606, 33.9914797 ] } },
{ "type": "Feature", "properties": { "_id": "673404904", "pq_city": 1.0, "pq_ward": 105.0, "count_female": 0.0, "count_male": 0.0, "pq_c_daily_cus": null, "cluster_id": 1 }, "geometry": { "type": "Point", "coordinates": [ 71.5056957, 33.9775201 ] } },
{ "type": "Feature", "properties": { "_id": "673405869", "pq_city": 1.0, "pq_ward": 105.0, "count_female": 0.0, "count_male": 0.0, "pq_c_daily_cus": null, "cluster_id": 2 }, "geometry": { "type": "Point", "coordinates": [ 71.4849903, 33.98888310000001 ] } },
{ "type": "Feature", "properties": { "_id": "673407504", "pq_city": 1.0, "pq_ward": 105.0, "count_female": 0.0, "count_male": 0.0, "pq_c_daily_cus": null, "cluster_id": 1 }, "geometry": { "type": "Point", "coordinates": [ 71.4762429, 33.9745154 ] } },
{ "type": "Feature", "properties": { "_id": "673408110", "pq_city": 1.0, "pq_ward": 105.0, "count_female": 0.0, "count_male": 0.0, "pq_c_daily_cus": null, "cluster_id": 1 }, "geometry": { "type": "Point", "coordinates": [ 71.5068758, 33.9726815 ] } },
{ "type": "Feature", "properties": { "_id": "673408277", "pq_city": 1.0, "pq_ward": 102.0, "count_female": 0.0, "count_male": 0.0, "pq_c_daily_cus": null, "cluster_id": 4 }, "geometry": { "type": "Point", "coordinates": [ 71.4875453, 34.0264499 ] } },
{ "type": "Feature", "properties": { "_id": "673408446", "pq_city": 1.0, "pq_ward": 105.0, "count_female": 0.0, "count_male": 0.0, "pq_c_daily_cus": null, "cluster_id": 1 }, "geometry": { "type": "Point", "coordinates": [ 71.5070135, 33.972579 ] } },
{ "type": "Feature", "properties": { "_id": "673410991", "pq_city": 1.0, "pq_ward": 102.0, "count_female": 0.0, "count_male": 0.0, "pq_c_daily_cus": null, "cluster_id": 4 }, "geometry": { "type": "Point", "coordinates": [ 71.4872132, 34.0257095 ] } },
{ "type": "Feature", "properties": { "_id": "673562778", "pq_city": 1.0, "pq_ward": 109.0, "count_female": 0.0, "count_male": 0.0, "pq_c_daily_cus": null, "cluster_id": 5 }, "geometry": { "type": "Point", "coordinates": [ 71.4302796, 33.9997114 ] } },
{ "type": "Feature", "properties": { "_id": "673796913", "pq_city": 1.0, "pq_ward": 105.0, "count_female": 0.0, "count_male": 0.0, "pq_c_daily_cus": null, "cluster_id": 2 }, "geometry": { "type": "Point", "coordinates": [ 71.4924192, 33.9883922 ] } },
{ "type": "Feature", "properties": { "_id": "673797653", "pq_city": 1.0, "pq_ward": 105.0, "count_female": 0.0, "count_male": 0.0, "pq_c_daily_cus": null, "cluster_id": 2 }, "geometry": { "type": "Point", "coordinates": [ 71.4922739, 33.9882393 ] } },
{ "type": "Feature", "properties": { "_id": "673798550", "pq_city": 1.0, "pq_ward": 105.0, "count_female": 0.0, "count_male": 0.0, "pq_c_daily_cus": null, "cluster_id": 9 }, "geometry": { "type": "Point", "coordinates": [ 71.4784057, 33.993427 ] } },
{ "type": "Feature", "properties": { "_id": "673799298", "pq_city": 1.0, "pq_ward": 105.0, "count_female": 0.0, "count_male": 0.0, "pq_c_daily_cus": null, "cluster_id": 1 }, "geometry": { "type": "Point", "coordinates": [ 71.5143767, 33.9756382 ] } },
{ "type": "Feature", "properties": { "_id": "673800713", "pq_city": 1.0, "pq_ward": 105.0, "count_female": 0.0, "count_male": 0.0, "pq_c_daily_cus": null, "cluster_id": 9 }, "geometry": { "type": "Point", "coordinates": [ 71.4784612, 33.9933867 ] } },
{ "type": "Feature", "properties": { "_id": "673802147", "pq_city": 1.0, "pq_ward": 105.0, "count_female": 0.0, "count_male": 0.0, "pq_c_daily_cus": null, "cluster_id": 1 }, "geometry": { "type": "Point", "coordinates": [ 71.514817, 33.974586 ] } },
{ "type": "Feature", "properties": { "_id": "673803021", "pq_city": 1.0, "pq_ward": 105.0, "count_female": 0.0, "count_male": 0.0, "pq_c_daily_cus": null, "cluster_id": 1 }, "geometry": { "type": "Point", "coordinates": [ 71.5147628, 33.975808 ] } },
{ "type": "Feature", "properties": { "_id": "673803748", "pq_city": 1.0, "pq_ward": 105.0, "count_female": 0.0, "count_male": 0.0, "pq_c_daily_cus": null, "cluster_id": 9 }, "geometry": { "type": "Point", "coordinates": [ 71.4772232, 33.9925928 ] } },
{ "type": "Feature", "properties": { "_id": "673804833", "pq_city": 1.0, "pq_ward": 105.0, "count_female": 0.0, "count_male": 0.0, "pq_c_daily_cus": null, "cluster_id": 9 }, "geometry": { "type": "Point", "coordinates": [ 71.4772189, 33.9901717 ] } },
{ "type": "Feature", "properties": { "_id": "673805464", "pq_city": 1.0, "pq_ward": 105.0, "count_female": 0.0, "count_male": 0.0, "pq_c_daily_cus": null, "cluster_id": 9 }, "geometry": { "type": "Point", "coordinates": [ 71.4772267, 33.9931279 ] } },
{ "type": "Feature", "properties": { "_id": "673806070", "pq_city": 1.0, "pq_ward": 105.0, "count_female": 0.0, "count_male": 0.0, "pq_c_daily_cus": null, "cluster_id": 9 }, "geometry": { "type": "Point", "coordinates": [ 71.476706, 33.9843449 ] } },
{ "type": "Feature", "properties": { "_id": "673806807", "pq_city": 1.0, "pq_ward": 105.0, "count_female": 0.0, "count_male": 0.0, "pq_c_daily_cus": null, "cluster_id": 1 }, "geometry": { "type": "Point", "coordinates": [ 71.4793208, 33.9824128 ] } },
{ "type": "Feature", "properties": { "_id": "673807434", "pq_city": 1.0, "pq_ward": 105.0, "count_female": 0.0, "count_male": 0.0, "pq_c_daily_cus": null, "cluster_id": 9 }, "geometry": { "type": "Point", "coordinates": [ 71.4746336, 33.9857944 ] } },
{ "type": "Feature", "properties": { "_id": "673807959", "pq_city": 1.0, "pq_ward": 105.0, "count_female": 0.0, "count_male": 0.0, "pq_c_daily_cus": null, "cluster_id": 1 }, "geometry": { "type": "Point", "coordinates": [ 71.4774394, 33.9803438 ] } },
{ "type": "Feature", "properties": { "_id": "673809025", "pq_city": 1.0, "pq_ward": 105.0, "count_female": 0.0, "count_male": 0.0, "pq_c_daily_cus": null, "cluster_id": 1 }, "geometry": { "type": "Point", "coordinates": [ 71.4765523, 33.9791171 ] } },
{ "type": "Feature", "properties": { "_id": "673809715", "pq_city": 1.0, "pq_ward": 105.0, "count_female": 0.0, "count_male": 0.0, "pq_c_daily_cus": null, "cluster_id": 1 }, "geometry": { "type": "Point", "coordinates": [ 71.4765482, 33.9792633 ] } },
{ "type": "Feature", "properties": { "_id": "673813711", "pq_city": 1.0, "pq_ward": 105.0, "count_female": 0.0, "count_male": 0.0, "pq_c_daily_cus": null, "cluster_id": 9 }, "geometry": { "type": "Point", "coordinates": [ 71.471282700000017, 33.9924115 ] } },
{ "type": "Feature", "properties": { "_id": "673814244", "pq_city": 1.0, "pq_ward": 105.0, "count_female": 0.0, "count_male": 0.0, "pq_c_daily_cus": null, "cluster_id": 9 }, "geometry": { "type": "Point", "coordinates": [ 71.4772497, 33.9922128 ] } },
{ "type": "Feature", "properties": { "_id": "673814986", "pq_city": 1.0, "pq_ward": 105.0, "count_female": 0.0, "count_male": 1.0, "pq_c_daily_cus": 30.0, "cluster_id": 9 }, "geometry": { "type": "Point", "coordinates": [ 71.4690633, 33.9919713 ] } },
{ "type": "Feature", "properties": { "_id": "674546981", "pq_city": 1.0, "pq_ward": 104.0, "count_female": 0.0, "count_male": 0.0, "pq_c_daily_cus": null, "cluster_id": 6 }, "geometry": { "type": "Point", "coordinates": [ 71.4806961, 34.0485032 ] } },
{ "type": "Feature", "properties": { "_id": "674549014", "pq_city": 1.0, "pq_ward": 104.0, "count_female": 0.0, "count_male": 0.0, "pq_c_daily_cus": null, "cluster_id": 6 }, "geometry": { "type": "Point", "coordinates": [ 71.4856771, 34.0533977 ] } },
{ "type": "Feature", "properties": { "_id": "674549493", "pq_city": 1.0, "pq_ward": 104.0, "count_female": 0.0, "count_male": 0.0, "pq_c_daily_cus": null, "cluster_id": 6 }, "geometry": { "type": "Point", "coordinates": [ 71.4822098, 34.0495094 ] } },
{ "type": "Feature", "properties": { "_id": "674566902", "pq_city": 1.0, "pq_ward": 104.0, "count_female": 0.0, "count_male": 0.0, "pq_c_daily_cus": null, "cluster_id": 6 }, "geometry": { "type": "Point", "coordinates": [ 71.4438398, 34.03673 ] } },
{ "type": "Feature", "properties": { "_id": "674567148", "pq_city": 1.0, "pq_ward": 104.0, "count_female": 0.0, "count_male": 0.0, "pq_c_daily_cus": null, "cluster_id": 6 }, "geometry": { "type": "Point", "coordinates": [ 71.4441013, 34.036758400000011 ] } },
{ "type": "Feature", "properties": { "_id": "674567956", "pq_city": 1.0, "pq_ward": 104.0, "count_female": 0.0, "count_male": 0.0, "pq_c_daily_cus": null, "cluster_id": 6 }, "geometry": { "type": "Point", "coordinates": [ 71.4445673, 34.0373402 ] } },
{ "type": "Feature", "properties": { "_id": "674569310", "pq_city": 1.0, "pq_ward": 101.0, "count_female": 0.0, "count_male": 3.0, "pq_c_daily_cus": 40.0, "cluster_id": 3 }, "geometry": { "type": "Point", "coordinates": [ 71.5324278, 34.0310509 ] } },
{ "type": "Feature", "properties": { "_id": "674570491", "pq_city": 1.0, "pq_ward": 101.0, "count_female": 0.0, "count_male": 0.0, "pq_c_daily_cus": null, "cluster_id": 8 }, "geometry": { "type": "Point", "coordinates": [ 71.5185862, 34.041828 ] } },
{ "type": "Feature", "properties": { "_id": "674570546", "pq_city": 1.0, "pq_ward": 101.0, "count_female": 0.0, "count_male": 0.0, "pq_c_daily_cus": null, "cluster_id": 3 }, "geometry": { "type": "Point", "coordinates": [ 71.532412100000016, 34.0310211 ] } },
{ "type": "Feature", "properties": { "_id": "674571503", "pq_city": 1.0, "pq_ward": 101.0, "count_female": 0.0, "count_male": 5.0, "pq_c_daily_cus": 100.0, "cluster_id": 3 }, "geometry": { "type": "Point", "coordinates": [ 71.532757700000019, 34.0304244 ] } },
{ "type": "Feature", "properties": { "_id": "674571888", "pq_city": 1.0, "pq_ward": 101.0, "count_female": 0.0, "count_male": 0.0, "pq_c_daily_cus": null, "cluster_id": 3 }, "geometry": { "type": "Point", "coordinates": [ 71.5331015, 34.0298736 ] } },
{ "type": "Feature", "properties": { "_id": "674572007", "pq_city": 1.0, "pq_ward": 101.0, "count_female": 0.0, "count_male": 0.0, "pq_c_daily_cus": null, "cluster_id": 8 }, "geometry": { "type": "Point", "coordinates": [ 71.525524, 34.037256599999985 ] } },
{ "type": "Feature", "properties": { "_id": "674572446", "pq_city": 1.0, "pq_ward": 101.0, "count_female": 0.0, "count_male": 4.0, "pq_c_daily_cus": 150.0, "cluster_id": 3 }, "geometry": { "type": "Point", "coordinates": [ 71.5331346, 34.0297032 ] } },
{ "type": "Feature", "properties": { "_id": "674574348", "pq_city": 1.0, "pq_ward": 101.0, "count_female": 0.0, "count_male": 2.0, "pq_c_daily_cus": 80.0, "cluster_id": 3 }, "geometry": { "type": "Point", "coordinates": [ 71.5334706, 34.0290311 ] } },
{ "type": "Feature", "properties": { "_id": "674576087", "pq_city": 1.0, "pq_ward": 101.0, "count_female": 0.0, "count_male": 2.0, "pq_c_daily_cus": 150.0, "cluster_id": 3 }, "geometry": { "type": "Point", "coordinates": [ 71.5354528, 34.0251647 ] } },
{ "type": "Feature", "properties": { "_id": "674577863", "pq_city": 1.0, "pq_ward": 101.0, "count_female": 0.0, "count_male": 0.0, "pq_c_daily_cus": null, "cluster_id": 3 }, "geometry": { "type": "Point", "coordinates": [ 71.5249986, 34.0255199 ] } },
{ "type": "Feature", "properties": { "_id": "674579088", "pq_city": 1.0, "pq_ward": 101.0, "count_female": 1.0, "count_male": 9.0, "pq_c_daily_cus": 550.0, "cluster_id": 3 }, "geometry": { "type": "Point", "coordinates": [ 71.5370241, 34.0228489 ] } },
{ "type": "Feature", "properties": { "_id": "674582480", "pq_city": 1.0, "pq_ward": 101.0, "count_female": 0.0, "count_male": 2.0, "pq_c_daily_cus": 20.0, "cluster_id": 8 }, "geometry": { "type": "Point", "coordinates": [ 71.518455, 34.0507264 ] } },
{ "type": "Feature", "properties": { "_id": "674584126", "pq_city": 1.0, "pq_ward": 101.0, "count_female": 0.0, "count_male": 0.0, "pq_c_daily_cus": null, "cluster_id": 3 }, "geometry": { "type": "Point", "coordinates": [ 71.5445204, 34.0247083 ] } },
{ "type": "Feature", "properties": { "_id": "674584656", "pq_city": 1.0, "pq_ward": 101.0, "count_female": 0.0, "count_male": 0.0, "pq_c_daily_cus": null, "cluster_id": 8 }, "geometry": { "type": "Point", "coordinates": [ 71.5171833, 34.0398816 ] } },
{ "type": "Feature", "properties": { "_id": "674590695", "pq_city": 1.0, "pq_ward": 101.0, "count_female": 0.0, "count_male": 0.0, "pq_c_daily_cus": null, "cluster_id": 8 }, "geometry": { "type": "Point", "coordinates": [ 71.507976, 34.0640577 ] } },
{ "type": "Feature", "properties": { "_id": "674592506", "pq_city": 1.0, "pq_ward": 101.0, "count_female": 0.0, "count_male": 3.0, "pq_c_daily_cus": 50.0, "cluster_id": 8 }, "geometry": { "type": "Point", "coordinates": [ 71.5185668, 34.0413091 ] } },
{ "type": "Feature", "properties": { "_id": "674593930", "pq_city": 1.0, "pq_ward": 101.0, "count_female": 0.0, "count_male": 2.0, "pq_c_daily_cus": 30.0, "cluster_id": 8 }, "geometry": { "type": "Point", "coordinates": [ 71.513301, 34.0569317 ] } },
{ "type": "Feature", "properties": { "_id": "674594121", "pq_city": 1.0, "pq_ward": 101.0, "count_female": 0.0, "count_male": 0.0, "pq_c_daily_cus": null, "cluster_id": 8 }, "geometry": { "type": "Point", "coordinates": [ 71.5195308, 34.0423882 ] } },
{ "type": "Feature", "properties": { "_id": "674595188", "pq_city": 1.0, "pq_ward": 101.0, "count_female": 0.0, "count_male": 0.0, "pq_c_daily_cus": null, "cluster_id": 8 }, "geometry": { "type": "Point", "coordinates": [ 71.5198625, 34.0427781 ] } },
{ "type": "Feature", "properties": { "_id": "674597153", "pq_city": 1.0, "pq_ward": 101.0, "count_female": 0.0, "count_male": 2.0, "pq_c_daily_cus": 15.0, "cluster_id": 8 }, "geometry": { "type": "Point", "coordinates": [ 71.5230295, 34.0453871 ] } },
{ "type": "Feature", "properties": { "_id": "674600893", "pq_city": 1.0, "pq_ward": 101.0, "count_female": 0.0, "count_male": 0.0, "pq_c_daily_cus": null, "cluster_id": 8 }, "geometry": { "type": "Point", "coordinates": [ 71.5233353, 34.0447387 ] } },
{ "type": "Feature", "properties": { "_id": "674604582", "pq_city": 1.0, "pq_ward": 101.0, "count_female": 0.0, "count_male": 4.0, "pq_c_daily_cus": 30.0, "cluster_id": 8 }, "geometry": { "type": "Point", "coordinates": [ 71.5261408, 34.0408331 ] } },
{ "type": "Feature", "properties": { "_id": "674607528", "pq_city": 1.0, "pq_ward": 104.0, "count_female": 0.0, "count_male": 0.0, "pq_c_daily_cus": null, "cluster_id": 6 }, "geometry": { "type": "Point", "coordinates": [ 71.4624632, 34.0475636 ] } },
{ "type": "Feature", "properties": { "_id": "674608506", "pq_city": 1.0, "pq_ward": 101.0, "count_female": 0.0, "count_male": 2.0, "pq_c_daily_cus": 100.0, "cluster_id": 8 }, "geometry": { "type": "Point", "coordinates": [ 71.5241291, 34.0393547 ] } },
{ "type": "Feature", "properties": { "_id": "674615657", "pq_city": 1.0, "pq_ward": 104.0, "count_female": 0.0, "count_male": 0.0, "pq_c_daily_cus": null, "cluster_id": 6 }, "geometry": { "type": "Point", "coordinates": [ 71.4622219, 34.0496954 ] } },
{ "type": "Feature", "properties": { "_id": "674616044", "pq_city": 1.0, "pq_ward": 101.0, "count_female": 0.0, "count_male": 0.0, "pq_c_daily_cus": null, "cluster_id": 8 }, "geometry": { "type": "Point", "coordinates": [ 71.5225628, 34.0367144 ] } },
{ "type": "Feature", "properties": { "_id": "674619053", "pq_city": 1.0, "pq_ward": 101.0, "count_female": 0.0, "count_male": 2.0, "pq_c_daily_cus": 300.0, "cluster_id": 8 }, "geometry": { "type": "Point", "coordinates": [ 71.5208523, 34.0387444 ] } },
{ "type": "Feature", "properties": { "_id": "674624707", "pq_city": 1.0, "pq_ward": 104.0, "count_female": 0.0, "count_male": 0.0, "pq_c_daily_cus": null, "cluster_id": 6 }, "geometry": { "type": "Point", "coordinates": [ 71.4698341, 34.0570464 ] } },
{ "type": "Feature", "properties": { "_id": "674625353", "pq_city": 1.0, "pq_ward": 101.0, "count_female": 0.0, "count_male": 3.0, "pq_c_daily_cus": 150.0, "cluster_id": 8 }, "geometry": { "type": "Point", "coordinates": [ 71.5277832, 34.0390395 ] } },
{ "type": "Feature", "properties": { "_id": "674625446", "pq_city": 1.0, "pq_ward": 101.0, "count_female": 0.0, "count_male": 0.0, "pq_c_daily_cus": null, "cluster_id": 8 }, "geometry": { "type": "Point", "coordinates": [ 71.5277323, 34.0389819 ] } },
{ "type": "Feature", "properties": { "_id": "674625730", "pq_city": 1.0, "pq_ward": 104.0, "count_female": 0.0, "count_male": 0.0, "pq_c_daily_cus": null, "cluster_id": 6 }, "geometry": { "type": "Point", "coordinates": [ 71.469679, 34.0571929 ] } },
{ "type": "Feature", "properties": { "_id": "674626687", "pq_city": 1.0, "pq_ward": 101.0, "count_female": 0.0, "count_male": 3.0, "pq_c_daily_cus": 150.0, "cluster_id": 8 }, "geometry": { "type": "Point", "coordinates": [ 71.528105, 34.0384883 ] } },
{ "type": "Feature", "properties": { "_id": "674626744", "pq_city": 1.0, "pq_ward": 101.0, "count_female": 0.0, "count_male": 0.0, "pq_c_daily_cus": null, "cluster_id": 8 }, "geometry": { "type": "Point", "coordinates": [ 71.5281014, 34.0384513 ] } },
{ "type": "Feature", "properties": { "_id": "674626856", "pq_city": 1.0, "pq_ward": 104.0, "count_female": 0.0, "count_male": 0.0, "pq_c_daily_cus": null, "cluster_id": 6 }, "geometry": { "type": "Point", "coordinates": [ 71.4696569, 34.0573118 ] } },
{ "type": "Feature", "properties": { "_id": "674628007", "pq_city": 1.0, "pq_ward": 104.0, "count_female": 0.0, "count_male": 0.0, "pq_c_daily_cus": null, "cluster_id": 6 }, "geometry": { "type": "Point", "coordinates": [ 71.4694181, 34.0579409 ] } },
{ "type": "Feature", "properties": { "_id": "674654395", "pq_city": 1.0, "pq_ward": 104.0, "count_female": 0.0, "count_male": 0.0, "pq_c_daily_cus": null, "cluster_id": 6 }, "geometry": { "type": "Point", "coordinates": [ 71.4771965, 34.0414208 ] } },
{ "type": "Feature", "properties": { "_id": "674989059", "pq_city": 1.0, "pq_ward": 101.0, "count_female": 0.0, "count_male": 2.0, "pq_c_daily_cus": 25.0, "cluster_id": 8 }, "geometry": { "type": "Point", "coordinates": [ 71.5223383, 34.0460921 ] } },
{ "type": "Feature", "properties": { "_id": "674989716", "pq_city": 1.0, "pq_ward": 104.0, "count_female": 0.0, "count_male": 3.0, "pq_c_daily_cus": 120.0, "cluster_id": 5 }, "geometry": { "type": "Point", "coordinates": [ 71.4314741, 34.0310813 ] } },
{ "type": "Feature", "properties": { "_id": "674993016", "pq_city": 1.0, "pq_ward": 104.0, "count_female": 0.0, "count_male": 3.0, "pq_c_daily_cus": 80.0, "cluster_id": 5 }, "geometry": { "type": "Point", "coordinates": [ 71.4213456, 34.040356 ] } },
{ "type": "Feature", "properties": { "_id": "674996006", "pq_city": 1.0, "pq_ward": 104.0, "count_female": 0.0, "count_male": 4.0, "pq_c_daily_cus": 50.0, "cluster_id": 5 }, "geometry": { "type": "Point", "coordinates": [ 71.422222600000012, 34.0320943 ] } },
{ "type": "Feature", "properties": { "_id": "675008480", "pq_city": 1.0, "pq_ward": 101.0, "count_female": 0.0, "count_male": 0.0, "pq_c_daily_cus": null, "cluster_id": 8 }, "geometry": { "type": "Point", "coordinates": [ 71.5215256, 34.047315600000012 ] } },
{ "type": "Feature", "properties": { "_id": "675025718", "pq_city": 1.0, "pq_ward": 101.0, "count_female": 0.0, "count_male": 0.0, "pq_c_daily_cus": null, "cluster_id": 8 }, "geometry": { "type": "Point", "coordinates": [ 71.5296736, 34.0401331 ] } },
{ "type": "Feature", "properties": { "_id": "690799474", "pq_city": 1.0, "pq_ward": 111.0, "count_female": 0.0, "count_male": 0.0, "pq_c_daily_cus": null, "cluster_id": 2 }, "geometry": { "type": "Point", "coordinates": [ 71.48492, 33.99162 ] } }
]
}
