{
"type": "FeatureCollection",
"name": "pk_pesha_hull.geojson",
"crs": { "type": "name", "properties": { "name": "urn:ogc:def:crs:OGC:1.3:CRS84" } },
"features": [
{ "type": "Feature", "properties": { "cluster_id": 1, "point_count": 25, "count_female_sum": 0.0, "count_female_count": 25, "count_female_mean": 0.0, "count_male_sum": 5.0, "count_male_count": 25, "count_male_mean": 5.0, "pq_c_daily_cus_sum": 150.0, "pq_c_daily_cus_count": 1, "pq_c_daily_cus_mean": 150.0, "nearest_group": 2, "nearest_distance": 165.8873430740521 }, "geometry": { "type": "Polygon", "coordinates": [ [ [ 71.5147628, 33.975808 ], [ 71.5126335, 33.9784386 ], [ 71.503596, 33.9874886 ], [ 71.4973691, 33.9874212 ], [ 71.4793208, 33.9824128 ], [ 71.4774394, 33.9803438 ], [ 71.4765482, 33.979263300000014 ], [ 71.4735124, 33.975328 ], [ 71.478689, 33.9735421 ], [ 71.5032331, 33.965418 ], [ 71.514817, 33.974586 ], [ 71.5147628, 33.975808 ] ] ] } },
{ "type": "Feature", "properties": { "cluster_id": 2, "point_count": 70, "count_female_sum": 0.0, "count_female_count": 70, "count_female_mean": 0.0, "count_male_sum": 172.0, "count_male_count": 70, "count_male_mean": 10.0, "pq_c_daily_cus_sum": 6830.0, "pq_c_daily_cus_count": 47, "pq_c_daily_cus_mean": 700.0, "nearest_group": 1, "nearest_distance": 165.8873430740521 }, "geometry": { "type": "Polygon", "coordinates": [ [ [ 71.5063929, 33.994921699999985 ], [ 71.5007505, 34.0028398 ], [ 71.4936603, 34.0071278 ], [ 71.4864109, 33.9979811 ], [ 71.4839599, 33.9912122 ], [ 71.4849903, 33.98888310000001 ], [ 71.4922739, 33.988239300000011 ], [ 71.5044995, 33.989911499999984 ], [ 71.5046671, 33.9900581 ], [ 71.5063929, 33.994921699999985 ] ] ] } },
{ "type": "Feature", "properties": { "cluster_id": 3, "point_count": 22, "count_female_sum": 1.0, "count_female_count": 22, "count_female_mean": 1.0, "count_male_sum": 47.0, "count_male_count": 22, "count_male_mean": 9.0, "pq_c_daily_cus_sum": 1515.0, "pq_c_daily_cus_count": 11, "pq_c_daily_cus_mean": 550.0, "nearest_group": 7, "nearest_distance": 403.29601160246705 }, "geometry": { "type": "Polygon", "coordinates": [ [ [ 71.5445204, 34.0247083 ], [ 71.5324278, 34.0310509 ], [ 71.5182511, 34.025466399999985 ], [ 71.5181476, 34.0235141 ], [ 71.5317985, 34.0174468 ], [ 71.5343623, 34.0163225 ], [ 71.5389098, 34.0192938 ], [ 71.5445204, 34.0247083 ] ] ] } },
{ "type": "Feature", "properties": { "cluster_id": 4, "point_count": 32, "count_female_sum": 0.0, "count_female_count": 32, "count_female_mean": 0.0, "count_male_sum": 19.0, "count_male_count": 32, "count_male_mean": 4.0, "pq_c_daily_cus_sum": 265.0, "pq_c_daily_cus_count": 8, "pq_c_daily_cus_mean": 60.0, "nearest_group": 7, "nearest_distance": 238.2703658108517 }, "geometry": { "type": "Polygon", "coordinates": [ [ [ 71.4922059, 34.041801799999988 ], [ 71.4838617, 34.0429017 ], [ 71.474126, 34.0279585 ], [ 71.47544, 34.0163439 ], [ 71.4775452, 34.0160459 ], [ 71.4963988, 34.0197324 ], [ 71.4922059, 34.041801799999988 ] ] ] } },
{ "type": "Feature", "properties": { "cluster_id": 5, "point_count": 14, "count_female_sum": 0.0, "count_female_count": 14, "count_female_mean": 0.0, "count_male_sum": 17.0, "count_male_count": 14, "count_male_mean": 4.0, "pq_c_daily_cus_sum": 450.0, "pq_c_daily_cus_count": 5, "pq_c_daily_cus_mean": 150.0, "nearest_group": 6, "nearest_distance": 1302.8425205820786 }, "geometry": { "type": "Polygon", "coordinates": [ [ [ 71.4458407, 34.005571 ], [ 71.4314741, 34.0310813 ], [ 71.4213456, 34.040356 ], [ 71.4095335, 33.9993081 ], [ 71.4233438, 33.9978877 ], [ 71.4236585, 33.9979353 ], [ 71.4302796, 33.9997114 ], [ 71.4458407, 34.005571 ] ] ] } },
{ "type": "Feature", "properties": { "cluster_id": 6, "point_count": 13, "count_female_sum": 0.0, "count_female_count": 13, "count_female_mean": 0.0, "count_male_sum": 0.0, "count_male_count": 13, "count_male_mean": 0.0, "pq_c_daily_cus_sum": 0.0, "pq_c_daily_cus_count": 0, "nearest_group": 4, "nearest_distance": 446.91795859121027 }, "geometry": { "type": "Polygon", "coordinates": [ [ [ 71.4856771, 34.0533977 ], [ 71.4694181, 34.057940899999984 ], [ 71.4445673, 34.0373402 ], [ 71.4438398, 34.03673 ], [ 71.4441013, 34.036758400000025 ], [ 71.4771965, 34.0414208 ], [ 71.4856771, 34.0533977 ] ] ] } },
{ "type": "Feature", "properties": { "cluster_id": 7, "point_count": 47, "count_female_sum": 0.0, "count_female_count": 47, "count_female_mean": 0.0, "count_male_sum": 31.0, "count_male_count": 47, "count_male_mean": 5.0, "pq_c_daily_cus_sum": 1485.0, "pq_c_daily_cus_count": 12, "pq_c_daily_cus_mean": 300.0, "nearest_group": 4, "nearest_distance": 238.2703658108517 }, "geometry": { "type": "Polygon", "coordinates": [ [ [ 71.523586, 34.0124971 ], [ 71.5224862, 34.0138787 ], [ 71.5094437, 34.026266599999985 ], [ 71.4960461, 34.0166426 ], [ 71.4942467, 34.0104231 ], [ 71.5031472, 34.0047664 ], [ 71.5209876, 34.0084759 ], [ 71.523586, 34.0124971 ] ] ] } },
{ "type": "Feature", "properties": { "cluster_id": 8, "point_count": 22, "count_female_sum": 0.0, "count_female_count": 22, "count_female_mean": 0.0, "count_male_sum": 25.0, "count_male_count": 22, "count_male_mean": 4.0, "pq_c_daily_cus_sum": 870.0, "pq_c_daily_cus_count": 10, "pq_c_daily_cus_mean": 300.0, "nearest_group": 3, "nearest_distance": 895.12224066849956 }, "geometry": { "type": "Polygon", "coordinates": [ [ [ 71.5296736, 34.0401331 ], [ 71.507976, 34.0640577 ], [ 71.5171833, 34.0398816 ], [ 71.5225628, 34.0367144 ], [ 71.525524, 34.037256599999985 ], [ 71.5281014, 34.0384513 ], [ 71.5296736, 34.0401331 ] ] ] } },
{ "type": "Feature", "properties": { "cluster_id": 9, "point_count": 56, "count_female_sum": 2.0, "count_female_count": 56, "count_female_mean": 1.0, "count_male_sum": 56.0, "count_male_count": 56, "count_male_mean": 6.0, "pq_c_daily_cus_sum": 1905.0, "pq_c_daily_cus_count": 19, "pq_c_daily_cus_mean": 250.0, "nearest_group": 1, "nearest_distance": 323.04628282442093 }, "geometry": { "type": "Polygon", "coordinates": [ [ [ 71.481699, 34.002205 ], [ 71.4729297, 34.0065132 ], [ 71.4593515, 34.0130021 ], [ 71.4637917, 33.990205 ], [ 71.476706, 33.9843449 ], [ 71.481699, 34.002205 ] ] ] } }
]
}
